{"type":"FeatureCollection","features":[{"type":"Feature","properties":{"@id":"relation/19058340","admin_level":"10","boundary":"administrative","katotth":"UA07080250100030478","koatuu":"0724584604","name":"Єлизаветин","name:en":"Yelyzavetyn","name:ko":"옐리자베틴","name:pl":"Elżbietyn","name:prefix":"село","name:ru":"Елизаветин","name:uk":"Єлизаветин","place":"village","population":"391","postal_code":"45108","proposed:name":"Єлізаветин","type":"boundary","wikidata":"Q4174786","wikipedia":"uk:Єлизаветин"},"geometry":{"type":"Polygon","coordinates":[[[25.36572,50.92798],[25.36709,50.92867],[25.3696333,50.9301283],[25.3703928,50.9312046],[25.36726,50.93399],[25.36623,50.93691],[25.36039,50.93674],[25.36039,50.93399],[25.34615,50.92747],[25.34288,50.92832],[25.34014,50.92953],[25.3199887,50.9300956],[25.3199699,50.9299705],[25.3199083,50.9298911],[25.3192323,50.9298387],[25.3189909,50.9284964],[25.3194308,50.9284829],[25.3199619,50.9271574],[25.3216892,50.9272893],[25.3225154,50.9270932],[25.3234327,50.9266164],[25.33482,50.92609],[25.3383243,50.9249156],[25.3387642,50.9239621],[25.343045,50.9221834],[25.3437745,50.9214868],[25.3434,50.91579],[25.34718,50.91511],[25.3513,50.91476],[25.35147,50.91837],[25.35627,50.91888],[25.35559,50.923],[25.36057,50.92558],[25.35936,50.92832],[25.36383,50.93021],[25.36572,50.92798]]]},"id":"relation/19058340"},{"type":"Feature","properties":{"@id":"node/337513946","@relations":[{"role":"label","rel":19058340,"reltags":{"admin_level":"10","boundary":"administrative","katotth":"UA07080250100030478","koatuu":"0724584604","name":"Єлизаветин","name:en":"Yelyzavetyn","name:ko":"옐리자베틴","name:pl":"Elżbietyn","name:prefix":"село","name:ru":"Елизаветин","name:uk":"Єлизаветин","place":"village","population":"391","postal_code":"45108","proposed:name":"Єлізаветин","type":"boundary","wikidata":"Q4174786","wikipedia":"uk:Єлизаветин"}}]},"geometry":{"type":"Point","coordinates":[25.348209,50.925411]},"id":"node/337513946"}]}