{"type":"FeatureCollection","features":[{"type":"Feature","properties":{"@id":"relation/3493527","admin_level":"9","boundary":"administrative","landuse":"residential","name":"Нова Рудня","name:uk":"Нова Рудня","place":"village","type":"boundary","wikidata":"Q4322290","wikipedia":"uk:Нова Рудня (Житомирський район)"},"geometry":{"type":"MultiPolygon","coordinates":[[[[28.3159732,50.1829819],[28.3173842,50.1830989],[28.3220765,50.1844724],[28.3243029,50.1839227],[28.3267088,50.1837393],[28.3294799,50.1828206],[28.3340911,50.1814516],[28.3354515,50.1821078],[28.3371312,50.1839314],[28.3383591,50.18547],[28.337723,50.1856679],[28.3379174,50.1860865],[28.3358591,50.1865051],[28.3353291,50.1864428],[28.3351347,50.1866012],[28.3344369,50.1866521],[28.3335182,50.1864994],[28.3331648,50.1867143],[28.3317779,50.18672],[28.3305323,50.1872573],[28.3301525,50.1875854],[28.3298433,50.1880831],[28.3291278,50.188496],[28.3275112,50.18935],[28.3266278,50.1895537],[28.3267338,50.1897969],[28.3260713,50.1898873],[28.3251614,50.1898364],[28.3247462,50.1899382],[28.3243663,50.1898704],[28.3235448,50.1900966],[28.3228999,50.1906565],[28.3229883,50.1909789],[28.3225554,50.1917028],[28.3219105,50.1923136],[28.3213717,50.1925172],[28.3205413,50.1926134],[28.3197109,50.1924833],[28.3179618,50.1919573],[28.3155237,50.1916519],[28.3131916,50.1915954],[28.3123082,50.1918612],[28.3116457,50.1919913],[28.3105414,50.1920195],[28.3094234,50.1917946],[28.3085364,50.1914107],[28.3081866,50.1908828],[28.3076994,50.1903869],[28.3071372,50.1902749],[28.3066375,50.1902189],[28.3059254,50.1902749],[28.3049385,50.1906349],[28.3037897,50.1913681],[28.3031183,50.1917923],[28.3018589,50.1923721],[28.3009969,50.19266],[28.3008074,50.192721],[28.3003834,50.192704],[28.2994608,50.1923503],[28.2969123,50.1916825],[28.2962571,50.1914918],[28.2960898,50.1911046],[28.2960721,50.1907483],[28.2955509,50.1902902],[28.295933,50.1898627],[28.2913044,50.1896028],[28.2912982,50.1892948],[28.2949994,50.1871499],[28.2962464,50.1869692],[28.2980145,50.1874196],[28.3000884,50.1882355],[28.3037363,50.1884914],[28.3040441,50.1886141],[28.306553,50.1874341],[28.3048494,50.186154],[28.3032083,50.1866501],[28.3021339,50.1867301],[28.2987483,50.1857063],[28.2988233,50.1852343],[28.2994029,50.1848811],[28.300304,50.1840779],[28.3014263,50.1838244],[28.3048744,50.1804485],[28.3062985,50.1810565],[28.3057738,50.1829125],[28.3087421,50.1838398],[28.3084414,50.1841733],[28.3104379,50.1854517],[28.3125226,50.1833701],[28.3131645,50.1830732],[28.3136017,50.1823075],[28.3152028,50.1820627],[28.3159732,50.1829819]]],[[[28.3113094,50.1800807],[28.3100132,50.1779704],[28.3104805,50.1778344],[28.3111862,50.17724],[28.3125205,50.177206],[28.3125205,50.1778059],[28.3136957,50.1776757],[28.3138105,50.1783887],[28.3134483,50.1784793],[28.3130153,50.1796789],[28.3113094,50.1800807]]]]},"id":"relation/3493527"},{"type":"Feature","properties":{"@id":"relation/4673421","admin_level":"9","boundary":"administrative","koatuu":"1822082201","name":"Дениші","name:cs":"Denyši","name:de":"Denyschi","name:en":"Denyshi","name:es":"Deníshi","name:fi":"Denyši","name:fr":"Denychi","name:it":"Denyši","name:ko":"데니시","name:pl":"Denesze","name:prefix":"село","name:ro":"Denîși","name:ru":"Дениши","name:uk":"Дениші","name:zh":"代尼希","place":"village","population":"1164","postal_code":"12422","type":"boundary","wikidata":"Q4158075","wikipedia":"uk:Дениші"},"geometry":{"type":"MultiPolygon","coordinates":[[[[28.3702022,50.2035981],[28.3693117,50.2030075],[28.3722031,50.2026367],[28.3722246,50.2034985],[28.3702022,50.2035981]]],[[[28.3746397,50.2016579],[28.3752196,50.2004408],[28.3762517,50.200221],[28.3788239,50.2003807],[28.3792063,50.2012306],[28.3803188,50.2012475],[28.3809577,50.2017497],[28.3814679,50.2017453],[28.3808606,50.202254],[28.3792496,50.2029039],[28.3778082,50.2028472],[28.3774992,50.2028888],[28.3771252,50.2028394],[28.3762593,50.2028992],[28.3753242,50.2028992],[28.3746397,50.2016579]]],[[[28.4146352,50.2067506],[28.4160849,50.2089606],[28.4203014,50.2087491],[28.4247797,50.2086844],[28.4284757,50.2079738],[28.4314067,50.207359],[28.4328698,50.2069666],[28.4343121,50.2066884],[28.4379418,50.2062532],[28.4409833,50.2057353],[28.4419508,50.2090852],[28.4370704,50.2099911],[28.4375274,50.2118736],[28.4348033,50.212267],[28.4265228,50.2135756],[28.4218756,50.214698],[28.4189216,50.2151885],[28.4172531,50.2152508],[28.4169526,50.2195484],[28.4168239,50.2214979],[28.4136482,50.2214156],[28.4135838,50.2227747],[28.4112213,50.2253378],[28.4040974,50.2250358],[28.4034322,50.2254614],[28.4002135,50.225832],[28.3986471,50.2251868],[28.4019537,50.2221981],[28.4011362,50.220519],[28.4023164,50.2182948],[28.4024022,50.2168257],[28.3966086,50.2165923],[28.401222,50.2075636],[28.4051273,50.2077902],[28.4051938,50.2049241],[28.4084962,50.2050161],[28.4093995,50.2044022],[28.4110947,50.2044571],[28.4126397,50.2048966],[28.4135409,50.2054185],[28.4146352,50.2067506]]]]},"id":"relation/4673421"},{"type":"Feature","properties":{"@id":"relation/4791037","admin_level":"9","boundary":"administrative","name":"Висока Піч","name:de":"Wyssoka Pitsch","name:en":"Vysoka Pich","name:fi":"Vysoka Pitš","name:fr":"Vyssoka Pitch","name:it":"Vysoka Pič","name:ko":"비소카 피치","name:pl":"Wysoki Piec","name:prefix":"село","name:ro":"Vîsoka Pici","name:ru":"Высокая Печь","name:uk":"Висока Піч","name:zh":"維索卡皮奇","place":"village","type":"boundary","wikidata":"Q4129275","wikipedia":"uk:Висока Піч"},"geometry":{"type":"Polygon","coordinates":[[[28.2782875,50.1929781],[28.2781724,50.1952114],[28.2784391,50.1963375],[28.2790703,50.1965387],[28.2797415,50.1964872],[28.2798194,50.1984165],[28.2790228,50.199785],[28.277746,50.1993907],[28.2768685,50.1991633],[28.2763997,50.1999867],[28.2744635,50.19948],[28.2729797,50.198997],[28.2700664,50.19809],[28.2692458,50.1977155],[28.2694289,50.1973936],[28.2683883,50.1971006],[28.2681362,50.1974193],[28.2674409,50.1983388],[28.2664815,50.1990636],[28.2651985,50.1995674],[28.2641471,50.1992996],[28.2615988,50.1994582],[28.26141,50.1986954],[28.2603011,50.1988465],[28.2521521,50.199831],[28.2459435,50.2006211],[28.2458243,50.2002461],[28.2475467,50.1989095],[28.2505079,50.1960774],[28.2511922,50.1953675],[28.2515697,50.1953448],[28.2518764,50.1950805],[28.252018,50.1945141],[28.2493845,50.194256],[28.2487501,50.1939552],[28.249918,50.1930488],[28.2485461,50.1928645],[28.2480866,50.1928028],[28.2384157,50.1914379],[28.238456,50.1906182],[28.2445672,50.1892586],[28.248742,50.1902289],[28.2496402,50.1902911],[28.2506055,50.190358],[28.2523189,50.1906566],[28.2518801,50.1914473],[28.2522166,50.1915305],[28.2520751,50.1918115],[28.2542073,50.1921444],[28.2543502,50.1919051],[28.2590793,50.1924045],[28.2604606,50.1927062],[28.2605743,50.1924669],[28.2649946,50.1932888],[28.2650866,50.1929937],[28.2675831,50.1935688],[28.2701786,50.1909999],[28.2653412,50.1883957],[28.2665671,50.1873586],[28.2663833,50.1873071],[28.2672566,50.1865787],[28.2670957,50.1864463],[28.2676275,50.1861068],[28.2711702,50.1832608],[28.2720644,50.1830082],[28.2723057,50.1827581],[28.2732365,50.1827433],[28.2735698,50.1829935],[28.2732135,50.1835086],[28.2733974,50.1836852],[28.2745925,50.1840825],[28.275167,50.1839942],[28.2755003,50.1842886],[28.2757416,50.1842518],[28.2760518,50.1844799],[28.275914,50.1848257],[28.2767758,50.1855173],[28.2761093,50.1862016],[28.2769246,50.1870287],[28.2764425,50.1872979],[28.2764897,50.1873675],[28.2769026,50.1874589],[28.2801667,50.1881154],[28.2808151,50.1873976],[28.2834423,50.1881467],[28.2835556,50.1880107],[28.2869317,50.1889073],[28.2901595,50.1900379],[28.2855179,50.1929649],[28.2844337,50.1934612],[28.2837212,50.1936524],[28.282779,50.193726],[28.2816183,50.1936892],[28.2782875,50.1929781]]]},"id":"relation/4791037"},{"type":"Feature","properties":{"@id":"node/337526771","@relations":[{"role":"label","rel":4673421,"reltags":{"admin_level":"9","boundary":"administrative","koatuu":"1822082201","name":"Дениші","name:cs":"Denyši","name:de":"Denyschi","name:en":"Denyshi","name:es":"Deníshi","name:fi":"Denyši","name:fr":"Denychi","name:it":"Denyši","name:ko":"데니시","name:pl":"Denesze","name:prefix":"село","name:ro":"Denîși","name:ru":"Дениши","name:uk":"Дениші","name:zh":"代尼希","place":"village","population":"1164","postal_code":"12422","type":"boundary","wikidata":"Q4158075","wikipedia":"uk:Дениші"}}]},"geometry":{"type":"Point","coordinates":[28.4061973,50.2109377]},"id":"node/337526771"},{"type":"Feature","properties":{"@id":"node/337527181","@relations":[{"role":"admin_centre","rel":4791037,"reltags":{"admin_level":"9","boundary":"administrative","name":"Висока Піч","name:de":"Wyssoka Pitsch","name:en":"Vysoka Pich","name:fi":"Vysoka Pitš","name:fr":"Vyssoka Pitch","name:it":"Vysoka Pič","name:ko":"비소카 피치","name:pl":"Wysoki Piec","name:prefix":"село","name:ro":"Vîsoka Pici","name:ru":"Высокая Печь","name:uk":"Висока Піч","name:zh":"維索卡皮奇","place":"village","type":"boundary","wikidata":"Q4129275","wikipedia":"uk:Висока Піч"}}]},"geometry":{"type":"Point","coordinates":[28.268542,50.193674]},"id":"node/337527181"},{"type":"Feature","properties":{"@id":"node/337527236","@relations":[{"role":"admin_centre","rel":3493527,"reltags":{"admin_level":"9","boundary":"administrative","landuse":"residential","name":"Нова Рудня","name:uk":"Нова Рудня","place":"village","type":"boundary","wikidata":"Q4322290","wikipedia":"uk:Нова Рудня (Житомирський район)"}}]},"geometry":{"type":"Point","coordinates":[28.3197291,50.1897136]},"id":"node/337527236"}]}