{"type":"FeatureCollection","features":[{"type":"Feature","properties":{"@id":"relation/4673430","admin_level":"9","boundary":"administrative","name":"Нові Озеряни","name:de":"Nowi Oserjany","name:en":"Novi Ozeriany","name:fi":"Novi Ozerjany","name:it":"Novi Ozerjany","name:ko":"노비 오제랴니","name:prefix":"село","name:ro":"Novi Ozereanî","name:uk":"Нові Озеряни","name:zh":"新奧澤里亞尼","place":"village","type":"boundary"},"geometry":{"type":"Polygon","coordinates":[[[29.4165322,50.326405],[29.4160867,50.3264845],[29.4149309,50.3254394],[29.411087,50.3269297],[29.4103498,50.326871],[29.4065089,50.3219118],[29.4092554,50.3208157],[29.4065947,50.3170069],[29.407174,50.31217],[29.4092983,50.3130469],[29.4113368,50.3116629],[29.4171304,50.3129647],[29.4184608,50.310923],[29.4213146,50.3114848],[29.4222588,50.3105393],[29.4249624,50.30958],[29.4249624,50.3087167],[29.4280309,50.3084563],[29.4287605,50.3127318],[29.4294471,50.3127592],[29.4301767,50.3119096],[29.4333953,50.3115944],[29.4347471,50.3130058],[29.4397682,50.3118822],[29.4439739,50.31069],[29.4467205,50.3119918],[29.4377298,50.3147871],[29.4420213,50.3159655],[29.4406051,50.3180756],[29.4395629,50.3178557],[29.4381375,50.3175549],[29.4364208,50.3191716],[29.4376868,50.3204595],[29.4343824,50.3216789],[29.4316358,50.3202266],[29.430241,50.3204732],[29.431499,50.3219313],[29.4256276,50.3261792],[29.4199843,50.3285696],[29.4165322,50.326405]]]},"id":"relation/4673430"},{"type":"Feature","properties":{"@id":"relation/7367908","admin_level":"9","alt_name:pl":"Soboliwka;Sobolówka","boundary":"administrative","name":"Соболівка","name:de":"Soboliwka","name:en":"Sobolivka","name:ko":"소볼리우카","name:pl":"Sobolówka","name:prefix":"село","name:ru":"Соболевка","name:uk":"Соболівка","name:zh":"索博利夫卡","place":"village","population":"358","postal_code":"12640","source:name:pl":"https://freemap.com.ua/karty-ukrainy/podborka-polskix-kart/polskie-wig-karty-kvadrat-79/","type":"boundary"},"geometry":{"type":"Polygon","coordinates":[[[29.4123588,50.1365935],[29.413606,50.1293717],[29.4143959,50.1255206],[29.4144374,50.1251741],[29.4156223,50.1238014],[29.418865,50.1248143],[29.4195301,50.1256938],[29.4195093,50.1272929],[29.4211515,50.1289453],[29.4249346,50.1291452],[29.4250385,50.1301046],[29.4290919,50.1309308],[29.4301936,50.1307975],[29.4303183,50.1310107],[29.427138,50.1334358],[29.4286138,50.1347415],[29.4291542,50.1361538],[29.4302559,50.1366468],[29.4306717,50.1372996],[29.4295492,50.1373796],[29.427429,50.1371531],[29.4267846,50.1374728],[29.4260778,50.1403638],[29.4262649,50.14095],[29.4260778,50.1427085],[29.427616,50.1441872],[29.4277823,50.1447466],[29.4266391,50.1461586],[29.4263896,50.1468247],[29.426452,50.1483565],[29.4262649,50.1487694],[29.4245396,50.1486096],[29.4236043,50.1484098],[29.4223779,50.1484364],[29.4212138,50.1484897],[29.4201745,50.1481833],[29.4196756,50.1481567],[29.4189065,50.148543],[29.4166408,50.1486229],[29.4147077,50.1482366],[29.4144296,50.1479985],[29.4148141,50.1475389],[29.4147725,50.1472858],[29.414097,50.1469195],[29.4131928,50.1467131],[29.4124029,50.1463068],[29.4118105,50.145774],[29.4111453,50.1449148],[29.4106153,50.1441555],[29.4114804,50.1434257],[29.4113334,50.142625],[29.4102752,50.1423236],[29.4084379,50.1418055],[29.4084526,50.1413534],[29.4091434,50.1403266],[29.4087759,50.139978],[29.4092757,50.1393092],[29.4094815,50.1389418],[29.4105691,50.1385649],[29.4109072,50.138141],[29.4108925,50.1374627],[29.4113922,50.136775],[29.4123588,50.1365935]]]},"id":"relation/7367908"},{"type":"Feature","properties":{"@id":"relation/9664238","admin_level":"9","boundary":"administrative","koatuu":"1820982501","name":"Містечко","name:en":"Mistechko","name:pl":"Miasteczko","name:prefix":"село","name:ru":"Местечко","name:uk":"Містечко","place":"village","population":"207","postal_code":"12613","type":"boundary","wikidata":"Q4291336","wikipedia":"uk:Містечко (село)"},"geometry":{"type":"Polygon","coordinates":[[[29.57202,50.3359513],[29.5709566,50.3356565],[29.5726823,50.3339513],[29.5728677,50.3336783],[29.5737089,50.3329502],[29.5722831,50.3317852],[29.5691462,50.3298373],[29.5721833,50.3284629],[29.5752346,50.3301468],[29.5757479,50.3309842],[29.5773591,50.3319399],[29.5789276,50.3332687],[29.5822355,50.3354348],[29.5843743,50.3368546],[29.5856861,50.3366635],[29.5871405,50.3368728],[29.5890654,50.3370821],[29.5907621,50.3371822],[29.5923876,50.3372277],[29.5935996,50.3369547],[29.5942555,50.3371276],[29.5961946,50.3370639],[29.5971357,50.3372641],[29.5989465,50.3377101],[29.6050777,50.3392117],[29.6062469,50.339967],[29.6079009,50.3404038],[29.6093268,50.340877],[29.6095406,50.341514],[29.610441,50.3423967],[29.6089691,50.3433723],[29.6080095,50.3440083],[29.6044981,50.3424519],[29.6025002,50.3418267],[29.6012611,50.3425487],[29.5996927,50.3415477],[29.5988657,50.3414476],[29.5979674,50.3409471],[29.5968553,50.340665],[29.595624,50.340476],[29.5950109,50.3414133],[29.5929861,50.3410493],[29.5919168,50.3418501],[29.5914701,50.3420515],[29.5911109,50.3417617],[29.5893787,50.3425326],[29.587297,50.3426964],[29.5862561,50.3420048],[29.5845451,50.3416408],[29.5813227,50.341568],[29.5786135,50.3421322],[29.5758331,50.3424143],[29.5750917,50.3426418],[29.5729886,50.3426464],[29.5725964,50.3430058],[29.5707215,50.3436701],[29.5701511,50.343438],[29.568654,50.3420003],[29.5685969,50.3417],[29.5695523,50.3407718],[29.5687363,50.3405346],[29.5696414,50.3397462],[29.5706288,50.3389381],[29.5716197,50.3378961],[29.5708712,50.3377459],[29.5720047,50.3361396],[29.57202,50.3359513]]]},"id":"relation/9664238"},{"type":"Feature","properties":{"@id":"node/337524082","@relations":[{"role":"label","rel":9664238,"reltags":{"admin_level":"9","boundary":"administrative","koatuu":"1820982501","name":"Містечко","name:en":"Mistechko","name:pl":"Miasteczko","name:prefix":"село","name:ru":"Местечко","name:uk":"Містечко","place":"village","population":"207","postal_code":"12613","type":"boundary","wikidata":"Q4291336","wikipedia":"uk:Містечко (село)"}}]},"geometry":{"type":"Point","coordinates":[29.5865304,50.3390565]},"id":"node/337524082"},{"type":"Feature","properties":{"@id":"node/337524601","@relations":[{"role":"label","rel":4673430,"reltags":{"admin_level":"9","boundary":"administrative","name":"Нові Озеряни","name:de":"Nowi Oserjany","name:en":"Novi Ozeriany","name:fi":"Novi Ozerjany","name:it":"Novi Ozerjany","name:ko":"노비 오제랴니","name:prefix":"село","name:ro":"Novi Ozereanî","name:uk":"Нові Озеряни","name:zh":"新奧澤里亞尼","place":"village","type":"boundary"}}]},"geometry":{"type":"Point","coordinates":[29.41898,50.316349]},"id":"node/337524601"},{"type":"Feature","properties":{"@id":"node/337528391","@relations":[{"role":"label","rel":7367908,"reltags":{"admin_level":"9","alt_name:pl":"Soboliwka;Sobolówka","boundary":"administrative","name":"Соболівка","name:de":"Soboliwka","name:en":"Sobolivka","name:ko":"소볼리우카","name:pl":"Sobolówka","name:prefix":"село","name:ru":"Соболевка","name:uk":"Соболівка","name:zh":"索博利夫卡","place":"village","population":"358","postal_code":"12640","source:name:pl":"https://freemap.com.ua/karty-ukrainy/podborka-polskix-kart/polskie-wig-karty-kvadrat-79/","type":"boundary"}}]},"geometry":{"type":"Point","coordinates":[29.419331,50.140228]},"id":"node/337528391"}]}