{"type":"FeatureCollection","features":[{"type":"Feature","properties":{"@id":"relation/3313703","admin_level":"10","boundary":"administrative","flag":"http://upload.wikimedia.org/wikipedia/commons/0/04/Flag_of_Artemivsk_(Donetsk_Oblast).svg","katotth":"UA14020010010059145","koatuu":"1410300000","name":"Бахмут","name:ar":"باخموت","name:azb":"باهموت","name:be":"Бахмут","name:be-tarask":"Бахмут","name:bg":"Бахмут","name:crh":"Bahmut","name:cs":"Bachmut","name:de":"Bachmut","name:en":"Bakhmut","name:eo":"Baĥmut","name:es":"Bajmut","name:et":"Bahmut","name:fa":"باهموت","name:fi":"Bah’mut","name:fr":"Bakhmout","name:he":"בחמוט","name:hr":"Bahmut","name:hu":"Bahmut","name:hy":"Բախմուտ","name:it":"Bachmut","name:ja":"バフムート","name:ka":"ბახმუტი","name:kk":"Бахмут","name:ko":"바흐무트","name:la":"Bachmutum","name:lt":"Bachmutas","name:lv":"Bahmuta","name:ml":"ബഖ്മൂത്","name:nl":"Bachmoet","name:pl":"Bachmut","name:prefix":"місто","name:pt":"Bakhmut","name:ru":"Бахмут","name:sr":"Бахмут","name:sv":"Bachmut","name:tr":"Bahmut","name:tt":"Бахмут","name:uk":"Бахмут","name:zh":"巴赫穆特","old_name":"Артемівськ","old_name:ar":"أرتيميفسك","old_name:bg":"Артьомовск","old_name:cs":"Artemivsk","old_name:de":"Artemiwsk","old_name:en":"Artemivsk","old_name:eo":"Artemivsk","old_name:es":"Artémivsk","old_name:et":"Artemivsk","old_name:fa":"آرتمیفسک","old_name:fr":"Artemivsk","old_name:he":"ארטמובסק","old_name:hu":"Artemivszk","old_name:it":"Artemivsk","old_name:ja":"アルテーミウシク","old_name:ko":"아르테미우시크","old_name:lt":"Artemivskas","old_name:nl":"Artemivsk","old_name:nn":"Artemivsk","old_name:pl":"Artiomowsk","old_name:ro":"Artemivsk","old_name:ru":"Артёмовск","old_name:rue":"Артемівск","old_name:sr":"Артемивск","old_name:uk":"Артемівськ","old_name:vep":"Artömovsk","old_name:vi":"Artemivsk","old_name:zh":"阿特米夫斯克","place":"town","population":"83146","postal_code":"84500-84510","type":"boundary","wikidata":"Q706857","wikipedia":"uk:Бахмут"},"geometry":{"type":"Polygon","coordinates":[[[38.0580348,48.6125431],[38.0573059,48.6121675],[38.05561,48.61244],[38.0519782,48.6122454],[38.0496092,48.6126069],[38.0470579,48.6112886],[38.0457715,48.6111327],[38.0448068,48.6106082],[38.0441636,48.609701],[38.043156,48.6096585],[38.0408834,48.6095309],[38.0395756,48.6091482],[38.0421912,48.6046969],[38.04256,48.60231],[38.0401973,48.6017906],[38.03947,48.60145],[38.03844,48.60094],[38.0349018,48.6002168],[38.0328651,48.6011668],[38.0293599,48.6011669],[38.02711,48.6018],[38.02591,48.60231],[38.02385,48.6042],[38.02368,48.60523],[38.0239479,48.6070245],[38.0221209,48.6069574],[38.02093,48.60884],[38.02093,48.6109],[38.02008,48.61227],[38.02042,48.61484],[38.02076,48.61605],[38.02145,48.61605],[38.0240837,48.615561],[38.0244267,48.614179],[38.0259275,48.6142853],[38.0288325,48.6149586],[38.0300438,48.6153696],[38.0305804,48.6178368],[38.0301408,48.6184381],[38.0280593,48.6185473],[38.0208771,48.6190505],[38.0211665,48.6196032],[38.0223457,48.6218778],[38.0133734,48.6227848],[38.0089329,48.6235145],[38.0073954,48.6215963],[38.003272,48.6238611],[38.0021501,48.6266668],[38.0013012,48.6270876],[38.0015535,48.6308559],[38.0017257,48.6335401],[38.0017863,48.6387095],[37.9996336,48.6403323],[37.9980266,48.6441388],[37.9994214,48.6464025],[38.0032361,48.6465061],[37.9973379,48.6474593],[37.9946091,48.6460771],[37.9937753,48.6456213],[37.9934115,48.6467131],[37.9935706,48.6471788],[37.9896748,48.6472306],[37.9897801,48.6460768],[37.990166,48.6452907],[37.9906056,48.6437466],[37.9906377,48.6429817],[37.9902126,48.642936],[37.988636,48.6418742],[37.9888028,48.6412632],[37.9884238,48.6408324],[37.9881509,48.6398908],[37.986832,48.6385785],[37.988348,48.6380576],[37.9874225,48.6361791],[37.9870285,48.6349328],[37.9866202,48.6344472],[37.9864018,48.6336519],[37.986869,48.6296845],[37.9871906,48.6286466],[37.986735,48.6279735],[37.9847013,48.6259399],[37.9864295,48.6253788],[37.9854027,48.624011],[37.9820784,48.6210928],[37.9784855,48.6182668],[37.9781318,48.6178066],[37.9776391,48.6169497],[37.9768536,48.6154589],[37.9765749,48.6147572],[37.9761729,48.6149805],[37.9737715,48.6129601],[37.9683114,48.6082592],[37.9660491,48.6062749],[37.9603997,48.6036378],[37.9584355,48.602554],[37.9564612,48.6016052],[37.9542645,48.6006982],[37.9528685,48.6001347],[37.9537018,48.5992937],[37.9552225,48.5998614],[37.9558311,48.5991349],[37.9561382,48.5985235],[37.9540662,48.5973258],[37.9530403,48.5967306],[37.9520328,48.5961402],[37.952756,48.5955272],[37.9538704,48.5946396],[37.9542465,48.5944043],[37.9551603,48.5939089],[37.956411,48.5933524],[37.9550828,48.5928021],[37.9528853,48.5915755],[37.9527888,48.5910425],[37.956363,48.5886489],[37.9605876,48.5853812],[37.9637606,48.584431],[37.963364,48.5839934],[37.9645967,48.5834402],[37.9640072,48.5827311],[37.9652721,48.5821354],[37.9638785,48.5808518],[37.9627744,48.5806745],[37.9591619,48.578547],[37.9584115,48.5790151],[37.9561802,48.5776111],[37.9574385,48.5764978],[37.9583936,48.5758559],[37.9586816,48.5747926],[37.9595857,48.5741617],[37.9597883,48.5740203],[37.9592941,48.5738569],[37.9593283,48.573792],[37.9597336,48.5730235],[37.9591547,48.5727929],[37.959504,48.5717176],[37.9621646,48.5727006],[37.9623465,48.5724348],[37.9641461,48.573009],[37.9642642,48.5730467],[37.9641429,48.5734279],[37.9678083,48.5747186],[37.9680763,48.5742221],[37.9704747,48.5749402],[37.9710589,48.5712785],[37.9742535,48.571619],[37.9762462,48.5742075],[37.9784116,48.575891],[37.979685,48.5771015],[37.9824286,48.5767682],[37.9805101,48.572754],[37.9794171,48.5705802],[37.9785271,48.5687038],[37.9839259,48.5668779],[37.9865438,48.5660188],[37.9892444,48.565108],[37.9902837,48.5648239],[37.9935046,48.5639673],[37.9978961,48.5627994],[37.9996692,48.562238],[37.9997289,48.5622191],[38.0005013,48.5568151],[38.012939,48.5577566],[38.0133065,48.5575391],[38.0141809,48.5540668],[38.0179443,48.5544946],[38.0206433,48.5554004],[38.0213402,48.5554927],[38.0214416,48.556172],[38.0241533,48.5568011],[38.0236464,48.5582687],[38.0240266,48.55847],[38.0239252,48.5593842],[38.0236845,48.5598874],[38.0233423,48.5602983],[38.0233423,48.5608518],[38.0217964,48.5628561],[38.0215937,48.5637198],[38.0207827,48.5646506],[38.019921,48.5651621],[38.0195828,48.5653412],[38.0189707,48.5656653],[38.018616,48.5658439],[38.0183878,48.5659588],[38.0180964,48.566529],[38.0178809,48.5670237],[38.0177788,48.5673304],[38.0167657,48.5685991],[38.016458,48.5690287],[38.0169779,48.5701991],[38.0173342,48.570811],[38.0169552,48.5713326],[38.015606,48.5722755],[38.0185534,48.5719876],[38.0195421,48.5720823],[38.0204214,48.5722829],[38.0186326,48.5759541],[38.018678,48.576245],[38.0198334,48.5763425],[38.0227268,48.576545],[38.0229223,48.5762819],[38.0231816,48.5759331],[38.0241821,48.5757425],[38.0250008,48.5759732],[38.0259104,48.5759732],[38.0263045,48.575893],[38.0267659,48.5759837],[38.0268654,48.5760033],[38.0267307,48.5766191],[38.0266987,48.5767656],[38.0333387,48.5772972],[38.0330961,48.5793633],[38.0342331,48.5794736],[38.0340815,48.5814594],[38.0335358,48.5818606],[38.0335055,48.5824623],[38.033081,48.5835254],[38.0324282,48.5836808],[38.0331977,48.5878259],[38.0369264,48.5893525],[38.0375834,48.5888787],[38.0398154,48.5877984],[38.0406625,48.5877665],[38.0418371,48.5873276],[38.042335,48.5871942],[38.0426931,48.5871685],[38.0429115,48.5869994],[38.0452923,48.5869146],[38.0474277,48.5869757],[38.0485799,48.5877378],[38.0500352,48.5883394],[38.0506113,48.5888809],[38.0500655,48.5893021],[38.0496171,48.5904259],[38.0480516,48.5972729],[38.0521597,48.5975422],[38.054956,48.5972368],[38.0620115,48.5997798],[38.0627797,48.5997197],[38.0638307,48.5989877],[38.0695173,48.6017154],[38.0684272,48.6028224],[38.0692535,48.6031432],[38.0701555,48.6031482],[38.0706936,48.6032635],[38.0708831,48.6036043],[38.0710347,48.6036945],[38.070345,48.6044514],[38.0699584,48.6046619],[38.0694512,48.6053419],[38.0656029,48.6084394],[38.063341,48.6099207],[38.0606397,48.6112319],[38.0580348,48.6125431]]]},"id":"relation/3313703"},{"type":"Feature","properties":{"@id":"relation/3586128","admin_level":"10","boundary":"administrative","name":"Іванівське","name:en":"Ivanivske","name:ko":"이바니우스케","name:prefix":"село","name:ru":"Ивановское","name:uk":"Іванівське","old_name":"Красне","old_name:be":"Краснае","old_name:en":"Krasne","old_name:ru":"Красное","old_name:uk":"Красне","place":"village","population":"1732","postal_code":"84557","type":"boundary","wikidata":"Q4238577","wikipedia":"uk:Іванівське (Бахмутський район)"},"geometry":{"type":"Polygon","coordinates":[[[37.9044894,48.5705345],[37.9037861,48.5678646],[37.9041378,48.5665542],[37.9049003,48.5660168],[37.9079643,48.5659282],[37.9088243,48.56516],[37.9115008,48.5666951],[37.9127735,48.5651943],[37.9110913,48.5629626],[37.9131494,48.5623115],[37.9164153,48.5620228],[37.9166741,48.561488],[37.9174907,48.5605555],[37.9184057,48.559742],[37.9196571,48.560159],[37.9193386,48.5609213],[37.9183685,48.5609344],[37.9175401,48.5615942],[37.9173555,48.5620551],[37.918617,48.5619404],[37.9198649,48.5624958],[37.9212004,48.5630901],[37.9243223,48.5647853],[37.9268656,48.566101],[37.9276976,48.5662745],[37.9280907,48.5663564],[37.9282167,48.5663827],[37.929845,48.5686336],[37.935926,48.5703743],[37.935324,48.5727037],[37.9370384,48.5726258],[37.9368854,48.5727997],[37.9366035,48.5731201],[37.9355257,48.5743449],[37.9318582,48.5785128],[37.9362446,48.5815862],[37.9370441,48.5820724],[37.9354026,48.5840739],[37.9353639,48.5853653],[37.9351164,48.5854151],[37.9338015,48.5846471],[37.9307107,48.5826269],[37.9296557,48.5823453],[37.9279345,48.5833126],[37.9278086,48.5834847],[37.9273792,48.5840717],[37.9273952,48.5842475],[37.9274718,48.5850878],[37.9265094,48.5853082],[37.924455,48.5847695],[37.9208829,48.5825534],[37.9140126,48.5808436],[37.9120496,48.5797527],[37.913836,48.5786122],[37.9138174,48.5771228],[37.907099,48.5720041],[37.9044894,48.5705345]]]},"id":"relation/3586128"},{"type":"Feature","properties":{"@id":"relation/3586249","admin_level":"10","boundary":"administrative","katotth":"UA14020010090074287","koatuu":"1420986505","name":"Іванград","name:en":"Ivanhrad","name:ko":"이반흐라드 / 이반그라드","name:prefix":"село","name:ru":"Иванград","name:uk":"Іванград","place":"village","population":"167","postal_code":"84751","type":"boundary","wikidata":"Q4195693","wikipedia":"uk:Іванград"},"geometry":{"type":"Polygon","coordinates":[[[38.0333101,48.5483495],[38.0339314,48.5495557],[38.0315534,48.554914],[38.0269765,48.5588823],[38.0266828,48.5596198],[38.0254954,48.5626017],[38.0250582,48.5644173],[38.0240241,48.5667103],[38.0183625,48.5667973],[38.0188186,48.5661181],[38.0205926,48.5652376],[38.0217837,48.5637953],[38.0220245,48.5628477],[38.0236568,48.5609309],[38.0238492,48.560248],[38.025129,48.5574972],[38.0262821,48.5554004],[38.0277443,48.5524784],[38.0274755,48.5516124],[38.0281027,48.5493586],[38.0302,48.54755],[38.0333101,48.5483495]]]},"id":"relation/3586249"},{"type":"Feature","properties":{"@id":"relation/3586250","admin_level":"10","boundary":"administrative","katotth":"UA14020010170066541","koatuu":"1420986501","name":"Опитне","name:en":"Opytne","name:ko":"오피트네 / 오피트노예","name:prefix":"селище","name:ru":"Опытное","name:uk":"Опитне","place":"village","population":"1983","postal_code":"84571","type":"boundary","wikidata":"Q4335579","wikipedia":"uk:Опитне (Бахмутський район)"},"geometry":{"type":"Polygon","coordinates":[[[38.0240266,48.55847],[38.0236464,48.5582687],[38.0241533,48.5568011],[38.0214416,48.556172],[38.0213402,48.5554927],[38.0206433,48.5554004],[38.0179443,48.5544946],[38.0141809,48.5540668],[38.0154353,48.5493194],[38.0177922,48.5495374],[38.0204532,48.5496381],[38.0251543,48.5504266],[38.0251543,48.5506111],[38.0267256,48.5514835],[38.0275112,48.5524984],[38.0270424,48.5535552],[38.0258639,48.555283],[38.0258006,48.5560462],[38.025302,48.5567624],[38.0243687,48.557883],[38.0240266,48.55847]]]},"id":"relation/3586250"},{"type":"Feature","properties":{"@id":"relation/3939931","admin_level":"10","boundary":"administrative","name":"Хромове","name:en":"Khromove","name:ko":"흐로모베","name:prefix":"селище","name:ru":"Хромово","name:uk":"Хромове","old_name":"Артемівське","old_name:en":"Artemivske","old_name:ko":"아르테미우스케","old_name:ru":"Артёмовское","old_name:uk":"Артемівське","place":"village","population":"1054","postal_code":"84557","type":"boundary","wikidata":"Q4070460","wikipedia":"uk:Хромове"},"geometry":{"type":"Polygon","coordinates":[[[37.9449199,48.6016388],[37.943485,48.5996299],[37.9425401,48.5983069],[37.9427545,48.5981368],[37.9420971,48.5975778],[37.9414039,48.5969883],[37.9400103,48.5963928],[37.9409751,48.5953719],[37.9453565,48.596764],[37.9470853,48.5975413],[37.9490794,48.59602],[37.9509447,48.5944177],[37.9513306,48.5941129],[37.9528956,48.5937584],[37.9534031,48.59345],[37.9538049,48.5933447],[37.9542294,48.5930188],[37.9550632,48.5928233],[37.9563821,48.593356],[37.9551522,48.5938999],[37.9541498,48.5943461],[37.9537518,48.594598],[37.953405,48.5949013],[37.9526925,48.5955142],[37.9519627,48.5961429],[37.9540508,48.5973457],[37.9560751,48.5985453],[37.9557922,48.5991332],[37.9552106,48.5998368],[37.9535785,48.5991777],[37.9525495,48.6001772],[37.9563899,48.6016671],[37.9582337,48.6026737],[37.9602654,48.6036957],[37.9603669,48.6038292],[37.9595629,48.6047294],[37.9589197,48.604701],[37.9573976,48.6052964],[37.9560254,48.6041907],[37.9551464,48.6033117],[37.9535814,48.6027162],[37.9521878,48.6052256],[37.9505584,48.6043891],[37.9517162,48.6031557],[37.9498081,48.6020074],[37.9504941,48.6013269],[37.9473211,48.5997815],[37.9449199,48.6016388]]]},"id":"relation/3939931"},{"type":"Feature","properties":{"@id":"node/256613679","@relations":[{"role":"label","rel":3313703,"reltags":{"admin_level":"10","boundary":"administrative","flag":"http://upload.wikimedia.org/wikipedia/commons/0/04/Flag_of_Artemivsk_(Donetsk_Oblast).svg","katotth":"UA14020010010059145","koatuu":"1410300000","name":"Бахмут","name:ar":"باخموت","name:azb":"باهموت","name:be":"Бахмут","name:be-tarask":"Бахмут","name:bg":"Бахмут","name:crh":"Bahmut","name:cs":"Bachmut","name:de":"Bachmut","name:en":"Bakhmut","name:eo":"Baĥmut","name:es":"Bajmut","name:et":"Bahmut","name:fa":"باهموت","name:fi":"Bah’mut","name:fr":"Bakhmout","name:he":"בחמוט","name:hr":"Bahmut","name:hu":"Bahmut","name:hy":"Բախմուտ","name:it":"Bachmut","name:ja":"バフムート","name:ka":"ბახმუტი","name:kk":"Бахмут","name:ko":"바흐무트","name:la":"Bachmutum","name:lt":"Bachmutas","name:lv":"Bahmuta","name:ml":"ബഖ്മൂത്","name:nl":"Bachmoet","name:pl":"Bachmut","name:prefix":"місто","name:pt":"Bakhmut","name:ru":"Бахмут","name:sr":"Бахмут","name:sv":"Bachmut","name:tr":"Bahmut","name:tt":"Бахмут","name:uk":"Бахмут","name:zh":"巴赫穆特","old_name":"Артемівськ","old_name:ar":"أرتيميفسك","old_name:bg":"Артьомовск","old_name:cs":"Artemivsk","old_name:de":"Artemiwsk","old_name:en":"Artemivsk","old_name:eo":"Artemivsk","old_name:es":"Artémivsk","old_name:et":"Artemivsk","old_name:fa":"آرتمیفسک","old_name:fr":"Artemivsk","old_name:he":"ארטמובסק","old_name:hu":"Artemivszk","old_name:it":"Artemivsk","old_name:ja":"アルテーミウシク","old_name:ko":"아르테미우시크","old_name:lt":"Artemivskas","old_name:nl":"Artemivsk","old_name:nn":"Artemivsk","old_name:pl":"Artiomowsk","old_name:ro":"Artemivsk","old_name:ru":"Артёмовск","old_name:rue":"Артемівск","old_name:sr":"Артемивск","old_name:uk":"Артемівськ","old_name:vep":"Artömovsk","old_name:vi":"Artemivsk","old_name:zh":"阿特米夫斯克","place":"town","population":"83146","postal_code":"84500-84510","type":"boundary","wikidata":"Q706857","wikipedia":"uk:Бахмут"}}]},"geometry":{"type":"Point","coordinates":[38.0020994,48.5894123]},"id":"node/256613679"}]}