{"type":"FeatureCollection","features":[{"type":"Feature","properties":{"@id":"relation/3806949","admin_level":"9","boundary":"administrative","koatuu":"2124480401","name":"Бедевля","name:ar":"بيديفليا، زاكارباتسكا","name:cs":"Bedevlja","name:de":"Bedewlja","name:en":"Bedevlia","name:eo":"Bedevlja","name:hu":"Bedőháza","name:pl":"Bedewla","name:prefix":"село","name:ru":"Бедевля","name:sk":"Bedevľa","name:uk":"Бедевля","name:yi":"בעדעווליע","place":"village","population":"3971","postal_code":"90561","type":"boundary","wikidata":"Q791847","wikipedia":"uk:Бедевля","parent_raion":"Бедевлянська сільська громада"},"geometry":{"type":"Polygon","coordinates":[[[23.65666,48.0142],[23.657,48.01266],[23.65477,48.01214],[23.65271,48.013],[23.6540681,48.0151918],[23.648374,48.016931],[23.6492336,48.0178935],[23.6497568,48.0206684],[23.6457764,48.0207184],[23.6459633,48.0193059],[23.6398814,48.020678],[23.6377735,48.0213853],[23.6336261,48.0156457],[23.6360596,48.0151542],[23.6357713,48.0119146],[23.6281916,48.0118667],[23.6272978,48.0088051],[23.6299278,48.0085175],[23.6305092,48.0098789],[23.6335749,48.0096844],[23.6445716,48.0062964],[23.6442862,48.0054558],[23.6501946,48.004701],[23.64756,48.00321],[23.6435196,48.0027308],[23.6431173,48.0021152],[23.6443243,48.0004012],[23.6449,48.00004],[23.6502324,47.9956463],[23.6529335,47.9937395],[23.6564142,47.9923928],[23.6591069,47.9917956],[23.6608944,47.9920769],[23.6661,47.99515],[23.6699932,47.9959345],[23.6737364,47.9995623],[23.6747144,47.999742],[23.6753823,48.0007492],[23.6753706,48.0009794],[23.6749161,48.0014339],[23.67451,48.00184],[23.67502,48.00339],[23.67657,48.00442],[23.67794,48.00476],[23.67708,48.00562],[23.67657,48.00905],[23.6708089,48.0063151],[23.6701922,48.008203],[23.6759731,48.01131],[23.68395,48.01643],[23.6871871,48.0190205],[23.6892374,48.0198904],[23.6885989,48.0204281],[23.6864336,48.0194821],[23.68258,48.01729],[23.68069,48.01866],[23.67554,48.0154],[23.67348,48.0166],[23.66524,48.01403],[23.66489,48.01489],[23.65666,48.0142]]]},"id":"relation/3806949"},{"type":"Feature","properties":{"@id":"relation/3806950","admin_level":"9","boundary":"administrative","koatuu":"2124480403","landuse":"residential","name":"Глиняний","name:de":"Hlynjanyj","name:en":"Hlynianyi","name:eo":"Hlinjanij","name:hu":"Hlinyáni","name:prefix":"село","name:ru":"Глиняный","name:sk":"Monastýr","name:uk":"Глиняний","place":"village","population":"301","postal_code":"90561","type":"boundary","wikidata":"Q3850892","wikipedia":"uk:Глиняний","parent_raion":"Бедевлянська сільська громада"},"geometry":{"type":"Polygon","coordinates":[[[23.6812,48.02793],[23.67657,48.02828],[23.67365,48.02879],[23.66352,48.02965],[23.65339,48.02965],[23.6511849,48.0303196],[23.6493735,48.028283],[23.64807,48.02673],[23.6453197,48.0269037],[23.6468349,48.0299518],[23.6440733,48.0317005],[23.6447576,48.0321254],[23.6466393,48.0337923],[23.6468837,48.0356063],[23.6447331,48.0374201],[23.6430224,48.0378613],[23.6412384,48.0371914],[23.6403586,48.0354102],[23.641996,48.0346258],[23.6433157,48.0340375],[23.6415561,48.0322889],[23.6379546,48.031827],[23.6357553,48.0313324],[23.6341809,48.0294137],[23.6337858,48.0284812],[23.6370442,48.0286173],[23.6401631,48.0301643],[23.6424115,48.0308997],[23.6445376,48.0285136],[23.6433646,48.0271571],[23.6375103,48.0272909],[23.6365502,48.026457],[23.6365737,48.0253753],[23.6392316,48.0251849],[23.6388005,48.0245253],[23.63883,48.0240236],[23.638198,48.0240394],[23.6381272,48.0238222],[23.6390721,48.0237155],[23.6390544,48.0232336],[23.6422247,48.0234846],[23.6433421,48.0221225],[23.6449442,48.022111],[23.6483262,48.0226993],[23.6507084,48.0221385],[23.6523359,48.0222516],[23.6519971,48.0247533],[23.6514075,48.0254688],[23.653789,48.0265696],[23.654387,48.0260633],[23.6566778,48.0269653],[23.6570758,48.0229538],[23.6596979,48.0225977],[23.660369,48.0202383],[23.6653695,48.0210535],[23.6661929,48.0204469],[23.6709956,48.0208094],[23.6708439,48.0216017],[23.6661028,48.0222964],[23.6664615,48.0248912],[23.68069,48.02605],[23.6812,48.02793]]]},"id":"relation/3806950"},{"type":"Feature","properties":{"@id":"relation/3806951","admin_level":"9","boundary":"administrative","koatuu":"2124480404","landuse":"residential","name":"Дібрівка","name:be":"Дубраўка","name:de":"Dibriwka","name:en":"Dibrivka","name:hu":"Dubrovka","name:prefix":"село","name:ru":"Дибровка","name:uk":"Дібрівка","place":"village","population":"440","postal_code":"90561","type":"boundary","wikidata":"Q4161168","wikipedia":"uk:Дібрівка (Тячівський район)","parent_raion":"Бедевлянська сільська громада"},"geometry":{"type":"Polygon","coordinates":[[[23.6669408,48.0355357],[23.6653758,48.0351],[23.6640678,48.0355859],[23.661694,48.0359314],[23.6590619,48.0359465],[23.6578388,48.0354909],[23.6557516,48.0341163],[23.6551317,48.0331654],[23.6550646,48.0324592],[23.654877,48.0311134],[23.6536324,48.0308767],[23.6539521,48.0301055],[23.6584133,48.030602],[23.6584818,48.032511],[23.6601032,48.0332516],[23.660343,48.0330225],[23.6600347,48.032007],[23.6612222,48.0314725],[23.6642823,48.0318161],[23.6648752,48.0311425],[23.6676706,48.0312503],[23.668237,48.0331439],[23.66919,48.0336],[23.6669408,48.0355357]]]},"id":"relation/3806951"},{"type":"Feature","properties":{"@id":"relation/8133065","admin_level":"9","boundary":"administrative","fixme":"уточнити межі бо виправлено тільки технологічно","koatuu":"2124480405","landuse":"residential","name":"Руня","name:de":"Runja","name:en":"Runia","name:eo":"Runja","name:hu":"Runya","name:prefix":"село","name:ru":"Руня","name:sk":"Ruňa","name:uk":"Руня","place":"village","population":"678","postal_code":"90561","residential":"rural","type":"boundary","wikidata":"Q3850601","wikipedia":"uk:Руня (Україна)","parent_raion":"Бедевлянська сільська громада"},"geometry":{"type":"Polygon","coordinates":[[[23.6416607,48.0425028],[23.6422512,48.0451965],[23.6431253,48.0510023],[23.6409259,48.0518369],[23.6388981,48.0514927],[23.6364142,48.0495038],[23.6372245,48.046513],[23.63743,48.0415],[23.6365843,48.039575],[23.639444,48.0343753],[23.6447017,48.0285133],[23.6441632,48.0278337],[23.6435561,48.0270811],[23.6452288,48.0271607],[23.6455971,48.0279335],[23.6466127,48.0299166],[23.6435314,48.0316999],[23.6421131,48.0377159],[23.6392018,48.0365433],[23.6407221,48.0385153],[23.6415879,48.0386366],[23.6427859,48.0385067],[23.6437041,48.0396342],[23.6416607,48.0425028]]]},"id":"relation/8133065"},{"type":"Feature","properties":{"@id":"relation/8133067","admin_level":"9","boundary":"administrative","koatuu":"2124480501","name":"Біловарці","name:de":"Bilowarzi","name:en":"Bilovartsi","name:eo":"Bilovarci","name:hu":"Kiskirva","name:prefix":"село","name:ru":"Беловарцы","name:sk":"Bjelovarec","name:uk":"Біловарці","place":"village","population":"992","postal_code":"90562","type":"boundary","wikidata":"Q388701","wikipedia":"uk:Біловарці","parent_raion":"Бедевлянська сільська громада"},"geometry":{"type":"Polygon","coordinates":[[[23.69871,48.02862],[23.70026,48.02914],[23.70197,48.02999],[23.70094,48.03154],[23.70335,48.03514],[23.70026,48.03652],[23.70043,48.03806],[23.6982,48.03875],[23.69665,48.03909],[23.69511,48.03755],[23.69494,48.03446],[23.69064,48.02982],[23.68841,48.02673],[23.68755,48.02399],[23.68584,48.02433],[23.68515,48.0233],[23.68858,48.02227],[23.6910357,48.0206436],[23.6920089,48.0233124],[23.6924155,48.0240769],[23.6943673,48.0272619],[23.69614,48.02828],[23.69751,48.02914],[23.6982,48.03034],[23.69871,48.02862]]]},"id":"relation/8133067"},{"type":"Feature","properties":{"@id":"node/337661533","@relations":[{"role":"label","rel":8133065,"reltags":{"admin_level":"9","boundary":"administrative","fixme":"уточнити межі бо виправлено тільки технологічно","koatuu":"2124480405","landuse":"residential","name":"Руня","name:de":"Runja","name:en":"Runia","name:eo":"Runja","name:hu":"Runya","name:prefix":"село","name:ru":"Руня","name:sk":"Ruňa","name:uk":"Руня","place":"village","population":"678","postal_code":"90561","residential":"rural","type":"boundary","wikidata":"Q3850601","wikipedia":"uk:Руня (Україна)"}}],"parent_raion":"Бедевлянська сільська громада"},"geometry":{"type":"Point","coordinates":[23.6383743,48.0409165]},"id":"node/337661533"},{"type":"Feature","properties":{"@id":"node/337661765","@relations":[{"role":"label","rel":3806951,"reltags":{"admin_level":"9","boundary":"administrative","koatuu":"2124480404","landuse":"residential","name":"Дібрівка","name:be":"Дубраўка","name:de":"Dibriwka","name:en":"Dibrivka","name:hu":"Dubrovka","name:prefix":"село","name:ru":"Дибровка","name:uk":"Дібрівка","place":"village","population":"440","postal_code":"90561","type":"boundary","wikidata":"Q4161168","wikipedia":"uk:Дібрівка (Тячівський район)"}}],"parent_raion":"Бедевлянська сільська громада"},"geometry":{"type":"Point","coordinates":[23.658382,48.034153]},"id":"node/337661765"},{"type":"Feature","properties":{"@id":"node/337661934","@relations":[{"role":"label","rel":8133067,"reltags":{"admin_level":"9","boundary":"administrative","koatuu":"2124480501","name":"Біловарці","name:de":"Bilowarzi","name:en":"Bilovartsi","name:eo":"Bilovarci","name:hu":"Kiskirva","name:prefix":"село","name:ru":"Беловарцы","name:sk":"Bjelovarec","name:uk":"Біловарці","place":"village","population":"992","postal_code":"90562","type":"boundary","wikidata":"Q388701","wikipedia":"uk:Біловарці"}}],"parent_raion":"Бедевлянська сільська громада"},"geometry":{"type":"Point","coordinates":[23.6954499,48.0305101]},"id":"node/337661934"},{"type":"Feature","properties":{"@id":"node/337662088","@relations":[{"role":"label","rel":3806950,"reltags":{"admin_level":"9","boundary":"administrative","koatuu":"2124480403","landuse":"residential","name":"Глиняний","name:de":"Hlynjanyj","name:en":"Hlynianyi","name:eo":"Hlinjanij","name:hu":"Hlinyáni","name:prefix":"село","name:ru":"Глиняный","name:sk":"Monastýr","name:uk":"Глиняний","place":"village","population":"301","postal_code":"90561","type":"boundary","wikidata":"Q3850892","wikipedia":"uk:Глиняний"}}],"parent_raion":"Бедевлянська сільська громада"},"geometry":{"type":"Point","coordinates":[23.6487986,48.0256459]},"id":"node/337662088"},{"type":"Feature","properties":{"@id":"node/337663072","@relations":[{"role":"label","rel":3806949,"reltags":{"admin_level":"9","boundary":"administrative","koatuu":"2124480401","name":"Бедевля","name:ar":"بيديفليا، زاكارباتسكا","name:cs":"Bedevlja","name:de":"Bedewlja","name:en":"Bedevlia","name:eo":"Bedevlja","name:hu":"Bedőháza","name:pl":"Bedewla","name:prefix":"село","name:ru":"Бедевля","name:sk":"Bedevľa","name:uk":"Бедевля","name:yi":"בעדעווליע","place":"village","population":"3971","postal_code":"90561","type":"boundary","wikidata":"Q791847","wikipedia":"uk:Бедевля"}}],"parent_raion":"Бедевлянська сільська громада"},"geometry":{"type":"Point","coordinates":[23.663486,48.003201]},"id":"node/337663072"}]}