{"type":"FeatureCollection","features":[{"type":"Feature","properties":{"@id":"relation/3940065","admin_level":"10","alt_name:fr":"Beloziorskoïe","boundary":"administrative","name":"Білозерське","name:ar":"بيلوزيرسكي","name:en":"Bilozerske","name:fa":"بیلوزرسکه","name:fr":"Bilozerske","name:hr":"Bilozerske","name:ja":"ビロゼールシケ","name:ko":"빌로제르스케","name:lt":"Bilozerskė","name:nn":"Bilozerske","name:pl":"Biłozerske","name:prefix":"місто","name:ro":"Bilozerske","name:ru":"Белозёрское","name:uk":"Білозерське","name:vi":"Bilozerske","place":"town","population":"16251","postal_code":"85012-85016","type":"boundary","wikidata":"Q2351983","wikipedia":"uk:Білозерське"},"geometry":{"type":"Polygon","coordinates":[[[37.072323,48.5295989],[37.0735413,48.5308089],[37.0726347,48.531832],[37.0726079,48.5324394],[37.0722377,48.5330362],[37.0715779,48.5342404],[37.0730799,48.5349473],[37.0730317,48.5350965],[37.0726293,48.5361621],[37.0734581,48.5362775],[37.0732623,48.5367926],[37.072455,48.5367055],[37.0718193,48.5384673],[37.0708162,48.5383252],[37.070494,48.5393641],[37.0692464,48.5388674],[37.0687086,48.5394163],[37.0653221,48.5428726],[37.0571666,48.539134],[37.056749,48.5394292],[37.0565585,48.5396473],[37.0545292,48.5386637],[37.0532129,48.5380025],[37.0497391,48.5414707],[37.0571502,48.5439763],[37.0531051,48.5476343],[37.0500079,48.5475902],[37.0498133,48.5479204],[37.0475107,48.5477956],[37.0475744,48.547587],[37.0465861,48.5475523],[37.0470253,48.5465492],[37.0464401,48.5464836],[37.0457285,48.5463108],[37.0458117,48.5456654],[37.0459998,48.545304],[37.0460177,48.5449301],[37.0462325,48.5448523],[37.0464209,48.544834],[37.0467778,48.5448191],[37.047017,48.5429961],[37.0452445,48.5429113],[37.0453496,48.5427258],[37.0472262,48.541649],[37.0460605,48.5414139],[37.0461454,48.5407204],[37.0462985,48.5404531],[37.045855,48.5403082],[37.0445044,48.5395916],[37.0444669,48.5396281],[37.0413868,48.5394342],[37.0414118,48.539252],[37.0414593,48.5391973],[37.0414718,48.5390168],[37.0410598,48.5389627],[37.0411341,48.5383887],[37.0413889,48.5384098],[37.0413712,48.5377655],[37.0439756,48.5376022],[37.0443409,48.5374697],[37.0446362,48.5371549],[37.0449414,48.5368368],[37.0453518,48.5366181],[37.0457871,48.5361741],[37.0459933,48.5358798],[37.0447392,48.5353954],[37.0451588,48.5349216],[37.0463114,48.5354734],[37.0464103,48.5351135],[37.047486,48.5340778],[37.0460918,48.5336139],[37.0464174,48.5328688],[37.0470897,48.531969],[37.047755,48.5314628],[37.0479744,48.5313316],[37.0484801,48.5305992],[37.0501824,48.5313785],[37.0520578,48.5297335],[37.0555449,48.5259787],[37.0580668,48.527035],[37.0582902,48.5271007],[37.0599714,48.5274172],[37.0621653,48.5281296],[37.0627318,48.5282793],[37.0632523,48.5283853],[37.0646334,48.5288393],[37.065314,48.5290282],[37.0667553,48.5290415],[37.072323,48.5295989]]]},"id":"relation/3940065"},{"type":"Feature","properties":{"@id":"relation/3943639","admin_level":"10","boundary":"administrative","katotth":"UA14160030060092408","koatuu":"1422085504","name":"Мирове","name:prefix":"село","name:ru":"Мировое","name:uk":"Мирове","old_name":"Первомайське;Червона Зірка;Фідлерове","old_name:en":"Pervomaiske","old_name:ko":"페르보마이스케","old_name:prefix":"хутір","old_name:ru":"Первомайское;Красная Звезда;Фидлерово","old_name:uk":"Первомайське;Червона Зірка;Фідлерове","place":"village","population":"435","postal_code":"85017","type":"boundary","wikidata":"Q4349483","wikipedia":"uk:Мирове (Покровський район)"},"geometry":{"type":"Polygon","coordinates":[[[37.0740732,48.5356001],[37.0755851,48.5341338],[37.0771408,48.532784],[37.0783102,48.5332458],[37.0790934,48.5327485],[37.0803916,48.5332351],[37.0818829,48.5336401],[37.0832723,48.5342297],[37.0850265,48.534926],[37.0852143,48.5350858],[37.085166,48.5352776],[37.0846349,48.5360733],[37.0844793,48.5369755],[37.0846027,48.5371922],[37.0852303,48.5383359],[37.086432,48.5387621],[37.0872796,48.5391244],[37.0880306,48.53992],[37.0877355,48.5400159],[37.0882881,48.5410743],[37.0866466,48.5415112],[37.08736,48.5428217],[37.0876014,48.5434397],[37.0890444,48.5436705],[37.0888835,48.5440789],[37.0897847,48.5441642],[37.0894843,48.5447857],[37.0876121,48.5443844],[37.0863676,48.5444092],[37.0851606,48.5442956],[37.0850265,48.5442423],[37.0848924,48.5440363],[37.0849729,48.5434503],[37.084769,48.5433828],[37.0842433,48.5433651],[37.0837873,48.5435072],[37.0835084,48.5438055],[37.0823094,48.546398],[37.0819312,48.5468224],[37.0815289,48.5469556],[37.0786857,48.5465578],[37.078321,48.5465862],[37.0780635,48.5467567],[37.0780098,48.5475735],[37.0776021,48.5483263],[37.0757246,48.5479428],[37.0754993,48.5484542],[37.0740509,48.5480493],[37.0731711,48.5491289],[37.0706391,48.5480209],[37.0728814,48.5452864],[37.0734501,48.5449952],[37.0742226,48.5447324],[37.0715403,48.5424452],[37.0745444,48.5407689],[37.0735145,48.540364],[37.0720446,48.5393624],[37.0740831,48.5377924],[37.0748985,48.5382826],[37.0764327,48.5366771],[37.0740732,48.5356001]]]},"id":"relation/3943639"},{"type":"Feature","properties":{"@id":"node/256613830","@relations":[{"role":"label","rel":3940065,"reltags":{"admin_level":"10","alt_name:fr":"Beloziorskoïe","boundary":"administrative","name":"Білозерське","name:ar":"بيلوزيرسكي","name:en":"Bilozerske","name:fa":"بیلوزرسکه","name:fr":"Bilozerske","name:hr":"Bilozerske","name:ja":"ビロゼールシケ","name:ko":"빌로제르스케","name:lt":"Bilozerskė","name:nn":"Bilozerske","name:pl":"Biłozerske","name:prefix":"місто","name:ro":"Bilozerske","name:ru":"Белозёрское","name:uk":"Білозерське","name:vi":"Bilozerske","place":"town","population":"16251","postal_code":"85012-85016","type":"boundary","wikidata":"Q2351983","wikipedia":"uk:Білозерське"}}]},"geometry":{"type":"Point","coordinates":[37.05791,48.53313]},"id":"node/256613830"}]}