{"type":"FeatureCollection","features":[{"type":"Feature","properties":{"@id":"relation/3936158","admin_level":"10","boundary":"administrative","name":"Дебальцівське","name:en":"Debaltsivske","name:ko":"데발치우스케","name:prefix":"село","name:ru":"Дебальцевское","name:uk":"Дебальцівське","old_name":"Комуна","old_name:en":"Komuna","old_name:pl":"Kommuna","old_name:ru":"Коммуна","old_name:uk":"Комуна","place":"village","population":"679","postal_code":"84583","type":"boundary","wikipedia":"uk:Дебальцівське"},"geometry":{"type":"Polygon","coordinates":[[[38.36906,48.33761],[38.36408,48.33469],[38.36323,48.33349],[38.36735,48.3304],[38.36889,48.32611],[38.37696,48.32628],[38.37782,48.32834],[38.38348,48.3292],[38.38074,48.33349],[38.3773,48.3371],[38.37095,48.33727],[38.36906,48.33761]]]},"id":"relation/3936158"},{"type":"Feature","properties":{"@id":"node/256614656","@relations":[{"role":"label","rel":3936158,"reltags":{"admin_level":"10","boundary":"administrative","name":"Дебальцівське","name:en":"Debaltsivske","name:ko":"데발치우스케","name:prefix":"село","name:ru":"Дебальцевское","name:uk":"Дебальцівське","old_name":"Комуна","old_name:en":"Komuna","old_name:pl":"Kommuna","old_name:ru":"Коммуна","old_name:uk":"Комуна","place":"village","population":"679","postal_code":"84583","type":"boundary","wikipedia":"uk:Дебальцівське"}}]},"geometry":{"type":"Point","coordinates":[38.37662,48.3316]},"id":"node/256614656"}]}