{"type":"FeatureCollection","features":[{"type":"Feature","properties":{"@id":"relation/3943021","admin_level":"10","boundary":"administrative","name":"Нова Оленівка","name:en":"Nova Olenivka","name:ko":"노바 올레니우카","name:prefix":"селище","name:ru":"Новая Еленовка","name:uk":"Нова Оленівка","old_name":"Петрівське","old_name:en":"Petrivske","old_name:ru":"Петровское","old_name:uk":"Петрівське","place":"village","population":"99","postal_code":"85710","type":"boundary","wikipedia":"uk:Нова Оленівка"},"geometry":{"type":"Polygon","coordinates":[[[37.6994089,47.8321031],[37.7007822,47.8158956],[37.6980627,47.8158603],[37.6981837,47.8128027],[37.7011676,47.8127153],[37.7014244,47.8068285],[37.7056188,47.807076],[37.7052566,47.8157043],[37.7054253,47.821856],[37.7042739,47.832364],[37.6994089,47.8321031]]]},"id":"relation/3943021"},{"type":"Feature","properties":{"@id":"node/256615143","@relations":[{"role":"label","rel":3943021,"reltags":{"admin_level":"10","boundary":"administrative","name":"Нова Оленівка","name:en":"Nova Olenivka","name:ko":"노바 올레니우카","name:prefix":"селище","name:ru":"Новая Еленовка","name:uk":"Нова Оленівка","old_name":"Петрівське","old_name:en":"Petrivske","old_name:ru":"Петровское","old_name:uk":"Петрівське","place":"village","population":"99","postal_code":"85710","type":"boundary","wikipedia":"uk:Нова Оленівка"}}]},"geometry":{"type":"Point","coordinates":[37.70274,47.825233]},"id":"node/256615143"}]}