{"type":"FeatureCollection","features":[{"type":"Feature","properties":{"@id":"relation/4673426","admin_level":"9","boundary":"administrative","name":"Мар’янівка","name:en":"Marianivka","name:fr":"Mar'ianivka","name:ko":"마르’야니우카","name:pl":"Marianówka","name:prefix":"селище міського типу","name:ro":"Mareanivka","name:ru":"Марьяновка","name:uk":"Мар’янівка","name:zh":"馬里亞尼夫卡","place":"town","type":"boundary","wikidata":"Q2980427","wikipedia":"uk:Мар'янівка (Довбиська селищна громада)","parent_raion":"Довбиська селищна громада"},"geometry":{"type":"Polygon","coordinates":[[[27.8749973,50.3168874],[27.8746507,50.3134311],[27.8726584,50.3129001],[27.8655988,50.316079],[27.8604243,50.3153357],[27.8583032,50.2946994],[27.8727442,50.2925883],[27.8784305,50.2956863],[27.8868387,50.303852],[27.8910262,50.3031976],[27.8930432,50.3058016],[27.8858334,50.3084739],[27.8889877,50.3130645],[27.8775475,50.3176924],[27.8749973,50.3168874]]]},"id":"relation/4673426"},{"type":"Feature","properties":{"@id":"node/337524767","@relations":[{"role":"admin_centre","rel":4673426,"reltags":{"admin_level":"9","boundary":"administrative","name":"Мар’янівка","name:en":"Marianivka","name:fr":"Mar'ianivka","name:ko":"마르’야니우카","name:pl":"Marianówka","name:prefix":"селище міського типу","name:ro":"Mareanivka","name:ru":"Марьяновка","name:uk":"Мар’янівка","name:zh":"馬里亞尼夫卡","place":"town","type":"boundary","wikidata":"Q2980427","wikipedia":"uk:Мар'янівка (Довбиська селищна громада)"}}],"parent_raion":"Довбиська селищна громада"},"geometry":{"type":"Point","coordinates":[27.874029,50.30949]},"id":"node/337524767"}]}