{"type":"FeatureCollection","features":[{"type":"Feature","properties":{"@id":"relation/7901930","admin_level":"10","alt_name:fr":"Gorodnia","boundary":"administrative","katotth":"UA74100050010035827","koatuu":"7421410100","name":"Городня","name:ar":"هورودنيا","name:cs":"Horodňa","name:de":"Horodnja","name:en":"Horodnia","name:eo":"Horodnja","name:es":"Horodniá","name:et":"Horodnja","name:fi":"Horodnja","name:fr":"Horodnia","name:hr":"Horodnja","name:hsb":"Horodnja","name:it":"Horodnja","name:ko":"호로드냐","name:lv":"Horodņa","name:nn":"Horodnja","name:no":"Horodnja","name:pl":"Horodnia","name:prefix":"місто","name:ro":"Horodnea","name:ru":"Городня","name:sv":"Horodnja","name:uk":"Городня","name:zh":"霍羅德尼亞","old_name:zh":"戈羅德尼亞","place":"town","population":"12766","postal_code":"15100","type":"boundary","wikidata":"Q1020058","wikipedia":"uk:Городня"},"geometry":{"type":"Polygon","coordinates":[[[31.5981525,51.8749433],[31.6035319,51.8767158],[31.6088825,51.8787915],[31.6056055,51.8813933],[31.6058812,51.8814765],[31.6079015,51.8819861],[31.6097742,51.8800273],[31.61134,51.8806065],[31.6100908,51.8819098],[31.6120371,51.8828209],[31.6123154,51.8835911],[31.6143779,51.8836237],[31.616779,51.8919414],[31.6159487,51.8921198],[31.6164422,51.8929806],[31.6170752,51.8929408],[31.6190627,51.8928892],[31.618779,51.8942711],[31.6200711,51.8950286],[31.6225034,51.8978388],[31.6287934,51.8981967],[31.6259343,51.9006376],[31.6278382,51.9016033],[31.6267525,51.9027571],[31.6262988,51.90277],[31.6217266,51.9011543],[31.6185354,51.9047813],[31.618788,51.9053155],[31.6191371,51.9070425],[31.6184993,51.9068132],[31.6171717,51.9075182],[31.6053578,51.9078451],[31.6051125,51.9077168],[31.6045546,51.9077697],[31.6043258,51.9075713],[31.6015076,51.9077962],[31.6015291,51.9080874],[31.5986323,51.9081801],[31.5988469,51.9096097],[31.5999198,51.9096362],[31.6000115,51.9105446],[31.5983043,51.9107235],[31.598053,51.9100201],[31.5974307,51.9096097],[31.5970981,51.9083654],[31.5966582,51.9084713],[31.5949201,51.9059693],[31.5944173,51.9055299],[31.5887677,51.9030425],[31.5867458,51.8981451],[31.5775489,51.8996556],[31.5739554,51.9006234],[31.5710216,51.9009418],[31.5631478,51.9002423],[31.5622905,51.8982178],[31.5579933,51.8984046],[31.5559545,51.8968849],[31.5620149,51.8918728],[31.5644653,51.8869447],[31.5665802,51.8874311],[31.5681938,51.8872232],[31.5679908,51.8863457],[31.5683126,51.885167],[31.5682268,51.8841339],[31.568731,51.8824452],[31.5704584,51.8820677],[31.5712952,51.8816968],[31.5723467,51.881114],[31.5735268,51.8808623],[31.5739379,51.8804555],[31.5753926,51.8775459],[31.5777458,51.8744012],[31.5739345,51.8731923],[31.575458,51.8707546],[31.5768313,51.8712316],[31.5761232,51.8724107],[31.5783334,51.873497],[31.5796152,51.8717531],[31.588448,51.8738234],[31.588651,51.8729733],[31.591208,51.8728744],[31.5917551,51.8729009],[31.5936742,51.8731946],[31.5935391,51.8734714],[31.5981525,51.8749433]]]},"id":"relation/7901930"},{"type":"Feature","properties":{"@id":"relation/18303063","admin_level":"10","boundary":"administrative","katotth":"UA74100050450091513","koatuu":"7421487501","name":"Сеньківка","name:be":"Сенькаўка","name:en":"Senkivka","name:ko":"센키우카","name:pl":"Sieńkówka","name:prefix":"село","name:ru":"Сеньковка","name:uk":"Сеньківка","place":"village","population":"214","postal_code":"15125","type":"boundary","wikidata":"Q4416449","wikipedia":"uk:Сеньківка (Городнянський район)"},"geometry":{"type":"Polygon","coordinates":[[[31.7679364,52.087684],[31.7718426,52.0832228],[31.7685904,52.0819666],[31.7713692,52.0795129],[31.7742495,52.0808466],[31.7737366,52.081768],[31.7765313,52.0827179],[31.7820743,52.0846019],[31.7823533,52.0847592],[31.7840042,52.0832102],[31.7872883,52.0843457],[31.7878141,52.0847077],[31.7870729,52.0868354],[31.7884933,52.0876112],[31.7886213,52.0884397],[31.7875053,52.0898454],[31.7840178,52.0913882],[31.783962,52.0917996],[31.7803629,52.0937023],[31.7794422,52.0944736],[31.7777403,52.0939937],[31.7760942,52.0945936],[31.7738064,52.0971304],[31.7709771,52.0958884],[31.7725655,52.0942186],[31.7716812,52.093898],[31.7756478,52.0906854],[31.775034,52.0898283],[31.7684893,52.087851],[31.7679364,52.087684]]]},"id":"relation/18303063"},{"type":"Feature","properties":{"@id":"node/337502907","@relations":[{"role":"label","rel":18303063,"reltags":{"admin_level":"10","boundary":"administrative","katotth":"UA74100050450091513","koatuu":"7421487501","name":"Сеньківка","name:be":"Сенькаўка","name:en":"Senkivka","name:ko":"센키우카","name:pl":"Sieńkówka","name:prefix":"село","name:ru":"Сеньковка","name:uk":"Сеньківка","place":"village","population":"214","postal_code":"15125","type":"boundary","wikidata":"Q4416449","wikipedia":"uk:Сеньківка (Городнянський район)"}}]},"geometry":{"type":"Point","coordinates":[31.77898,52.090302]},"id":"node/337502907"}]}