{"type":"FeatureCollection","features":[{"type":"Feature","properties":{"@id":"relation/13074341","admin_level":"9","boundary":"administrative","koatuu":"1225885902","name":"Водяне","name:en":"Vodiane","name:prefix":"село","name:ru":"Водяное","name:uk":"Водяне","place":"village","population":"610","postal_code":"53733","type":"boundary","wikidata":"Q4114242","wikipedia":"uk:Водяне (Гречаноподівська сільська громада)","parent_raion":"Гречаноподівська сільська громада"},"geometry":{"type":"Polygon","coordinates":[[[33.4730423,47.7196161],[33.4753784,47.7134846],[33.4792034,47.7088553],[33.4863657,47.7096499],[33.485878,47.7120337],[33.4924242,47.7128973],[33.4916138,47.7198512],[33.4867508,47.7205314],[33.4766619,47.7193052],[33.4761999,47.7199615],[33.4730423,47.7196161]]]},"id":"relation/13074341"},{"type":"Feature","properties":{"@id":"node/337671284","@relations":[{"role":"label","rel":13074341,"reltags":{"admin_level":"9","boundary":"administrative","koatuu":"1225885902","name":"Водяне","name:en":"Vodiane","name:prefix":"село","name:ru":"Водяное","name:uk":"Водяне","place":"village","population":"610","postal_code":"53733","type":"boundary","wikidata":"Q4114242","wikipedia":"uk:Водяне (Гречаноподівська сільська громада)"}}],"parent_raion":"Гречаноподівська сільська громада"},"geometry":{"type":"Point","coordinates":[33.4841647,47.7158592]},"id":"node/337671284"}]}