{"type":"FeatureCollection","features":[{"type":"Feature","properties":{"@id":"relation/7372010","addr:postcode":"12515","admin_level":"9","boundary":"administrative","koatuu":"1822510101","name":"Бобрик","name:en":"Bobryk","name:prefix":"село","name:ru":"Бобрик","name:uk":"Бобрик","place":"hamlet","population":"66","type":"boundary","wikidata":"Q4088661","wikipedia":"uk:Бобрик (Житомирський район)","parent_raion":"Коростишівська міська громада"},"geometry":{"type":"MultiPolygon","coordinates":[[[[29.0790591,50.3781561],[29.0799089,50.3782379],[29.0798295,50.3788057],[29.0796155,50.3787852],[29.079511,50.3792043],[29.0787192,50.3791544],[29.0788334,50.3786288],[29.0789727,50.3785602],[29.0790591,50.3781561]]],[[[29.0728338,50.3769882],[29.072324,50.3769882],[29.071085,50.3769882],[29.0702051,50.3762229],[29.0698725,50.3758671],[29.0694541,50.3753402],[29.068805,50.3744267],[29.0675282,50.3743036],[29.0671475,50.3727049],[29.0674961,50.372634],[29.0669274,50.3714707],[29.0661228,50.3700336],[29.0674719,50.3700183],[29.0679949,50.3708993],[29.0681934,50.3711627],[29.0686172,50.371652],[29.0688481,50.3719282],[29.0700012,50.3715802],[29.0711494,50.3712063],[29.0715995,50.3711107],[29.0746286,50.3704675],[29.0753873,50.3703064],[29.0756768,50.3706872],[29.0759396,50.3708856],[29.0761489,50.371108],[29.0751028,50.371587],[29.075532,50.3725929],[29.0754515,50.3728495],[29.0751672,50.3730582],[29.0752852,50.3745294],[29.075017,50.3745499],[29.0749955,50.3750152],[29.076267,50.3750519],[29.0772648,50.374809],[29.0777208,50.3751374],[29.0775919,50.3754052],[29.0779138,50.3754463],[29.0779996,50.3752273],[29.0793904,50.3754128],[29.0796153,50.3754407],[29.0795928,50.3762468],[29.0792026,50.3774263],[29.0770823,50.3772467],[29.0767485,50.3772208],[29.0742983,50.3770327],[29.0746039,50.3777726],[29.0746629,50.3776802],[29.0750089,50.3778239],[29.0752745,50.3778308],[29.0753335,50.3779642],[29.0757385,50.3784004],[29.0746897,50.3790486],[29.0742659,50.3788297],[29.0736652,50.3790008],[29.0723938,50.3772971],[29.0729302,50.3769789],[29.0728338,50.3769882]]]]},"id":"relation/7372010"},{"type":"Feature","properties":{"@id":"relation/7613171","admin_level":"9","boundary":"administrative","koatuu":"1822587001","name":"Стрижівка","name:de":"Stryschiwka","name:en":"Stryzhivka","name:fi":"Stryživka","name:fr":"Stryjivka","name:it":"Stryživka","name:ko":"스트리지우카","name:pl":"Stryżówka","name:prefix":"село","name:ro":"Strîjivka","name:ru":"Стрижёвка","name:uk":"Стрижівка","name:zh":"斯特里日夫卡","place":"village","postal_code":"12525","type":"boundary","wikidata":"Q4443998","wikipedia":"uk:Стрижівка (Коростишівська міська громада)","parent_raion":"Коростишівська міська громада"},"geometry":{"type":"Polygon","coordinates":[[[29.0033618,50.2944938],[29.0027513,50.2950457],[29.0027294,50.2955644],[29.0032867,50.2956471],[29.0035122,50.2968659],[29.002984,50.2976898],[29.0027138,50.2985842],[29.0034515,50.3002125],[29.0038897,50.3003098],[29.0045391,50.3006517],[29.0053257,50.3016529],[29.0061591,50.3032941],[29.0058873,50.304229],[29.0058417,50.3044923],[29.0055546,50.3061517],[29.0050377,50.3066901],[29.0035211,50.3064944],[29.0011339,50.3061864],[28.997416,50.3055199],[28.9972192,50.3059578],[28.9954008,50.3069863],[28.9927949,50.3081811],[28.9906505,50.3091415],[28.9902431,50.3087823],[28.9877164,50.310019],[28.986724,50.3103685],[28.984929,50.3109824],[28.9847949,50.3110282],[28.9844602,50.3111427],[28.9828294,50.3114476],[28.982631,50.3108721],[28.982572,50.3103068],[28.9825988,50.3101047],[28.9823949,50.3097278],[28.9820838,50.3093133],[28.9814025,50.3089398],[28.9779397,50.3098947],[28.9759708,50.3100686],[28.9746721,50.3095335],[28.9728708,50.3084767],[28.9725566,50.3072326],[28.9736039,50.3066707],[28.9755281,50.3062168],[28.9768505,50.3059082],[28.9785053,50.3054533],[28.9785262,50.3041824],[28.9754836,50.3029121],[28.9726805,50.3028407],[28.9727451,50.2996468],[28.9732478,50.2983356],[28.9785681,50.2974257],[28.9745883,50.2958869],[28.9752586,50.2946023],[28.977458,50.2946425],[28.9792803,50.2959137],[28.9799087,50.2955658],[28.9807884,50.295994],[28.9804655,50.2963527],[28.9803067,50.2965292],[28.9843283,50.2976665],[28.9869885,50.2974391],[28.990696,50.2972517],[28.9931824,50.2961621],[28.9928774,50.2949258],[28.9965609,50.294803],[29.0011691,50.2951108],[29.0025823,50.2938671],[29.0033836,50.2943132],[29.0033617,50.294481],[29.0033618,50.2944938]]]},"id":"relation/7613171"},{"type":"Feature","properties":{"@id":"relation/13504860","addr:postcode":"12530","admin_level":"9","boundary":"administrative","int_name":"Barok","koatuu":"1822580902","name":"Борок","name:be":"Барок","name:en":"Borok","name:prefix":"село","name:ru":"Борок","name:uk":"Борок","place":"hamlet","population":"47","type":"boundary","wikidata":"Q4094669","wikipedia":"uk:Борок (Коростишівський район)","wikipedia:ru":"Борок (Коростышевский район)","parent_raion":"Коростишівська міська громада"},"geometry":{"type":"Polygon","coordinates":[[[29.2056157,50.3102304],[29.2047271,50.3081606],[29.2063075,50.3077968],[29.2062361,50.3073469],[29.2079226,50.3072595],[29.2094595,50.3072429],[29.2095767,50.3074335],[29.2101694,50.3074047],[29.2125183,50.3076151],[29.2124583,50.3079234],[29.2137798,50.3083186],[29.2139939,50.3091505],[29.2152555,50.3092924],[29.2177939,50.3091381],[29.2182161,50.3075809],[29.2191726,50.3076346],[29.2192172,50.3075307],[29.2226019,50.3075077],[29.2231088,50.3076425],[29.2227655,50.3093237],[29.2219357,50.3092871],[29.2218212,50.309744],[29.2207912,50.3098079],[29.2200758,50.3103653],[29.2150972,50.3102282],[29.2146966,50.3107581],[29.2124934,50.3109545],[29.2126112,50.3099382],[29.2076257,50.3103471],[29.2075594,50.3100489],[29.2056157,50.3102304]]]},"id":"relation/13504860"},{"type":"Feature","properties":{"@id":"node/337523115","@relations":[{"role":"admin_centre","rel":7372010,"reltags":{"addr:postcode":"12515","admin_level":"9","boundary":"administrative","koatuu":"1822510101","name":"Бобрик","name:en":"Bobryk","name:prefix":"село","name:ru":"Бобрик","name:uk":"Бобрик","place":"hamlet","population":"66","type":"boundary","wikidata":"Q4088661","wikipedia":"uk:Бобрик (Житомирський район)"}}],"parent_raion":"Коростишівська міська громада"},"geometry":{"type":"Point","coordinates":[29.0715625,50.3746584]},"id":"node/337523115"},{"type":"Feature","properties":{"@id":"node/337524781","@relations":[{"role":"label","rel":13504860,"reltags":{"addr:postcode":"12530","admin_level":"9","boundary":"administrative","int_name":"Barok","koatuu":"1822580902","name":"Борок","name:be":"Барок","name:en":"Borok","name:prefix":"село","name:ru":"Борок","name:uk":"Борок","place":"hamlet","population":"47","type":"boundary","wikidata":"Q4094669","wikipedia":"uk:Борок (Коростишівський район)","wikipedia:ru":"Борок (Коростышевский район)"}}],"parent_raion":"Коростишівська міська громада"},"geometry":{"type":"Point","coordinates":[29.213458,50.308945]},"id":"node/337524781"},{"type":"Feature","properties":{"@id":"node/337524950","@relations":[{"role":"admin_centre","rel":7613171,"reltags":{"admin_level":"9","boundary":"administrative","koatuu":"1822587001","name":"Стрижівка","name:de":"Stryschiwka","name:en":"Stryzhivka","name:fi":"Stryživka","name:fr":"Stryjivka","name:it":"Stryživka","name:ko":"스트리지우카","name:pl":"Stryżówka","name:prefix":"село","name:ro":"Strîjivka","name:ru":"Стрижёвка","name:uk":"Стрижівка","name:zh":"斯特里日夫卡","place":"village","postal_code":"12525","type":"boundary","wikidata":"Q4443998","wikipedia":"uk:Стрижівка (Коростишівська міська громада)"}}],"parent_raion":"Коростишівська міська громада"},"geometry":{"type":"Point","coordinates":[28.9879888,50.3005714]},"id":"node/337524950"}]}