{"type":"FeatureCollection","features":[{"type":"Feature","properties":{"@id":"relation/12033742","addr:postcode":"13533","admin_level":"9","boundary":"administrative","koatuu":"1824786501","name":"Ставище","name:be":"Ставішча","name:ceb":"Stavyshche","name:crh":"Stavışçe","name:cs":"Stavyšče","name:de":"Stawyschtsche","name:en":"Stavyshche","name:fr":"Stavychtche","name:hy":"Ստավյշչե","name:kk":"Stavys'e","name:pl":"Stawyszcze","name:prefix":"село","name:ro":"Stavîșce, Popilnea","name:ru":"Ставище","name:tr":"Stavışçe","name:uk":"Ставище","place":"village","population":"469","type":"boundary","wikidata":"Q4438929","wikipedia":"uk:Ставище (Попільнянський район)","parent_raion":"Квітнева сільська громада"},"geometry":{"type":"Polygon","coordinates":[[[29.7242375,49.9600407],[29.7252361,49.9611901],[29.7274174,49.9616518],[29.7292202,49.9627642],[29.7319138,49.9631916],[29.731667,49.9641674],[29.7306899,49.9644211],[29.7301272,49.9653454],[29.7308848,49.9655496],[29.7309648,49.9657111],[29.7302547,49.9664335],[29.7295832,49.9664639],[29.7285653,49.9684876],[29.7270878,49.9681938],[29.7253638,49.9676361],[29.7237677,49.9672949],[29.7235715,49.9679669],[29.7227722,49.9678353],[29.7222748,49.968186],[29.7209061,49.9679081],[29.7201484,49.9677235],[29.7197647,49.9676262],[29.7190156,49.9687253],[29.7174404,49.9683903],[29.7177519,49.9679231],[29.7173466,49.9676865],[29.7174908,49.9672034],[29.7162431,49.9668353],[29.7146213,49.9668066],[29.714296,49.9673853],[29.7123849,49.9662237],[29.7086728,49.9653283],[29.7072136,49.9672261],[29.7056258,49.9652938],[29.7061622,49.9644035],[29.6992148,49.9627287],[29.6993339,49.9632263],[29.6989863,49.9637853],[29.6979821,49.9638722],[29.6939845,49.9632263],[29.6928451,49.9650772],[29.6811504,49.9624634],[29.6893305,49.9590319],[29.6821463,49.9576232],[29.6818759,49.9580207],[29.6812579,49.958058],[29.6802151,49.9595613],[29.6643793,49.9557595],[29.6624288,49.9551879],[29.6631433,49.9530135],[29.6697866,49.9538584],[29.6777818,49.9551879],[29.6799447,49.9521188],[29.686588,49.9524543],[29.6863563,49.9509384],[29.6875923,49.9494596],[29.6933858,49.9496833],[29.6952205,49.9468997],[29.7020183,49.9484655],[29.7073677,49.9499443],[29.7078505,49.949062],[29.7105542,49.9508887],[29.7104962,49.9516715],[29.7126399,49.9531253],[29.7126592,49.95484],[29.7132771,49.9549767],[29.7134703,49.9553122],[29.7175269,49.9561723],[29.7187418,49.9545162],[29.7201955,49.9549545],[29.7191065,49.9562453],[29.7217888,49.9569563],[29.7224593,49.9565973],[29.7243403,49.9572363],[29.7214565,49.9586672],[29.7211615,49.9594433],[29.7241798,49.9599744],[29.7242375,49.9600407]]]},"id":"relation/12033742"},{"type":"Feature","properties":{"@id":"node/337538975","@relations":[{"role":"admin_centre","rel":12033742,"reltags":{"addr:postcode":"13533","admin_level":"9","boundary":"administrative","koatuu":"1824786501","name":"Ставище","name:be":"Ставішча","name:ceb":"Stavyshche","name:crh":"Stavışçe","name:cs":"Stavyšče","name:de":"Stawyschtsche","name:en":"Stavyshche","name:fr":"Stavychtche","name:hy":"Ստավյշչե","name:kk":"Stavys'e","name:pl":"Stawyszcze","name:prefix":"село","name:ro":"Stavîșce, Popilnea","name:ru":"Ставище","name:tr":"Stavışçe","name:uk":"Ставище","place":"village","population":"469","type":"boundary","wikidata":"Q4438929","wikipedia":"uk:Ставище (Попільнянський район)"}}],"parent_raion":"Квітнева сільська громада"},"geometry":{"type":"Point","coordinates":[29.7070942,49.9612314]},"id":"node/337538975"}]}