{"type":"FeatureCollection","features":[{"type":"Feature","properties":{"@id":"relation/1748539","admin_level":"10","boundary":"administrative","name":"Маріуполь","name:am":"ማሪኡፖል","name:ar":"ماريوبول","name:ast":"Mariupol","name:az":"Mariupol","name:be":"Марыупаль","name:be-tarask":"Марыюпаль","name:bg":"Мариупол","name:bn":"মরিউপল্","name:ca":"Mariupol","name:ce":"Мариуполь","name:ckb":"ماریوپۆل","name:crh":"Mariupol","name:cs":"Mariupol","name:cu":"Марїоуполь","name:cv":"Мариуполь","name:cy":"Mariupol","name:da":"Mariupol","name:de":"Mariupol","name:el":"Μαριούπολη","name:en":"Mariupol","name:eo":"Mariupolo","name:es":"Mariúpol","name:et":"Mariupol","name:eu":"Mariupol","name:fa":"ماریوپول","name:fi":"Mariupol","name:fr":"Marioupol","name:ga":"Mariupol","name:gl":"Mariupol","name:gu":"મરિઉપોલ","name:he":"מריאופול","name:hi":"मरिउपल","name:hr":"Mariupolj","name:hsb":"Mariupol","name:hu":"Mariupol","name:hy":"Մարիուպոլ","name:id":"Mariupol","name:io":"Mariupol","name:it":"Mariupol'","name:ja":"マリウポリ","name:jv":"Mariupol","name:ka":"მარიუპოლი","name:kbd":"Мариупол","name:kk":"Мариуполь","name:kl":"Mariupol","name:km":"ហ្មរិឩពឡ","name:kn":"ಮರಿಉಪೊಲ್","name:ko":"마리우폴","name:ku":"Maryupol","name:kv":"Мариуполь","name:ky":"Мариуполь","name:la":"Mariupolis","name:lo":"ມະຣິວຸລ","name:lt":"Mariupolis","name:lv":"Mariupole","name:mdf":"Мариуполь","name:mk":"Мариупол","name:ml":"മരിയുപോൾ","name:mn":"Мариуполь","name:mr":"मरिउपोल","name:mrj":"Мариуполь","name:ms":"Mariupol","name:mt":"Mariupol","name:my":"မရီဥပိုလ်","name:nl":"Marioepol","name:nn":"Mariupol","name:no":"Mariupol","name:oc":"Mariupol","name:os":"Мариуполь","name:pl":"Mariupol","name:prefix":"місто","name:pt":"Mariupol","name:ro":"Mariupol","name:ru":"Мариуполь","name:rue":"Маріуполь","name:sk":"Mariupoľ","name:sl":"Mariupol","name:sq":"Mariupol","name:sr":"Маријупољ","name:sv":"Mariupol","name:sw":"Mariupol","name:te":"మరిఉపొల్","name:tg":"Мариуполь","name:th":"มารีอูปัล","name:ti":"ማሪኡፖል","name:tk":"Mariupol","name:tl":"Mariupol","name:tr":"Mariupol","name:uk":"Маріуполь","name:ur":"مروپل","name:uz":"Mariupol","name:vep":"Mariupol'","name:vi":"Mariupol","name:vo":"Mariupol","name:war":"Mariupol","name:yi":"מאריופאל","name:zh":"马里乌波尔","old_name":"Жданов","old_name:ru":"Жданов","old_name:uk":"Жданов","place":"city","population":"453623","postal_code":"87500-87590","type":"boundary","wikidata":"Q37133"},"geometry":{"type":"Polygon","coordinates":[[[37.6500244,47.1503062],[37.6502118,47.1501237],[37.6526992,47.1477001],[37.6527761,47.1476137],[37.6534118,47.1490515],[37.6540629,47.1504528],[37.6543693,47.1513487],[37.6544306,47.1524114],[37.6536983,47.1540684],[37.6526597,47.1538668],[37.6523378,47.1537719],[37.652125,47.1536511],[37.6519423,47.1533899],[37.6507771,47.1538717],[37.6502384,47.1544482],[37.650633,47.155175],[37.6495916,47.1554291],[37.6495963,47.1554291],[37.6471797,47.1562199],[37.6469365,47.1562996],[37.6463468,47.1554911],[37.6441207,47.1525351],[37.6425038,47.1496174],[37.6420744,47.1498445],[37.6412876,47.15055],[37.6407485,47.1526058],[37.6388832,47.1522832],[37.6388182,47.1524305],[37.6350035,47.1518438],[37.6347831,47.1518596],[37.6344342,47.1526553],[37.6334837,47.1527569],[37.6326123,47.1526165],[37.632381,47.1533353],[37.6310784,47.1531598],[37.630747,47.1531892],[37.6318847,47.155553],[37.6337244,47.1593665],[37.6339855,47.1599078],[37.623481,47.1625439],[37.6242025,47.1639143],[37.616526,47.1656889],[37.609835,47.1639333],[37.6061036,47.1628833],[37.6041978,47.1613397],[37.6026099,47.1622439],[37.5995841,47.1641195],[37.5908272,47.1684212],[37.5877179,47.168853],[37.5863947,47.1691182],[37.5831208,47.1697745],[37.5845587,47.1724786],[37.5885564,47.1749883],[37.5902515,47.1797274],[37.5805393,47.1817976],[37.5700594,47.1840313],[37.5698818,47.1844965],[37.5739673,47.1921095],[37.574791,47.1932961],[37.5773115,47.1960051],[37.5810676,47.2000236],[37.5821878,47.2018145],[37.5826491,47.2039298],[37.5825667,47.2055751],[37.5791896,47.2146845],[37.5784977,47.2170791],[37.5786789,47.2182988],[37.5792884,47.2199995],[37.5773358,47.220202],[37.57693,47.2190281],[37.5766387,47.2170972],[37.5769099,47.216048],[37.5721868,47.2166337],[37.5715836,47.2169041],[37.5740685,47.21996],[37.5675372,47.2207755],[37.5655875,47.2210081],[37.5649014,47.2211046],[37.5631163,47.219747],[37.5613418,47.2186406],[37.5596309,47.2195739],[37.5578654,47.220668],[37.5576042,47.2219609],[37.5568952,47.2223018],[37.5383232,47.2249057],[37.5092568,47.2290493],[37.5091542,47.2294948],[37.5019511,47.2252111],[37.503518,47.2236633],[37.5012388,47.2198612],[37.5001135,47.2163298],[37.5024639,47.2137947],[37.503518,47.2111338],[37.502877,47.2084437],[37.5005693,47.2046115],[37.4985751,47.2011662],[37.4982332,47.1983981],[37.498689,47.1954751],[37.5030703,47.1906876],[37.5031118,47.1906544],[37.5041539,47.1898152],[37.5042575,47.1897317],[37.5049081,47.1891408],[37.5053662,47.1886844],[37.505782,47.1881029],[37.5071001,47.1853976],[37.5072856,47.1850416],[37.508424,47.1829557],[37.5090473,47.1818838],[37.5095183,47.1804873],[37.5101062,47.1785075],[37.5103185,47.177062],[37.509956,47.1764086],[37.5096874,47.176167],[37.5091197,47.1758627],[37.5076799,47.1755513],[37.5056355,47.1756728],[37.5044388,47.1755055],[37.5030085,47.1754535],[37.5021986,47.1753187],[37.5019249,47.1752177],[37.5017881,47.1750336],[37.5017936,47.174803],[37.5019123,47.1744249],[37.5020483,47.1742387],[37.5020711,47.1741767],[37.5020678,47.1741103],[37.5015663,47.1734441],[37.5014609,47.1733361],[37.5011927,47.1731529],[37.501144,47.173095],[37.5011136,47.1730344],[37.5011042,47.1729569],[37.5011542,47.172773],[37.5011578,47.1726405],[37.5011457,47.1725676],[37.5011189,47.1725019],[37.5010478,47.1724089],[37.5010205,47.1723197],[37.5010197,47.1722248],[37.5012176,47.1711062],[37.5012278,47.1710485],[37.5012517,47.1709628],[37.501405,47.170567],[37.5014824,47.1701379],[37.5015888,47.1698614],[37.5016323,47.1696694],[37.5016058,47.1694043],[37.5013078,47.1691283],[37.5001767,47.1684371],[37.4994548,47.1682763],[37.4990078,47.1680737],[37.4986194,47.1676422],[37.4985077,47.1674474],[37.4985411,47.1672334],[37.4986423,47.1669768],[37.4988478,47.1667419],[37.4996755,47.1659626],[37.5007491,47.1651451],[37.5010152,47.164649],[37.5011162,47.1638017],[37.5010454,47.1634615],[37.5019584,47.1634563],[37.5019584,47.1630725],[37.5018115,47.1624994],[37.5026079,47.1624048],[37.5024146,47.161348],[37.5015999,47.1611646],[37.5015288,47.1605958],[37.5014796,47.1599117],[37.50166,47.1593317],[37.502081,47.1587257],[37.5026387,47.1580342],[37.5030105,47.1577665],[37.5033842,47.1574998],[37.503307,47.1574852],[37.5016163,47.1571736],[37.5011407,47.1571585],[37.500497,47.1569069],[37.4999335,47.1562326],[37.5004941,47.1561695],[37.5004284,47.1556121],[37.4997363,47.1556279],[37.4994896,47.1548838],[37.5000035,47.1547778],[37.4998723,47.154287],[37.49929,47.1543019],[37.4992845,47.1539689],[37.4975065,47.1539585],[37.4967218,47.1537235],[37.49668,47.1535324],[37.4965913,47.1534159],[37.4953502,47.1533784],[37.4925545,47.1498692],[37.4885737,47.1497912],[37.4683113,47.1490754],[37.4655309,47.1458046],[37.4668146,47.1385571],[37.4668271,47.1384886],[37.466998,47.1377311],[37.4701289,47.1219932],[37.4706022,47.1198104],[37.4713731,47.1164408],[37.472318,47.1123283],[37.4722181,47.1110612],[37.4735338,47.1047788],[37.4735776,47.1044073],[37.4738809,47.1018326],[37.4740405,47.1005059],[37.4745471,47.0962159],[37.4806727,47.0977131],[37.4807049,47.0975777],[37.4815556,47.0934156],[37.4828931,47.0859016],[37.4839272,47.0818553],[37.4819256,47.0802504],[37.48125,47.0792295],[37.4806799,47.0792104],[37.4795222,47.0788946],[37.4784381,47.0788848],[37.4795233,47.0725062],[37.4714828,47.0719191],[37.4706846,47.0712076],[37.4713104,47.0684128],[37.4693521,47.0682059],[37.4694439,47.0678424],[37.466619,47.0674893],[37.4674644,47.0641247],[37.4674981,47.0639899],[37.4720261,47.0643263],[37.4779804,47.0646223],[37.4782583,47.0626258],[37.4768908,47.0595791],[37.4764634,47.0582848],[37.4766509,47.0573147],[37.4770188,47.0564996],[37.4774612,47.0560301],[37.4779131,47.0556717],[37.478381,47.0554207],[37.4787921,47.0551307],[37.4792522,47.0547192],[37.4794363,47.0543457],[37.4796465,47.0540796],[37.4796626,47.0539608],[37.4810627,47.053493],[37.4812786,47.0532157],[37.4812745,47.0530898],[37.4811417,47.0528183],[37.4806749,47.052133],[37.4776489,47.0499797],[37.4740069,47.0478684],[37.4743627,47.0472924],[37.4753957,47.0468972],[37.4757505,47.0468272],[37.476049,47.0467248],[37.4761635,47.046674],[37.4771775,47.046227],[37.4775532,47.0460614],[37.4791793,47.0453447],[37.479368,47.0452615],[37.4798122,47.0450658],[37.4799258,47.0450157],[37.4800579,47.0449575],[37.4798524,47.0447821],[37.4797153,47.0446651],[37.4793451,47.0443236],[37.478838,47.0438558],[37.4766412,47.0418292],[37.4748809,47.0402131],[37.4746803,47.0400312],[37.4731127,47.0386099],[37.4725861,47.0381324],[37.4723503,47.037883],[37.4708732,47.0358717],[37.4754827,47.0352279],[37.474898,47.034693],[37.4748184,47.0344787],[37.471693,47.029628],[37.4711033,47.028899],[37.4743329,47.0276125],[37.4773702,47.0301943],[37.4794966,47.0318061],[37.4820801,47.0336649],[37.4845553,47.0357679],[37.4866356,47.0377122],[37.4884327,47.0387395],[37.4914099,47.0391695],[37.4941619,47.0392382],[37.4978022,47.0394626],[37.5012097,47.0402538],[37.5039723,47.0417058],[37.5072886,47.0429633],[37.5108656,47.04406],[37.5147473,47.0452385],[37.5185217,47.0465603],[37.5223626,47.048309],[37.5250277,47.0501176],[37.5264085,47.0520825],[37.5259847,47.0547579],[37.5238604,47.0596273],[37.5227875,47.0632787],[37.5226351,47.0672703],[37.5229647,47.0694024],[37.5238358,47.0714565],[37.5253561,47.0731284],[37.5272712,47.0744743],[37.5292625,47.0752766],[37.5315198,47.0760832],[37.5370302,47.0777601],[37.5415609,47.0791081],[37.5463878,47.0801879],[37.5542124,47.0815342],[37.5585597,47.0823103],[37.5635175,47.0827479],[37.5675784,47.08281],[37.5735061,47.0823344],[37.5757399,47.0816855],[37.5774392,47.0811918],[37.5816857,47.0790993],[37.5853483,47.0775596],[37.5892686,47.0763965],[37.5943519,47.077434],[37.5977337,47.0792912],[37.6016175,47.0823305],[37.6049263,47.083403],[37.6092114,47.0830582],[37.6150307,47.0844492],[37.6202299,47.0860388],[37.6235978,47.0883683],[37.6248938,47.0898555],[37.6263272,47.0917182],[37.6271297,47.0931426],[37.6280738,47.0936758],[37.6292175,47.0939051],[37.6303076,47.0937021],[37.6320306,47.0931542],[37.6336979,47.0925947],[37.6356377,47.0922777],[37.6380645,47.0922368],[37.641663,47.0918731],[37.645137,47.091204],[37.6518252,47.0899757],[37.661547,47.0872965],[37.668869,47.0856168],[37.6754068,47.0830648],[37.6786361,47.081919],[37.6801377,47.0815859],[37.6836097,47.0807642],[37.6913011,47.0807168],[37.6942691,47.0801837],[37.6989039,47.0800213],[37.7053889,47.079833],[37.7114831,47.0799494],[37.7179224,47.0805865],[37.7205598,47.0809266],[37.7261742,47.0813484],[37.7325678,47.0822055],[37.7375429,47.0826953],[37.7421583,47.0836069],[37.7488317,47.0847905],[37.7554739,47.0859435],[37.7552139,47.0882132],[37.7540297,47.0882899],[37.7534423,47.0882513],[37.7534025,47.0888046],[37.7529945,47.0889801],[37.7530123,47.0893452],[37.7525649,47.0893369],[37.7523658,47.0894707],[37.7510816,47.0895247],[37.7510255,47.0907274],[37.7493165,47.0912275],[37.7486189,47.0913652],[37.7477627,47.0913899],[37.746706,47.0910799],[37.7461133,47.0906997],[37.7456606,47.0897996],[37.744094,47.0899745],[37.7434275,47.0901209],[37.743779,47.0907402],[37.7435557,47.0913661],[37.7432636,47.0926294],[37.7430381,47.0930738],[37.7420923,47.0932566],[37.7413798,47.0930008],[37.7401164,47.0912025],[37.7399,47.0902626],[37.7352977,47.0908004],[37.7352081,47.0912852],[37.7355132,47.0919306],[37.7351015,47.0931201],[37.7348696,47.0950109],[37.734181,47.0948044],[37.7337613,47.0945832],[37.7334584,47.0943665],[37.7332968,47.0942658],[37.7330784,47.0943845],[37.7326878,47.0945137],[37.7321294,47.0946345],[37.7313935,47.09479],[37.7308631,47.0949083],[37.7300174,47.0950959],[37.7290508,47.0952337],[37.7274828,47.0953654],[37.726684,47.09534],[37.726637,47.0949943],[37.7266169,47.0946294],[37.7265642,47.0944464],[37.7265452,47.0944158],[37.726503,47.0944019],[37.7260936,47.0942951],[37.7258706,47.0941433],[37.7258293,47.0941261],[37.7253093,47.094134],[37.7248261,47.0940941],[37.7245103,47.0937999],[37.724337,47.0933502],[37.7231102,47.0934718],[37.7230366,47.0936965],[37.7229476,47.0941055],[37.7227097,47.0944169],[37.7221612,47.0946223],[37.721648,47.0944686],[37.7213137,47.0943191],[37.7210426,47.0942511],[37.7208396,47.0942326],[37.7206051,47.094237],[37.720502,47.094266],[37.7204435,47.0943082],[37.720298,47.0944713],[37.7200505,47.094729],[37.7195197,47.0949097],[37.7185749,47.0948402],[37.718315,47.0947729],[37.7178369,47.0946621],[37.7174559,47.0945486],[37.7172407,47.0944476],[37.7169998,47.0942927],[37.7167945,47.0940995],[37.7166139,47.0939057],[37.7163577,47.093587],[37.7152656,47.0936349],[37.7140898,47.0933303],[37.7132104,47.0929836],[37.712763,47.0929669],[37.7086029,47.0935171],[37.7073992,47.0940397],[37.7072717,47.0940842],[37.7069554,47.0941747],[37.7064833,47.0942834],[37.7062649,47.0942661],[37.7059996,47.0940958],[37.7059534,47.0940769],[37.7057826,47.0940782],[37.7055117,47.0941216],[37.7053027,47.0941912],[37.7051398,47.0943141],[37.7049567,47.0944107],[37.7047665,47.0944308],[37.704528,47.094418],[37.7043662,47.094536],[37.7041035,47.0945919],[37.7038808,47.0944865],[37.7037264,47.0943479],[37.7036108,47.0943316],[37.7031872,47.0943516],[37.7027629,47.0943082],[37.7024908,47.0943139],[37.7023131,47.0943538],[37.7021036,47.0944462],[37.7019399,47.0945298],[37.7014954,47.0946686],[37.7010775,47.0947615],[37.7006221,47.094744],[37.700109,47.0946657],[37.6997806,47.0945595],[37.6997151,47.0945793],[37.6991014,47.0945602],[37.698418,47.0946156],[37.6983229,47.0946233],[37.698121,47.0946544],[37.698,47.0949748],[37.6975034,47.0952565],[37.696722,47.0953781],[37.695827,47.0952221],[37.6949661,47.09476],[37.6946323,47.0947848],[37.6941664,47.0948619],[37.6940215,47.0949333],[37.6929061,47.0952055],[37.6927698,47.0952126],[37.6921887,47.0954184],[37.6917441,47.0953896],[37.691194,47.0954002],[37.6909444,47.095355],[37.6889155,47.0954649],[37.688815,47.0958678],[37.685055,47.0960249],[37.6772677,47.0952456],[37.6755573,47.0955001],[37.674155,47.0954053],[37.6705872,47.0947106],[37.669868,47.0966923],[37.6701265,47.0985505],[37.6723055,47.0984876],[37.6747491,47.1014826],[37.6724264,47.104262],[37.6748323,47.1059222],[37.6762552,47.1068559],[37.6768409,47.1073469],[37.678135,47.1084714],[37.6785982,47.109055],[37.6794206,47.1088156],[37.6807264,47.1109026],[37.681453,47.1124556],[37.6834261,47.1132075],[37.684599,47.1121485],[37.6852345,47.1124201],[37.6857876,47.1126564],[37.6864941,47.1129583],[37.687023,47.1131843],[37.6897512,47.1153505],[37.6901586,47.1156739],[37.6948387,47.1175079],[37.6932116,47.1215516],[37.6919011,47.1247518],[37.6912331,47.1261103],[37.690867,47.1267465],[37.6900614,47.1278577],[37.6886875,47.1293517],[37.6878572,47.1300592],[37.6868154,47.1311603],[37.6803398,47.1303752],[37.6773669,47.1300019],[37.6750035,47.1297045],[37.6745626,47.1298067],[37.6743193,47.1302098],[37.6767422,47.1309368],[37.6757053,47.132362],[37.674806,47.1320669],[37.6727238,47.1347389],[37.6679635,47.133234],[37.6657774,47.1344904],[37.6630745,47.1351342],[37.6621328,47.1353214],[37.6612321,47.1358266],[37.660841,47.136046],[37.6603235,47.1363362],[37.6601331,47.1362361],[37.6577395,47.1348101],[37.6537138,47.1324437],[37.6536634,47.132414],[37.6529176,47.1332414],[37.651919,47.1345378],[37.6506688,47.1361244],[37.6502338,47.1357154],[37.6495667,47.1349132],[37.6482764,47.133169],[37.6468462,47.1339782],[37.6476572,47.1347197],[37.6471585,47.1349651],[37.645796,47.1349858],[37.6443383,47.1333898],[37.6437304,47.1329861],[37.6424595,47.1324658],[37.6415596,47.1322394],[37.641344,47.1327233],[37.6405835,47.1337727],[37.6399908,47.1343613],[37.6380693,47.1354515],[37.6348257,47.1368222],[37.6320895,47.1380203],[37.6400305,47.1389575],[37.6402098,47.1389778],[37.6361564,47.1433034],[37.6361793,47.1435973],[37.6363063,47.1438011],[37.6365903,47.1439942],[37.6378206,47.1447612],[37.6394327,47.1453193],[37.6412404,47.1460382],[37.641654,47.1460382],[37.6419387,47.1462002],[37.6428542,47.1466964],[37.6423037,47.1472435],[37.6426148,47.1477907],[37.6433462,47.1483892],[37.6433747,47.1484885],[37.6434375,47.1485802],[37.6435496,47.1486144],[37.6440982,47.1486922],[37.6442995,47.1488159],[37.6438751,47.1494094],[37.6455437,47.1500912],[37.6461248,47.150211],[37.6467668,47.1503434],[37.6469721,47.1505215],[37.6471209,47.150724],[37.6472654,47.1509001],[37.6473969,47.1510095],[37.6476896,47.1511526],[37.647872,47.1512274],[37.6479686,47.1512553],[37.6481026,47.1513387],[37.6484084,47.1514992],[37.6486873,47.1516321],[37.6487584,47.1516771],[37.6488456,47.1517171],[37.6489534,47.1517503],[37.6497374,47.1506656],[37.6500244,47.1503062]]]},"id":"relation/1748539"},{"type":"Feature","properties":{"@id":"relation/3947072","admin_level":"10","alt_name:ru":"Примиское","boundary":"administrative","name":"Приміське","name:en":"Prymiske","name:ko":"프리미스케","name:prefix":"село","name:ru":"Пригородное","name:uk":"Приміське","old_alt_name:ru":"Советская Украина","old_name":"Радянська Україна","old_name:en":"Radianska Ukraina","old_name:ru":"Радянская Украина","old_name:uk":"Радянська Україна","place":"village","population":"354","postal_code":"87430","type":"boundary","wikipedia":"uk:Приміське (Маріупольський район)"},"geometry":{"type":"Polygon","coordinates":[[[37.4545175,47.1180292],[37.4549391,47.1160378],[37.4576317,47.1163706],[37.4577244,47.1160435],[37.459584,47.1162128],[37.4594491,47.1171798],[37.4599846,47.1172975],[37.458487,47.1252554],[37.4533512,47.1249213],[37.4530462,47.1257181],[37.4479467,47.1254193],[37.4473246,47.1242406],[37.4471782,47.1228129],[37.4448175,47.1226551],[37.4448114,47.121742],[37.4434384,47.1183476],[37.4459204,47.1177212],[37.4496586,47.1179984],[37.4497134,47.1176312],[37.4545175,47.1180292]]]},"id":"relation/3947072"},{"type":"Feature","properties":{"@id":"relation/4045787","admin_level":"10","boundary":"administrative","katotth":"UA14140050010437700","koatuu":"1412336300","name":"Центральний район","name:en":"Tsentralnyi District","name:ru":"Центральный район","name:uk":"Центральний район","old_alt_name:ru":"Октябрьский район","old_name":"Жовтневий район","old_name:ru":"Жовтневый район","old_name:uk":"Жовтневий район","place":"borough","type":"boundary","wikidata":"Q7272854","wikipedia":"uk:Центральний район (Маріуполь)"},"geometry":{"type":"Polygon","coordinates":[[[37.4806727,47.0977131],[37.4833097,47.0983539],[37.4845695,47.0985581],[37.4906689,47.0995469],[37.4965926,47.1003998],[37.508571,47.0995402],[37.5084381,47.0986525],[37.5051517,47.0955973],[37.5030186,47.0925838],[37.5037872,47.0923983],[37.5045122,47.092309],[37.5051185,47.0923213],[37.5074042,47.092653],[37.5076892,47.0926603],[37.5162172,47.0920224],[37.5224486,47.0915791],[37.5307476,47.0910158],[37.5313848,47.0906188],[37.5340185,47.0911899],[37.5344483,47.0914731],[37.535075,47.0910334],[37.5370486,47.0906522],[37.5382642,47.0901843],[37.5391201,47.0892368],[37.5405326,47.0895415],[37.5410988,47.0895353],[37.5419282,47.0894764],[37.5416605,47.0863712],[37.5431494,47.0862989],[37.5434723,47.086561],[37.5437567,47.0867437],[37.5440784,47.086884],[37.5446498,47.0870596],[37.5452828,47.0872039],[37.5468455,47.0875179],[37.5477622,47.0881112],[37.5488512,47.088362],[37.5490031,47.0887407],[37.5496374,47.0888183],[37.5503133,47.0886028],[37.5508254,47.0886858],[37.5512837,47.0888767],[37.5515501,47.0887389],[37.5522089,47.0888094],[37.5547009,47.0891254],[37.5550528,47.0890511],[37.5560478,47.0891676],[37.5561652,47.0891881],[37.5562651,47.0892201],[37.5569926,47.0895201],[37.5574217,47.0898958],[37.559353,47.0901523],[37.5597367,47.0902383],[37.5602436,47.0903715],[37.5605691,47.0905003],[37.5610167,47.0907668],[37.5610596,47.0908189],[37.5610837,47.0908846],[37.5611115,47.0913615],[37.5622947,47.0916945],[37.5657885,47.0922384],[37.5663239,47.0923191],[37.5670248,47.0923962],[37.5672149,47.0924054],[37.5675628,47.092409],[37.5675344,47.0926276],[37.5668989,47.0941672],[37.5664117,47.0951508],[37.5670301,47.095217],[37.5667873,47.0962093],[37.5687347,47.0965055],[37.5706322,47.0965552],[37.5708601,47.097876],[37.5713929,47.1002719],[37.5719741,47.1014478],[37.5729751,47.1027666],[37.5736532,47.103349],[37.5747995,47.1040743],[37.5770275,47.1048766],[37.5805148,47.1062062],[37.5839053,47.107415],[37.5883675,47.1087902],[37.588955,47.109066],[37.5907347,47.1095054],[37.5938552,47.1098897],[37.5947761,47.1099282],[37.5984103,47.1109155],[37.6010568,47.1119081],[37.6026906,47.112623],[37.6051435,47.1137984],[37.6066493,47.1147454],[37.6108629,47.1177792],[37.6102758,47.1183872],[37.6043949,47.1224093],[37.6042645,47.1224347],[37.6041518,47.1224181],[37.6031875,47.1219451],[37.6020702,47.1213971],[37.601298,47.1211644],[37.6003968,47.1210257],[37.5970279,47.1208687],[37.5959708,47.1208869],[37.5936877,47.1207581],[37.5917444,47.1206484],[37.5905396,47.1203939],[37.5892828,47.1190894],[37.5885184,47.1186875],[37.5876982,47.1183754],[37.5869144,47.1179172],[37.5860534,47.1177935],[37.5842971,47.1177092],[37.5827474,47.1173193],[37.5814038,47.1176055],[37.5811779,47.1178202],[37.5811857,47.1181164],[37.5813281,47.118603],[37.5811919,47.1191807],[37.5806101,47.1200363],[37.5805379,47.1205517],[37.5801571,47.1207709],[37.5788722,47.1209443],[37.5778211,47.1214972],[37.5772783,47.1214219],[37.576674,47.1210937],[37.575664,47.1205875],[37.5741128,47.1194004],[37.5732234,47.1189128],[37.5731102,47.1187043],[37.5733752,47.1180209],[37.5733462,47.1178008],[37.5726259,47.1172547],[37.5722154,47.1170473],[37.5716012,47.1164855],[37.5705723,47.1157324],[37.569517,47.1148976],[37.5685842,47.1144415],[37.5679609,47.1140162],[37.5675864,47.1135424],[37.5674132,47.1133598],[37.5672603,47.1130962],[37.5669685,47.1128905],[37.5668773,47.11285],[37.5667713,47.1128225],[37.5666118,47.1128231],[37.5664683,47.1128158],[37.5662443,47.1127899],[37.5661075,47.1127391],[37.5659499,47.1126939],[37.5658134,47.1126887],[37.5657213,47.1127081],[37.5651271,47.112962],[37.5637085,47.1136143],[37.5627184,47.113912],[37.5621309,47.1140189],[37.5613615,47.114088],[37.5597236,47.1142677],[37.5587784,47.1145424],[37.5569221,47.1146161],[37.5564178,47.1147548],[37.5560638,47.1150177],[37.5559029,47.1153024],[37.555978,47.1156237],[37.5562247,47.1159523],[37.557362,47.1170912],[37.5576087,47.1174052],[37.557877,47.1178724],[37.5588533,47.1197414],[37.5589606,47.1201283],[37.5589391,47.1204934],[37.5587567,47.1208],[37.5584885,47.1210482],[37.5580593,47.1211869],[37.5575708,47.1212444],[37.5558345,47.1212636],[37.5555631,47.1212762],[37.5544075,47.1213299],[37.5533927,47.1215204],[37.5518375,47.1218799],[37.5507662,47.1220674],[37.5498444,47.1221674],[37.5489028,47.122237],[37.5477154,47.1223628],[37.5467903,47.1224873],[37.5458085,47.1226293],[37.5448427,47.1227075],[37.5441845,47.1228885],[37.5432048,47.1231667],[37.5424864,47.1233947],[37.5417935,47.1234765],[37.5412106,47.1234916],[37.5407152,47.1236062],[37.5402401,47.1238658],[37.5398238,47.1242338],[37.5393343,47.1246765],[37.5388096,47.1250621],[37.5381592,47.1255176],[37.5379178,47.1258969],[37.5376712,47.126143],[37.5372848,47.126371],[37.5370215,47.126572],[37.536814,47.1268408],[37.5367575,47.127135],[37.5368254,47.1273964],[37.5369938,47.1276834],[37.537537,47.1282907],[37.5376903,47.1286313],[37.537763,47.1289324],[37.5378734,47.1293653],[37.5386614,47.1307969],[37.5392057,47.1315183],[37.5405176,47.1329299],[37.5411824,47.1332303],[37.5416071,47.1333872],[37.5432862,47.1336076],[37.5446723,47.1338579],[37.5452598,47.1340685],[37.5455211,47.1342338],[37.5461905,47.1349746],[37.5466534,47.1353326],[37.5471233,47.1355249],[37.5477172,47.1356121],[37.5483822,47.1357145],[37.5491624,47.1360723],[37.5497372,47.1363995],[37.5501811,47.1366889],[37.5503863,47.1367914],[37.551037,47.1373083],[37.5510761,47.1374164],[37.5512124,47.1376951],[37.5515257,47.1380932],[37.5517454,47.1383961],[37.5518983,47.1388967],[37.5519852,47.1392711],[37.5521767,47.139823],[37.5521507,47.1402472],[37.5518012,47.140842],[37.5516612,47.141085],[37.5515603,47.1417724],[37.5517492,47.1423047],[37.551838,47.142555],[37.5521174,47.1431968],[37.5521952,47.1434855],[37.5520451,47.1437528],[37.5517712,47.1439799],[37.5514663,47.1440863],[37.5504007,47.14414],[37.5496136,47.1439895],[37.5475889,47.1442272],[37.5471709,47.1445201],[37.5470327,47.1447352],[37.5465175,47.1452458],[37.5459836,47.1457356],[37.5457992,47.1458735],[37.5455782,47.1459316],[37.5452905,47.1459737],[37.5450964,47.1459784],[37.5448575,47.1459266],[37.5434066,47.1454165],[37.5432801,47.1453908],[37.5431223,47.1453818],[37.5420854,47.1454644],[37.5414315,47.1455505],[37.5409136,47.1456187],[37.5398533,47.1458068],[37.5393988,47.1459977],[37.5393055,47.1460705],[37.5392366,47.1461555],[37.5390955,47.1464329],[37.5390078,47.1465375],[37.5389217,47.1466351],[37.5381676,47.1472607],[37.5378732,47.147684],[37.5369227,47.1484232],[37.5365888,47.1484202],[37.5359757,47.148293],[37.5352774,47.1481121],[37.5347665,47.1478934],[37.5344309,47.1474443],[37.5342408,47.1459091],[37.5334074,47.1443297],[37.5332811,47.1437313],[37.533287,47.1431876],[37.5335208,47.1428268],[37.534759,47.1418252],[37.5350835,47.1408518],[37.5353953,47.1384857],[37.5353579,47.1381819],[37.5352856,47.1379191],[37.53513,47.1376342],[37.5347747,47.1374975],[37.5341872,47.1374848],[37.5335971,47.1375178],[37.5326876,47.137358],[37.5323734,47.137255],[37.5320391,47.1370935],[37.5319833,47.13706],[37.5310723,47.1363959],[37.5307635,47.1362516],[37.5304564,47.1360413],[37.5300893,47.1356938],[37.5299031,47.1355895],[37.5294586,47.135251],[37.5291747,47.1349649],[37.5288983,47.1344388],[37.5285513,47.1339238],[37.5283171,47.1336266],[37.5280417,47.1333594],[37.5278533,47.1331709],[37.5276237,47.1330385],[37.5269556,47.1327715],[37.526664,47.1324345],[37.5261013,47.1322106],[37.5253702,47.1318069],[37.5249426,47.1316739],[37.5247019,47.131577],[37.5244542,47.1315053],[37.5241948,47.1314516],[37.5239588,47.131467],[37.5237434,47.1315286],[37.5233628,47.1316537],[37.5230036,47.1318125],[37.5229039,47.1318515],[37.5227442,47.131914],[37.5223135,47.1319714],[37.5221244,47.1321119],[37.521611,47.1322124],[37.5213263,47.1321399],[37.5211462,47.132123],[37.5210596,47.1320856],[37.5208479,47.1319104],[37.5207876,47.1318606],[37.519838,47.1314121],[37.5188436,47.1310258],[37.5180298,47.1307861],[37.5174639,47.1306307],[37.5168768,47.1306305],[37.5167375,47.130711],[37.515857,47.1312202],[37.5157078,47.1316667],[37.5157578,47.131809],[37.5158538,47.1321655],[37.5159075,47.132541],[37.5163954,47.1334105],[37.5164464,47.1335601],[37.5164792,47.1337388],[37.5164465,47.1342331],[37.5163046,47.134748],[37.5159001,47.1351268],[37.5156726,47.1352115],[37.5154906,47.1352484],[37.5153139,47.1353144],[37.5151552,47.1353976],[37.5150179,47.1355054],[37.514931,47.1355513],[37.5148237,47.1355811],[37.5145368,47.1355963],[37.5142713,47.1356195],[37.5141776,47.1356676],[37.5140107,47.1358614],[37.5139313,47.1360807],[37.5139936,47.1363725],[37.5139204,47.1366026],[37.5139139,47.1368761],[37.5139426,47.1371707],[37.5138493,47.1374119],[37.5137283,47.1375272],[37.5136307,47.1376553],[37.5136283,47.1378682],[37.5135405,47.1380164],[37.5134612,47.1382711],[37.5133995,47.1383626],[37.5132734,47.1384331],[37.5129735,47.1385161],[37.5129159,47.1385993],[37.5129682,47.138827],[37.5125726,47.1395689],[37.5123955,47.1399011],[37.5118953,47.1405054],[37.511825,47.1408075],[37.5119323,47.1412497],[37.512057,47.1415564],[37.5122265,47.1417847],[37.5124827,47.1419582],[37.5126576,47.1420861],[37.5127748,47.1423194],[37.5128588,47.1425748],[37.5128791,47.1426969],[37.5129668,47.1428322],[37.5129234,47.1430665],[37.5129435,47.143321],[37.5130787,47.1436636],[37.5129899,47.1438245],[37.5126511,47.1440211],[37.5125159,47.1442928],[37.5124803,47.1443835],[37.5124376,47.144534],[37.5122474,47.1447253],[37.5120774,47.1448078],[37.5116887,47.1451862],[37.5115458,47.1454042],[37.5114055,47.1456568],[37.5114192,47.1458203],[37.5115128,47.1459874],[37.5114849,47.146078],[37.5112363,47.1462398],[37.5110472,47.1463048],[37.5108696,47.1464929],[37.5105445,47.1470144],[37.5102639,47.1476065],[37.5102591,47.1478174],[37.5103195,47.1479873],[37.5103337,47.1481756],[37.5102771,47.1483679],[37.510052,47.148566],[37.5099761,47.1487053],[37.5099673,47.1488771],[37.5101583,47.14936],[37.5103979,47.1499898],[37.5106704,47.1505843],[37.5106864,47.1506756],[37.5106904,47.1507969],[37.510746,47.1509781],[37.5108551,47.151118],[37.5109935,47.151201],[37.5112103,47.1512416],[37.5115205,47.1514436],[37.5116145,47.1515147],[37.5116909,47.151657],[37.5117874,47.1517529],[37.5121646,47.1519728],[37.5122689,47.1520118],[37.5126201,47.1521001],[37.5127168,47.1521531],[37.5127543,47.1522215],[37.5127526,47.1523087],[37.5126936,47.1526004],[37.5125692,47.1528783],[37.5124942,47.1529593],[37.512403,47.1530296],[37.5122555,47.1530934],[37.5121522,47.1531627],[37.5120811,47.1531828],[37.5120158,47.1531811],[37.5119591,47.1531573],[37.5119409,47.1531225],[37.5119483,47.1530423],[37.5119211,47.1529806],[37.5118196,47.1529256],[37.5116948,47.1529053],[37.5115353,47.1529137],[37.5114026,47.1529576],[37.5112054,47.1531135],[37.510938,47.1532424],[37.5107903,47.153281],[37.5106395,47.1532848],[37.5103028,47.1532257],[37.5101267,47.153213],[37.5099581,47.1532302],[37.5087811,47.1535356],[37.5086546,47.1535531],[37.5070634,47.1535781],[37.5061333,47.1535002],[37.5058812,47.1534442],[37.5045751,47.1530258],[37.504414,47.1529493],[37.5037006,47.1525188],[37.5035177,47.152444],[37.5031629,47.1523564],[37.5030448,47.1523155],[37.5029469,47.1522598],[37.5028959,47.1521815],[37.5026372,47.1514208],[37.5024998,47.1512838],[37.5023904,47.1512365],[37.5006684,47.150972],[37.5004846,47.1509684],[37.4997905,47.1511006],[37.4996048,47.151118],[37.4991837,47.1511052],[37.4990114,47.151111],[37.4987213,47.15117],[37.4983308,47.1512675],[37.4982262,47.1513277],[37.4982063,47.151398],[37.4982744,47.1516269],[37.4982367,47.1517077],[37.4979874,47.1519407],[37.4978426,47.1521504],[37.497714,47.1524064],[37.4975745,47.1528993],[37.49668,47.1535324],[37.4965913,47.1534159],[37.4953502,47.1533784],[37.4925545,47.1498692],[37.4885737,47.1497912],[37.4683113,47.1490754],[37.4655309,47.1458046],[37.4668146,47.1385571],[37.4668271,47.1384886],[37.466998,47.1377311],[37.4701289,47.1219932],[37.4706022,47.1198104],[37.4713731,47.1164408],[37.472318,47.1123283],[37.4722181,47.1110612],[37.4735338,47.1047788],[37.4735776,47.1044073],[37.4738809,47.1018326],[37.4740405,47.1005059],[37.4745471,47.0962159],[37.4806727,47.0977131]]]},"id":"relation/4045787"},{"type":"Feature","properties":{"@id":"relation/4045789","admin_level":"10","boundary":"administrative","katotth":"UA14140050010350963","koatuu":"1412337200","loc_name":"Порт","name":"Приморський район","name:en":"Prymorskyi District","name:ru":"Приморский район","name:uk":"Приморський район","place":"borough","type":"boundary","wikidata":"Q4378728","wikipedia":"uk:Приморський район (Маріуполь)"},"geometry":{"type":"Polygon","coordinates":[[[37.4798524,47.0447821],[37.4797153,47.0446651],[37.4793451,47.0443236],[37.478838,47.0438558],[37.4766412,47.0418292],[37.4748809,47.0402131],[37.4746803,47.0400312],[37.4731127,47.0386099],[37.4725861,47.0381324],[37.4723503,47.037883],[37.4708732,47.0358717],[37.4754827,47.0352279],[37.474898,47.034693],[37.4748184,47.0344787],[37.471693,47.029628],[37.4711033,47.028899],[37.4743329,47.0276125],[37.4773702,47.0301943],[37.4794966,47.0318061],[37.4820801,47.0336649],[37.4845553,47.0357679],[37.4866356,47.0377122],[37.4884327,47.0387395],[37.4914099,47.0391695],[37.4941619,47.0392382],[37.4978022,47.0394626],[37.5012097,47.0402538],[37.5039723,47.0417058],[37.5072886,47.0429633],[37.5108656,47.04406],[37.5147473,47.0452385],[37.5185217,47.0465603],[37.5223626,47.048309],[37.5250277,47.0501176],[37.5264085,47.0520825],[37.5259847,47.0547579],[37.5238604,47.0596273],[37.5227875,47.0632787],[37.5226351,47.0672703],[37.5229647,47.0694024],[37.5238358,47.0714565],[37.5253561,47.0731284],[37.5272712,47.0744743],[37.5292625,47.0752766],[37.5315198,47.0760832],[37.5370302,47.0777601],[37.5415609,47.0791081],[37.5463878,47.0801879],[37.5542124,47.0815342],[37.5585597,47.0823103],[37.5635175,47.0827479],[37.5675784,47.08281],[37.5735061,47.0823344],[37.5757399,47.0816855],[37.5753179,47.0860974],[37.5746636,47.0873467],[37.5729751,47.0902589],[37.5721033,47.0925452],[37.5713606,47.0943149],[37.5711122,47.095079],[37.5706322,47.0965552],[37.5687347,47.0965055],[37.5667873,47.0962093],[37.5670301,47.095217],[37.5664117,47.0951508],[37.5668989,47.0941672],[37.5675344,47.0926276],[37.5675628,47.092409],[37.5672149,47.0924054],[37.5670248,47.0923962],[37.5663239,47.0923191],[37.5657885,47.0922384],[37.5622947,47.0916945],[37.5611115,47.0913615],[37.5610837,47.0908846],[37.5610596,47.0908189],[37.5610167,47.0907668],[37.5605691,47.0905003],[37.5602436,47.0903715],[37.5597367,47.0902383],[37.559353,47.0901523],[37.5574217,47.0898958],[37.5569926,47.0895201],[37.5562651,47.0892201],[37.5561652,47.0891881],[37.5560478,47.0891676],[37.5550528,47.0890511],[37.5547009,47.0891254],[37.5522089,47.0888094],[37.5515501,47.0887389],[37.5512837,47.0888767],[37.5508254,47.0886858],[37.5503133,47.0886028],[37.5496374,47.0888183],[37.5490031,47.0887407],[37.5488512,47.088362],[37.5477622,47.0881112],[37.5468455,47.0875179],[37.5452828,47.0872039],[37.5446498,47.0870596],[37.5440784,47.086884],[37.5437567,47.0867437],[37.5434723,47.086561],[37.5431494,47.0862989],[37.5416605,47.0863712],[37.5419282,47.0894764],[37.5410988,47.0895353],[37.5405326,47.0895415],[37.5391201,47.0892368],[37.5382642,47.0901843],[37.5370486,47.0906522],[37.535075,47.0910334],[37.5344483,47.0914731],[37.5340185,47.0911899],[37.5313848,47.0906188],[37.5307476,47.0910158],[37.5224486,47.0915791],[37.5162172,47.0920224],[37.5076892,47.0926603],[37.5074042,47.092653],[37.5051185,47.0923213],[37.5045122,47.092309],[37.5037872,47.0923983],[37.5030186,47.0925838],[37.5051517,47.0955973],[37.5084381,47.0986525],[37.508571,47.0995402],[37.4965926,47.1003998],[37.4906689,47.0995469],[37.4845695,47.0985581],[37.4833097,47.0983539],[37.4806727,47.0977131],[37.4807049,47.0975777],[37.4815556,47.0934156],[37.4828931,47.0859016],[37.4839272,47.0818553],[37.4819256,47.0802504],[37.48125,47.0792295],[37.4806799,47.0792104],[37.4795222,47.0788946],[37.4784381,47.0788848],[37.4795233,47.0725062],[37.4714828,47.0719191],[37.4706846,47.0712076],[37.4713104,47.0684128],[37.4693521,47.0682059],[37.4694439,47.0678424],[37.466619,47.0674893],[37.4674644,47.0641247],[37.4674981,47.0639899],[37.4720261,47.0643263],[37.4779804,47.0646223],[37.4782583,47.0626258],[37.4768908,47.0595791],[37.4764634,47.0582848],[37.4766509,47.0573147],[37.4770188,47.0564996],[37.4774612,47.0560301],[37.4779131,47.0556717],[37.478381,47.0554207],[37.4787921,47.0551307],[37.4792522,47.0547192],[37.4794363,47.0543457],[37.4796465,47.0540796],[37.4796626,47.0539608],[37.4810627,47.053493],[37.4812786,47.0532157],[37.4812745,47.0530898],[37.4811417,47.0528183],[37.4806749,47.052133],[37.4776489,47.0499797],[37.4740069,47.0478684],[37.4743627,47.0472924],[37.4753957,47.0468972],[37.4757505,47.0468272],[37.476049,47.0467248],[37.4761635,47.046674],[37.4771775,47.046227],[37.4775532,47.0460614],[37.4791793,47.0453447],[37.479368,47.0452615],[37.4798122,47.0450658],[37.4799258,47.0450157],[37.4800579,47.0449575],[37.4798524,47.0447821]]]},"id":"relation/4045789"},{"type":"Feature","properties":{"@id":"node/29980666","@relations":[{"role":"label","rel":1748539,"reltags":{"admin_level":"10","boundary":"administrative","name":"Маріуполь","name:am":"ማሪኡፖል","name:ar":"ماريوبول","name:ast":"Mariupol","name:az":"Mariupol","name:be":"Марыупаль","name:be-tarask":"Марыюпаль","name:bg":"Мариупол","name:bn":"মরিউপল্","name:ca":"Mariupol","name:ce":"Мариуполь","name:ckb":"ماریوپۆل","name:crh":"Mariupol","name:cs":"Mariupol","name:cu":"Марїоуполь","name:cv":"Мариуполь","name:cy":"Mariupol","name:da":"Mariupol","name:de":"Mariupol","name:el":"Μαριούπολη","name:en":"Mariupol","name:eo":"Mariupolo","name:es":"Mariúpol","name:et":"Mariupol","name:eu":"Mariupol","name:fa":"ماریوپول","name:fi":"Mariupol","name:fr":"Marioupol","name:ga":"Mariupol","name:gl":"Mariupol","name:gu":"મરિઉપોલ","name:he":"מריאופול","name:hi":"मरिउपल","name:hr":"Mariupolj","name:hsb":"Mariupol","name:hu":"Mariupol","name:hy":"Մարիուպոլ","name:id":"Mariupol","name:io":"Mariupol","name:it":"Mariupol'","name:ja":"マリウポリ","name:jv":"Mariupol","name:ka":"მარიუპოლი","name:kbd":"Мариупол","name:kk":"Мариуполь","name:kl":"Mariupol","name:km":"ហ្មរិឩពឡ","name:kn":"ಮರಿಉಪೊಲ್","name:ko":"마리우폴","name:ku":"Maryupol","name:kv":"Мариуполь","name:ky":"Мариуполь","name:la":"Mariupolis","name:lo":"ມະຣິວຸລ","name:lt":"Mariupolis","name:lv":"Mariupole","name:mdf":"Мариуполь","name:mk":"Мариупол","name:ml":"മരിയുപോൾ","name:mn":"Мариуполь","name:mr":"मरिउपोल","name:mrj":"Мариуполь","name:ms":"Mariupol","name:mt":"Mariupol","name:my":"မရီဥပိုလ်","name:nl":"Marioepol","name:nn":"Mariupol","name:no":"Mariupol","name:oc":"Mariupol","name:os":"Мариуполь","name:pl":"Mariupol","name:prefix":"місто","name:pt":"Mariupol","name:ro":"Mariupol","name:ru":"Мариуполь","name:rue":"Маріуполь","name:sk":"Mariupoľ","name:sl":"Mariupol","name:sq":"Mariupol","name:sr":"Маријупољ","name:sv":"Mariupol","name:sw":"Mariupol","name:te":"మరిఉపొల్","name:tg":"Мариуполь","name:th":"มารีอูปัล","name:ti":"ማሪኡፖል","name:tk":"Mariupol","name:tl":"Mariupol","name:tr":"Mariupol","name:uk":"Маріуполь","name:ur":"مروپل","name:uz":"Mariupol","name:vep":"Mariupol'","name:vi":"Mariupol","name:vo":"Mariupol","name:war":"Mariupol","name:yi":"מאריופאל","name:zh":"马里乌波尔","old_name":"Жданов","old_name:ru":"Жданов","old_name:uk":"Жданов","place":"city","population":"453623","postal_code":"87500-87590","type":"boundary","wikidata":"Q37133"}}]},"geometry":{"type":"Point","coordinates":[37.5499621,47.0957648]},"id":"node/29980666"}]}