{"type":"FeatureCollection","features":[{"type":"Feature","properties":{"@id":"relation/3969623","admin_level":"9","boundary":"administrative","koatuu":"4622155600","name":"Новий Яричів","name:de":"Nowyj Jarytschiw","name:en":"Novyi Yarychiv","name:es":"Noví Yárychiv","name:fi":"Novyj Jarytšiv","name:fr":"Novyï Iarytchiv","name:he":"יריצ'וב נובי","name:hr":"Novi Jaričiv","name:it":"Novyj Jaryčiv","name:pl":"Jaryczów Nowy","name:prefix":"селище міського типу","name:ro":"Novîi Iarîciv","name:ru":"Новый Ярычев","name:uk":"Новий Яричів","name:uz":"Noviy Yarychiv","name:zh":"新亚雷奇夫","place":"town","population":"2904","postal_code":"80465","type":"boundary","wikidata":"Q4326861","wikipedia":"uk:Новий Яричів","parent_raion":"Новояричівська селищна громада"},"geometry":{"type":"Polygon","coordinates":[[[24.2989129,49.8928878],[24.2994083,49.8929861],[24.2996272,49.8934527],[24.3017745,49.8938758],[24.3017324,49.893706],[24.3035878,49.893438],[24.3062613,49.8933376],[24.3080213,49.8934868],[24.3094724,49.893685],[24.3095033,49.8941378],[24.3083979,49.8956797],[24.3078796,49.8968788],[24.3098143,49.8970998],[24.3095454,49.8976854],[24.3098612,49.8980325],[24.3102275,49.8985505],[24.3099923,49.8991638],[24.3114948,49.8989221],[24.3125727,49.8989248],[24.3147906,49.8985327],[24.3146737,49.8979322],[24.3159663,49.8976203],[24.3164378,49.897924],[24.3172841,49.8980298],[24.3181273,49.8978196],[24.3194014,49.8971148],[24.3206058,49.8968154],[24.3211197,49.896821],[24.3214735,49.8968249],[24.3224966,49.8967408],[24.3227444,49.8966757],[24.3237562,49.8963867],[24.3242686,49.8957959],[24.3239531,49.8970827],[24.3236581,49.8982774],[24.3235213,49.898382],[24.3229017,49.9005283],[24.3170665,49.901132],[24.3144737,49.9014357],[24.3136256,49.9014937],[24.3123794,49.9015315],[24.3123177,49.9021898],[24.312256,49.9024817],[24.3135676,49.9026692],[24.3146192,49.902804],[24.3163365,49.9029216],[24.3178212,49.9029595],[24.3194282,49.9027408],[24.322443,49.9021673],[24.3214304,49.905809],[24.3149127,49.9052527],[24.3157726,49.9087096],[24.3160761,49.9098917],[24.3161245,49.9101668],[24.3108612,49.9113676],[24.3028006,49.9130966],[24.3028396,49.9107676],[24.3017457,49.9107322],[24.3010846,49.9107855],[24.3009344,49.9107803],[24.3005455,49.9106387],[24.2990166,49.9104997],[24.2981422,49.9103934],[24.2972437,49.9103416],[24.2965589,49.9102794],[24.2952052,49.910143],[24.2943012,49.9100534],[24.2925042,49.9101792],[24.2918534,49.9102383],[24.2906966,49.9103331],[24.2888564,49.9105178],[24.2884862,49.9106042],[24.2871369,49.9112944],[24.2861529,49.911597],[24.2856377,49.9117303],[24.2853893,49.9115892],[24.2846459,49.9108107],[24.2843825,49.9099616],[24.2843266,49.9090055],[24.2851192,49.908885],[24.2845917,49.9076642],[24.2873989,49.907302],[24.2875153,49.9073498],[24.2869592,49.9058554],[24.2960113,49.9052352],[24.2957192,49.9031075],[24.2956459,49.9013592],[24.2955068,49.8980966],[24.2925974,49.8971752],[24.2898456,49.8967662],[24.2911698,49.8949774],[24.2916164,49.8949852],[24.2989129,49.8928878]]]},"id":"relation/3969623"},{"type":"Feature","properties":{"@id":"relation/4172779","admin_level":"9","boundary":"administrative","koatuu":"4622155400","name":"Запитів","name:en":"Zapytiv","name:pl":"Zapytów","name:prefix":"селище міського типу","name:ru":"Запытов","name:uk":"Запитів","place":"town","population":"2730","postal_code":"80461","type":"boundary","wikidata":"Q7193281","wikipedia":"uk:Запитів","parent_raion":"Новояричівська селищна громада"},"geometry":{"type":"Polygon","coordinates":[[[24.1911246,49.9208787],[24.1908892,49.9190915],[24.187535,49.9190494],[24.175142,49.9204518],[24.1693702,49.9203256],[24.1690146,49.9168712],[24.2113139,49.913339],[24.2240227,49.9132957],[24.22571,49.91329],[24.2263775,49.9132505],[24.2286051,49.9131186],[24.2306938,49.9126527],[24.2307966,49.9163355],[24.2308072,49.9167171],[24.2282352,49.9168596],[24.2286496,49.9221232],[24.2295342,49.9231503],[24.2325055,49.9232379],[24.2328191,49.9236621],[24.2330249,49.9261414],[24.2323773,49.9267046],[24.2312641,49.9268075],[24.2306456,49.9284823],[24.231569,49.9299061],[24.2320264,49.9313642],[24.2261005,49.9322308],[24.2238136,49.9278284],[24.2256213,49.9274147],[24.2248057,49.9262318],[24.2233255,49.9265322],[24.223441,49.9267823],[24.2221324,49.9270575],[24.221747,49.9278683],[24.2193957,49.9274582],[24.2201133,49.9247053],[24.219719,49.9242238],[24.2197299,49.9239084],[24.2197,49.9209071],[24.2179119,49.920267],[24.2175505,49.9204473],[24.213648,49.9191802],[24.2119748,49.919251],[24.2131765,49.9210106],[24.2125296,49.9211395],[24.2121719,49.9205545],[24.21149,49.9206487],[24.211413,49.9205148],[24.2104679,49.9206403],[24.2100174,49.9199807],[24.2067234,49.9205099],[24.2042977,49.920971],[24.2045211,49.9213577],[24.2023649,49.9218535],[24.2022141,49.9213073],[24.2020433,49.9203651],[24.1911246,49.9208787]]]},"id":"relation/4172779"},{"type":"Feature","properties":{"@id":"node/337540656","@relations":[{"role":"label","rel":4172779,"reltags":{"admin_level":"9","boundary":"administrative","koatuu":"4622155400","name":"Запитів","name:en":"Zapytiv","name:pl":"Zapytów","name:prefix":"селище міського типу","name:ru":"Запытов","name:uk":"Запитів","place":"town","population":"2730","postal_code":"80461","type":"boundary","wikidata":"Q7193281","wikipedia":"uk:Запитів"}}],"parent_raion":"Новояричівська селищна громада"},"geometry":{"type":"Point","coordinates":[24.2004196,49.9171887]},"id":"node/337540656"},{"type":"Feature","properties":{"@id":"node/337541215","@relations":[{"role":"label","rel":3969623,"reltags":{"admin_level":"9","boundary":"administrative","koatuu":"4622155600","name":"Новий Яричів","name:de":"Nowyj Jarytschiw","name:en":"Novyi Yarychiv","name:es":"Noví Yárychiv","name:fi":"Novyj Jarytšiv","name:fr":"Novyï Iarytchiv","name:he":"יריצ'וב נובי","name:hr":"Novi Jaričiv","name:it":"Novyj Jaryčiv","name:pl":"Jaryczów Nowy","name:prefix":"селище міського типу","name:ro":"Novîi Iarîciv","name:ru":"Новый Ярычев","name:uk":"Новий Яричів","name:uz":"Noviy Yarychiv","name:zh":"新亚雷奇夫","place":"town","population":"2904","postal_code":"80465","type":"boundary","wikidata":"Q4326861","wikipedia":"uk:Новий Яричів"}}],"parent_raion":"Новояричівська селищна громада"},"geometry":{"type":"Point","coordinates":[24.3026191,49.9071883]},"id":"node/337541215"}]}