{"type":"FeatureCollection","features":[{"type":"Feature","properties":{"@id":"relation/3994049","admin_level":"9","boundary":"administrative","name":"Конопниця","name:de":"Konopnyzja","name:en":"Konopnytsia","name:fi":"Konopnytsja","name:it":"Konopnycja","name:ko":"코노프니차","name:pl":"Konopnica","name:prefix":"село","name:ro":"Konopnîțea","name:ru":"Конопница","name:uk":"Конопниця","name:zh":"科諾普尼齊亞","place":"village","type":"boundary","parent_raion":"Оброшинська сільська громада"},"geometry":{"type":"Polygon","coordinates":[[[23.8551993,49.8285716],[23.8550252,49.827827],[23.8547765,49.8265335],[23.8540779,49.8228995],[23.8531277,49.8187562],[23.8530197,49.8183978],[23.8526947,49.8178822],[23.8490946,49.8155699],[23.8485927,49.8144952],[23.8480602,49.8143892],[23.8485129,49.8136904],[23.8507591,49.8116799],[23.8510592,49.8114113],[23.8517057,49.8101907],[23.8522097,49.8092335],[23.8531716,49.8083527],[23.85362,49.8080842],[23.8537427,49.8079579],[23.8537784,49.8079003],[23.8538034,49.8078105],[23.8538534,49.8075087],[23.8537891,49.806935],[23.8524276,49.807062],[23.8522947,49.8065297],[23.8522892,49.8064531],[23.8525576,49.8059874],[23.8530192,49.8060519],[23.8532673,49.8055899],[23.8527097,49.8049425],[23.8557218,49.8048092],[23.8604404,49.8045672],[23.8597993,49.8056333],[23.8595175,49.8056974],[23.8641557,49.8056104],[23.8679729,49.8055503],[23.8672846,49.8081062],[23.8679968,49.8083393],[23.8702753,49.8082876],[23.8714061,49.8083429],[23.8744519,49.8086613],[23.8729995,49.8122843],[23.8723064,49.8123261],[23.8720468,49.8130397],[23.8703588,49.8127855],[23.868555,49.8124789],[23.8682776,49.8137674],[23.8681289,49.8142019],[23.8679955,49.8141733],[23.8602872,49.8128625],[23.8591948,49.8159932],[23.8592618,49.8160025],[23.8665478,49.8170122],[23.865908,49.819292],[23.8676541,49.8193491],[23.8676483,49.8211603],[23.8676153,49.8221512],[23.8675293,49.8233745],[23.867431,49.8238543],[23.8650497,49.8235978],[23.8644356,49.827193],[23.8644947,49.8282543],[23.8642735,49.8285701],[23.8635988,49.8285603],[23.8632322,49.8285429],[23.8618788,49.8285536],[23.8607673,49.8285546],[23.8593325,49.8285926],[23.8577567,49.8287417],[23.8574476,49.8287009],[23.8574059,49.8286954],[23.8568245,49.8288191],[23.8566115,49.8288398],[23.8564107,49.8285111],[23.8551993,49.8285716]]]},"id":"relation/3994049"},{"type":"Feature","properties":{"@id":"relation/4243971","admin_level":"9","boundary":"administrative","name":"Оброшине","name:de":"Obroschyne","name:en":"Obroshyne","name:es":"Obróshyne","name:fi":"Obrošyne","name:fr":"Obrochyne","name:it":"Obrošyne","name:ko":"오브로시네","name:pl":"Obroszyn","name:prefix":"село","name:ro":"Obroșîne","name:ru":"Оброшино","name:uk":"Оброшине","name:zh":"奥布罗希内","place":"village","type":"boundary","wikidata":"Q4329914","wikipedia":"uk:Оброшине","parent_raion":"Оброшинська сільська громада"},"geometry":{"type":"MultiPolygon","coordinates":[[[[23.8379056,49.7933444],[23.8372533,49.7927058],[23.8368276,49.7921238],[23.8365103,49.7916603],[23.8376541,49.7902428],[23.8384054,49.7905823],[23.8387561,49.7904799],[23.8405093,49.7904207],[23.8407597,49.7907333],[23.8417115,49.7905015],[23.8426256,49.7917681],[23.8379056,49.7933444]]],[[[23.8487497,49.7795505],[23.8487408,49.7791236],[23.8471909,49.7791413],[23.8471638,49.7786158],[23.8456496,49.7785873],[23.8456574,49.7779051],[23.8460076,49.7777112],[23.8457288,49.7774526],[23.8464134,49.7771183],[23.8470229,49.7774579],[23.8488929,49.7773286],[23.8488929,49.7765846],[23.8494356,49.7765576],[23.8495942,49.7758406],[23.8487343,49.7754147],[23.8492269,49.7743633],[23.8513999,49.7722648],[23.8511265,49.772151],[23.8521312,49.7719324],[23.8527226,49.7726532],[23.8530459,49.7728814],[23.8540417,49.7735846],[23.8582935,49.7765864],[23.8600226,49.7761815],[23.8621124,49.7759947],[23.8626082,49.7757241],[23.8640959,49.7756707],[23.8644464,49.7759875],[23.8645747,49.7756719],[23.863618,49.7726567],[23.8659532,49.7723326],[23.8679354,49.7751894],[23.8689693,49.7751039],[23.86917,49.7756452],[23.8713543,49.7754051],[23.8738478,49.774562],[23.8768468,49.7787518],[23.8808552,49.7776134],[23.8810441,49.7786046],[23.8816462,49.7790697],[23.8813265,49.7795038],[23.8830014,49.7818242],[23.8843388,49.7824891],[23.8850086,49.783448],[23.8875234,49.7846296],[23.8863012,49.78494],[23.8855808,49.7849131],[23.8818636,49.7854418],[23.8818046,49.7858901],[23.8823772,49.7866905],[23.8824146,49.7874478],[23.8804069,49.7883493],[23.8805815,49.7926454],[23.8790288,49.7945917],[23.8789242,49.7947119],[23.8769286,49.7970049],[23.8744689,49.7962073],[23.8762011,49.7939784],[23.8726328,49.792905],[23.8712555,49.7944228],[23.8701154,49.7939784],[23.8700923,49.7926739],[23.8707505,49.7921222],[23.8702655,49.7919284],[23.8686488,49.7910785],[23.8668358,49.7895726],[23.8664145,49.788966],[23.8654536,49.787553],[23.8641281,49.7890978],[23.8634259,49.7887077],[23.8631973,49.788402],[23.8621562,49.7887033],[23.8603369,49.7856012],[23.8608146,49.7854167],[23.857728,49.7799176],[23.8572037,49.7800706],[23.8568543,49.7794272],[23.852716,49.779353],[23.8509723,49.7795829],[23.853403,49.7838711],[23.8522612,49.7841593],[23.8529226,49.7855247],[23.8498523,49.7861574],[23.8494344,49.7854968],[23.8482353,49.785675],[23.8464198,49.782561],[23.8470755,49.7824311],[23.8476245,49.7820461],[23.8476718,49.7817183],[23.8464295,49.7817556],[23.8465451,49.7795897],[23.8487497,49.7795505]]]]},"id":"relation/4243971"},{"type":"Feature","properties":{"@id":"relation/4243981","admin_level":"9","boundary":"administrative","landuse":"residential","name":"Пришляки","name:en":"Pryshliaky","name:pl":"Przyszlaki","name:ru":"Пришляки","name:uk":"Пришляки","place":"hamlet","type":"boundary","wikidata":"Q4379406","wikipedia":"uk:Пришляки","parent_raion":"Оброшинська сільська громада"},"geometry":{"type":"MultiPolygon","coordinates":[[[[23.8410759,49.7844223],[23.8405175,49.7846761],[23.8400216,49.784657],[23.8392666,49.7852599],[23.8372064,49.7842821],[23.8381443,49.7826493],[23.8397527,49.7834646],[23.8410759,49.7844223]]],[[[23.8433475,49.7798654],[23.843119,49.7808147],[23.8416089,49.7807509],[23.8410356,49.7804097],[23.8412522,49.7797464],[23.8433475,49.7798654]]],[[[23.8462654,49.7853552],[23.8469962,49.7855286],[23.8472197,49.7857833],[23.8455626,49.786379],[23.8450278,49.7863467],[23.844271,49.7865258],[23.8435796,49.7869462],[23.8432457,49.7868465],[23.8427072,49.7862886],[23.8419725,49.7863291],[23.841762,49.7856659],[23.8442784,49.78534],[23.8462654,49.7853552]]]]},"id":"relation/4243981"},{"type":"Feature","properties":{"@id":"node/337544153","@relations":[{"role":"admin_centre","rel":3994049,"reltags":{"admin_level":"9","boundary":"administrative","name":"Конопниця","name:de":"Konopnyzja","name:en":"Konopnytsia","name:fi":"Konopnytsja","name:it":"Konopnycja","name:ko":"코노프니차","name:pl":"Konopnica","name:prefix":"село","name:ro":"Konopnîțea","name:ru":"Конопница","name:uk":"Конопниця","name:zh":"科諾普尼齊亞","place":"village","type":"boundary"}}],"parent_raion":"Оброшинська сільська громада"},"geometry":{"type":"Point","coordinates":[23.8596063,49.816415]},"id":"node/337544153"},{"type":"Feature","properties":{"@id":"node/337545116","@relations":[{"role":"admin_centre","rel":4243971,"reltags":{"admin_level":"9","boundary":"administrative","name":"Оброшине","name:de":"Obroschyne","name:en":"Obroshyne","name:es":"Obróshyne","name:fi":"Obrošyne","name:fr":"Obrochyne","name:it":"Obrošyne","name:ko":"오브로시네","name:pl":"Obroszyn","name:prefix":"село","name:ro":"Obroșîne","name:ru":"Оброшино","name:uk":"Оброшине","name:zh":"奥布罗希内","place":"village","type":"boundary","wikidata":"Q4329914","wikipedia":"uk:Оброшине"}}],"parent_raion":"Оброшинська сільська громада"},"geometry":{"type":"Point","coordinates":[23.86727,49.78643]},"id":"node/337545116"},{"type":"Feature","properties":{"@id":"node/337545506","@relations":[{"role":"admin_centre","rel":4243981,"reltags":{"admin_level":"9","boundary":"administrative","landuse":"residential","name":"Пришляки","name:en":"Pryshliaky","name:pl":"Przyszlaki","name:ru":"Пришляки","name:uk":"Пришляки","place":"hamlet","type":"boundary","wikidata":"Q4379406","wikipedia":"uk:Пришляки"}}],"parent_raion":"Оброшинська сільська громада"},"geometry":{"type":"Point","coordinates":[23.839314,49.784264]},"id":"node/337545506"}]}