{"type":"FeatureCollection","features":[{"type":"Feature","properties":{"@id":"relation/2675319","admin_level":"9","boundary":"administrative","name":"Попільня","name:de":"Popilnja","name:en":"Popilnia","name:fi":"Popilnja","name:fr":"Popilnia","name:it":"Popil'nja","name:ko":"포필냐","name:pl":"Popielnia","name:prefix":"село","name:ru":"Попельня","name:uk":"Попільня","name:zh":"波皮利尼亞","old_name:pl":"Popielnia","old_name:zh":"波佩利尼亞","old_postal_code":"13500;13502;13503","place":"town","postal_code":"13501","type":"boundary","wikidata":"Q2652368","wikipedia":"uk:Попільня","parent_raion":"Попільнянська селищна громада"},"geometry":{"type":"Polygon","coordinates":[[[29.4381715,49.9406544],[29.4372113,49.9395492],[29.436707,49.9382013],[29.438779,49.937293],[29.4378833,49.9367612],[29.4391015,49.9360652],[29.4399035,49.9366052],[29.4410514,49.9372916],[29.4414192,49.9370843],[29.4423531,49.9375685],[29.4406582,49.9385687],[29.4413218,49.9387089],[29.4537195,49.9384928],[29.4656453,49.9383104],[29.4665913,49.9383788],[29.4678886,49.9385415],[29.4694613,49.9388481],[29.4708769,49.9391947],[29.4716318,49.939484],[29.4762472,49.9416009],[29.4770327,49.9409437],[29.4783001,49.9414435],[29.480034,49.9406801],[29.4809853,49.9410192],[29.485769,49.9384216],[29.4876592,49.9388122],[29.4872008,49.9390593],[29.4880196,49.9397134],[29.4867031,49.9404034],[29.4857722,49.9397372],[29.479612,49.943045],[29.4804905,49.9439635],[29.4784751,49.9448746],[29.4785415,49.9451638],[29.48133,49.9457739],[29.4811227,49.9465653],[29.4762179,49.9458438],[29.4758321,49.9473105],[29.475629,49.9476502],[29.4753181,49.947983],[29.4750224,49.9482015],[29.4746587,49.9483679],[29.4740807,49.948563],[29.4720542,49.9489416],[29.4724934,49.9499083],[29.4670783,49.9515883],[29.4688511,49.9538776],[29.464817,49.9554446],[29.462911,49.952891],[29.4614172,49.9534037],[29.4554643,49.9553916],[29.4544359,49.9539552],[29.4530845,49.954299],[29.4520822,49.9544129],[29.4514427,49.9543762],[29.4495314,49.9540702],[29.4489741,49.9540886],[29.4482971,49.9542101],[29.4473082,49.9545665],[29.4434612,49.9500077],[29.4410203,49.9471407],[29.4391789,49.9451688],[29.4397034,49.9449304],[29.439396,49.9446582],[29.4410332,49.9438574],[29.4378651,49.9434396],[29.4360766,49.9433102],[29.4364071,49.9419536],[29.4360785,49.9419122],[29.4364698,49.9404324],[29.4381715,49.9406544]]]},"id":"relation/2675319"},{"type":"Feature","properties":{"@id":"node/337539614","@relations":[{"role":"admin_centre","rel":2675319,"reltags":{"admin_level":"9","boundary":"administrative","name":"Попільня","name:de":"Popilnja","name:en":"Popilnia","name:fi":"Popilnja","name:fr":"Popilnia","name:it":"Popil'nja","name:ko":"포필냐","name:pl":"Popielnia","name:prefix":"село","name:ru":"Попельня","name:uk":"Попільня","name:zh":"波皮利尼亞","old_name:pl":"Popielnia","old_name:zh":"波佩利尼亞","old_postal_code":"13500;13502;13503","place":"town","postal_code":"13501","type":"boundary","wikidata":"Q2652368","wikipedia":"uk:Попільня"}}],"parent_raion":"Попільнянська селищна громада"},"geometry":{"type":"Point","coordinates":[29.4592233,49.9452183]},"id":"node/337539614"}]}