{"type":"FeatureCollection","features":[{"type":"Feature","properties":{"@id":"relation/2418936","admin_level":"10","alt_name:ru":"Большая Новосёлка","boundary":"administrative","katotth":"UA14040010010027148","koatuu":"1421255100","name":"Велика Новосілка","name:arz":"فيليكا نوفوسيلكا","name:de":"Welyka Nowosilka","name:el":"Βελίκα Νοβοσίλκα","name:en":"Velyka Novosilka","name:es":"Velíka Novosilka","name:fr":"Velyka Novossilka","name:he":"וליקה נובוסילקה","name:hr":"Velika Novosilka","name:ko":"벨리카노보실카","name:prefix":"селище","name:ru":"Великая Новосёлка","name:uk":"Велика Новосілка","name:zh":"大新锡尔卡","old_name":"Velíkaya Novosiolka;Velikaya Novosyolka","old_name:el":"Μπολσόι Γιανισόλ","old_name:prefix":"селище міського типу","old_name:ru":"Большой Янисоль","old_name:uk":"Великий Янісоль","old_name:uum":"Салгир Йаны Сала","old_name:zh":"大新肖尔卡","place":"town","population":"6265","postal_code":"85500","type":"boundary","wikidata":"Q4106309","wikipedia":"uk:Велика Новосілка"},"geometry":{"type":"Polygon","coordinates":[[[36.8438589,47.8609904],[36.8445434,47.8653468],[36.837362,47.8657908],[36.8375049,47.8590809],[36.8330869,47.8591697],[36.8329876,47.8585258],[36.8300919,47.8574044],[36.8295127,47.8568604],[36.8294962,47.8563163],[36.8298271,47.8559833],[36.826,47.85507],[36.8212393,47.8544177],[36.8199321,47.8541734],[36.8192205,47.8536738],[36.8189392,47.8530298],[36.8187241,47.8523525],[36.8182112,47.8523525],[36.8179299,47.8515419],[36.8180292,47.8505665],[36.8189558,47.8505869],[36.8193364,47.8503871],[36.8197335,47.8503871],[36.8198042,47.8502676],[36.8201472,47.8496875],[36.8200644,47.8491101],[36.819568,47.8482883],[36.819568,47.8477442],[36.8201141,47.8472778],[36.8207263,47.8470668],[36.8217853,47.8467337],[36.8229767,47.8458564],[36.8239861,47.8444127],[36.8245487,47.8431467],[36.8249623,47.842025],[36.8250616,47.8409033],[36.8255415,47.8394372],[36.8261537,47.8390041],[36.8270638,47.8385043],[36.8277422,47.8381044],[36.827825,47.8374491],[36.8273947,47.8367605],[36.8273782,47.8361718],[36.8277257,47.8356054],[36.8282883,47.8349944],[36.828553,47.8342836],[36.8291322,47.8334505],[36.8293473,47.8330062],[36.8291156,47.832573],[36.8284537,47.8321731],[36.8275933,47.831751],[36.8270142,47.8312844],[36.8267182,47.8298794],[36.8253613,47.8234471],[36.8384996,47.8225806],[36.8389629,47.8261357],[36.840419,47.82658],[36.8412464,47.8269911],[36.842173,47.8274243],[36.8455486,47.8292462],[36.8500494,47.8315012],[36.8547487,47.8329675],[36.8566847,47.8335562],[36.8569329,47.8334895],[36.8581243,47.8346003],[36.859568,47.8403636],[36.8620169,47.8481152],[36.8591709,47.8483373],[36.8601306,47.8539337],[36.8483492,47.8547554],[36.8462086,47.8554836],[36.8499457,47.8580275],[36.8465837,47.8583469],[36.8464734,47.8581927],[36.8438093,47.8583481],[36.8438178,47.858818],[36.8438589,47.8609904]]]},"id":"relation/2418936"},{"type":"Feature","properties":{"@id":"relation/3946755","admin_level":"10","boundary":"administrative","katotth":"UA14040010040083406","koatuu":"1421255101","name":"Времівка","name:en":"Vremivka","name:ko":"브레미우카","name:prefix":"село","name:ru":"Времевка","name:uk":"Времівка","place":"village","population":"1344","postal_code":"85500","type":"boundary","wikidata":"Q4127070","wikipedia":"uk:Времівка"},"geometry":{"type":"Polygon","coordinates":[[[36.8081901,47.8260479],[36.8091601,47.8274083],[36.8140637,47.8297472],[36.819303,47.8299445],[36.8218816,47.8310098],[36.8249433,47.8310608],[36.8278322,47.8326964],[36.8270164,47.8344894],[36.8233724,47.84359],[36.814594,47.8432182],[36.8080829,47.842135],[36.8091678,47.8383516],[36.8106998,47.8358609],[36.806324,47.8340555],[36.8073124,47.8304629],[36.8065329,47.8290153],[36.8053182,47.8272562],[36.8067607,47.8266963],[36.8081901,47.8260479]]]},"id":"relation/3946755"},{"type":"Feature","properties":{"@id":"relation/3946775","admin_level":"10","boundary":"administrative","katotth":"UA14040010090061025","koatuu":"1421255102","name":"Нескучне","name:de":"Neskutschne","name:en":"Neskuchne","name:fi":"Neskutšne","name:fr":"Neskoutchne","name:it":"Nesčkune","name:ko":"네스쿠츠네","name:prefix":"село","name:ro":"Neskucine","name:ru":"Нескучное","name:uk":"Нескучне","name:zh":"涅斯庫奇涅","place":"village","population":"733","postal_code":"85500","type":"boundary","wikidata":"Q4317668","wikipedia":"uk:Нескучне (Волноваський район)"},"geometry":{"type":"Polygon","coordinates":[[[36.8081901,47.8260479],[36.8067607,47.8266963],[36.8053182,47.8272562],[36.8028581,47.8277569],[36.8026976,47.8275529],[36.8015834,47.826349],[36.8029719,47.8256831],[36.8015157,47.8231639],[36.8024206,47.8166061],[36.8044265,47.8167154],[36.8059631,47.8157366],[36.8057116,47.8112295],[36.80832,47.81147],[36.8176831,47.8115144],[36.8192369,47.814007],[36.8225428,47.813785],[36.8227412,47.8159162],[36.82119,47.81851],[36.8193,47.82057],[36.8147729,47.8206068],[36.8140136,47.8221317],[36.8148589,47.8240444],[36.8131541,47.8244402],[36.8093594,47.8242068],[36.8082756,47.8258659],[36.8081901,47.8260479]]]},"id":"relation/3946775"},{"type":"Feature","properties":{"@id":"node/256614795","@relations":[{"role":"label","rel":3946775,"reltags":{"admin_level":"10","boundary":"administrative","katotth":"UA14040010090061025","koatuu":"1421255102","name":"Нескучне","name:de":"Neskutschne","name:en":"Neskuchne","name:fi":"Neskutšne","name:fr":"Neskoutchne","name:it":"Nesčkune","name:ko":"네스쿠츠네","name:prefix":"село","name:ro":"Neskucine","name:ru":"Нескучное","name:uk":"Нескучне","name:zh":"涅斯庫奇涅","place":"village","population":"733","postal_code":"85500","type":"boundary","wikidata":"Q4317668","wikipedia":"uk:Нескучне (Волноваський район)"}}]},"geometry":{"type":"Point","coordinates":[36.80883,47.81997]},"id":"node/256614795"}]}