{"type":"FeatureCollection","features":[{"type":"Feature","properties":{"@id":"relation/18675369","admin_level":"9","boundary":"administrative","int_name":"Barok","katotth":"UA18040130020038091","koatuu":"1820384802","name":"Борок","name:be":"Барок","name:en":"Borok","name:ko":"보로크","name:prefix":"село","name:ru":"Борок","name:uk":"Борок","place":"hamlet","population":"5","postal_code":"13420","type":"boundary","wikidata":"Q4094661","wikipedia":"uk:Борок (Волицька сільська громада)","parent_raion":"Волицька сільська громада"},"geometry":{"type":"Polygon","coordinates":[[[28.9924532,50.1566589],[28.9907741,50.1567448],[28.9907205,50.156408],[28.9900875,50.1564836],[28.9895993,50.1545761],[28.9900446,50.1541258],[28.9908707,50.154167],[28.9914447,50.1563117],[28.9980966,50.1556415],[28.998574,50.1556037],[28.999486,50.1554216],[29.0085411,50.1546517],[29.0089381,50.1553322],[29.0069318,50.1557481],[28.9999151,50.1565764],[28.9996254,50.1560987],[28.9974314,50.1562155],[28.9974636,50.1567242],[28.9968628,50.156762],[28.9957684,50.1570576],[28.9923996,50.1572913],[28.9924532,50.1566589]]]},"id":"relation/18675369"},{"type":"Feature","properties":{"@id":"node/337528033","@relations":[{"role":"admin_centre","rel":18675369,"reltags":{"admin_level":"9","boundary":"administrative","int_name":"Barok","katotth":"UA18040130020038091","koatuu":"1820384802","name":"Борок","name:be":"Барок","name:en":"Borok","name:ko":"보로크","name:prefix":"село","name:ru":"Борок","name:uk":"Борок","place":"hamlet","population":"5","postal_code":"13420","type":"boundary","wikidata":"Q4094661","wikipedia":"uk:Борок (Волицька сільська громада)"}}],"parent_raion":"Волицька сільська громада"},"geometry":{"type":"Point","coordinates":[29.0012849,50.1557507]},"id":"node/337528033"}]}