{"type":"FeatureCollection","features":[{"type":"Feature","properties":{"@id":"relation/18111048","admin_level":"9","boundary":"administrative","name":"Ременів","name:en":"Remeniv","name:fr":"Remeniv","name:it":"Remeniv","name:ko":"레메니우","name:pl":"Remenów","name:prefix":"село","name:ru":"Ременов","name:uk":"Ременів","place":"village","population":"1370","postal_code":"80460","type":"boundary","wikidata":"Q4393119","wikipedia":"uk:Ременів","wikipedia:ru":"Ременов","parent_raion":"Жовтанецька сільська громада"},"geometry":{"type":"Polygon","coordinates":[[[24.2071617,49.9548924],[24.2054278,49.9556765],[24.2036104,49.9566249],[24.2017329,49.9571357],[24.2017543,49.9578467],[24.2039591,49.9579088],[24.2070158,49.9577948],[24.2073482,49.9592799],[24.2068934,49.9592548],[24.2010999,49.9591029],[24.1987502,49.958744],[24.1986,49.9591305],[24.1979134,49.9591374],[24.1965937,49.961491],[24.1948422,49.9607313],[24.1944601,49.960684],[24.1930442,49.9605438],[24.1899945,49.9605839],[24.1897246,49.9617343],[24.1894188,49.9621053],[24.1881895,49.9618651],[24.1871899,49.9611839],[24.1872919,49.9607387],[24.1882199,49.9601175],[24.1902906,49.9595584],[24.190945,49.9596378],[24.1904283,49.9590026],[24.1903496,49.958148],[24.192093,49.95765],[24.1932034,49.9573911],[24.1944426,49.9559761],[24.195832,49.9544609],[24.1956925,49.9540502],[24.1954243,49.9536187],[24.1948935,49.9532003],[24.1946841,49.9527317],[24.1947323,49.9527386],[24.1940605,49.9514488],[24.1986052,49.9502664],[24.1932463,49.9473401],[24.1936549,49.9466156],[24.1941211,49.945992],[24.2048845,49.9437718],[24.2092308,49.9475965],[24.2174399,49.9459869],[24.2182231,49.9463114],[24.2244047,49.9454528],[24.2263066,49.9468657],[24.2276719,49.9505846],[24.2230862,49.950668],[24.2231047,49.9510473],[24.2197895,49.9519102],[24.2200435,49.9528776],[24.2189551,49.9532584],[24.2168477,49.9536027],[24.2154365,49.9535115],[24.2116994,49.9539582],[24.2105084,49.9541589],[24.2071617,49.9548924]]]},"id":"relation/18111048"},{"type":"Feature","properties":{"@id":"node/337539371","@relations":[{"role":"admin_centre","rel":18111048,"reltags":{"admin_level":"9","boundary":"administrative","name":"Ременів","name:en":"Remeniv","name:fr":"Remeniv","name:it":"Remeniv","name:ko":"레메니우","name:pl":"Remenów","name:prefix":"село","name:ru":"Ременов","name:uk":"Ременів","place":"village","population":"1370","postal_code":"80460","type":"boundary","wikidata":"Q4393119","wikipedia":"uk:Ременів","wikipedia:ru":"Ременов"}}],"parent_raion":"Жовтанецька сільська громада"},"geometry":{"type":"Point","coordinates":[24.2044455,49.9533247]},"id":"node/337539371"}]}