{"type":"FeatureCollection","features":[{"type":"Feature","properties":{"@id":"relation/4632658","admin_level":"9","boundary":"administrative","landuse":"residential","name":"Сопошин","name:uk":"Сопошин","place":"village","type":"boundary","parent_raion":"Жовківська міська громада"},"geometry":{"type":"Polygon","coordinates":[[[23.9817712,50.0452119],[23.9849529,50.0440369],[23.9866809,50.0433987],[23.9878524,50.042966],[23.9885546,50.0429107],[23.9890047,50.0428752],[23.9926425,50.0425886],[23.9920329,50.0401848],[23.9911642,50.0367592],[23.9953928,50.0372389],[23.9958866,50.0383749],[23.9956578,50.0384021],[23.995939,50.0394511],[23.9954307,50.0395728],[23.9955517,50.0401425],[23.9964459,50.0400464],[23.9982241,50.0401525],[23.998394,50.0397641],[24.0000952,50.0398628],[23.9999402,50.0388718],[24.0010141,50.0388153],[24.0011387,50.0392336],[24.0026742,50.0388455],[24.0041602,50.0388977],[24.0040929,50.0377832],[24.0041778,50.0372142],[24.0040634,50.0369581],[24.0040097,50.0366812],[24.0049579,50.0366471],[24.0050924,50.037987],[24.0061829,50.037883],[24.0062245,50.037981],[24.0097792,50.0383279],[24.0105907,50.0375473],[24.0105354,50.0366361],[24.0110691,50.0368265],[24.0115941,50.0368886],[24.0122647,50.0367618],[24.012605,50.0367706],[24.0120146,50.037296],[24.0124533,50.0381136],[24.0117018,50.0382751],[24.0111886,50.0393941],[24.0108955,50.039428],[24.0098577,50.0391988],[24.0076198,50.041128],[24.0086297,50.0424026],[24.0067212,50.0427225],[24.0062496,50.0431409],[24.0057499,50.0433125],[24.0054049,50.0434921],[24.0049211,50.0437608],[24.0047133,50.0436734],[24.0033023,50.0446471],[24.0038186,50.0449813],[24.0054007,50.0483987],[24.0035897,50.0487555],[24.0029491,50.0472316],[24.001988,50.0455943],[24.0005824,50.0463919],[24.0008636,50.0470175],[24.0001117,50.0474163],[23.9991049,50.0471518],[23.9954719,50.0492767],[23.9951667,50.0489988],[23.9941065,50.0473069],[23.9907455,50.0480383],[23.9893978,50.048552],[23.9886798,50.0477947],[23.9863618,50.0453497],[23.9851904,50.0454263],[23.9828691,50.0455906],[23.9817712,50.0452119]]]},"id":"relation/4632658"},{"type":"Feature","properties":{"@id":"relation/7992879","admin_level":"9","boundary":"administrative","name":"Жовква","name:ar":"جوفكفا","name:cs":"Žovkva","name:da":"Zjovkva","name:de":"Schowkwa","name:en":"Zhovkva","name:et":"Žovkva","name:fa":"ژولکفا","name:fi":"Žovkva","name:fr":"Jovkva","name:he":"ז'ובקבה","name:hr":"Žovkva","name:it":"Žovkva","name:ko":"조우크바","name:lv":"Žovkva","name:mk":"Жовква","name:nl":"Zjovkva","name:nn":"Zjovkva","name:no":"Zjovkva","name:pl":"Żółkiew","name:prefix":"місто","name:ro":"Jovkva","name:ru":"Жолква","name:sk":"Žovkva","name:tr":"Jovkva","name:uk":"Жовква","name:zh":"若夫克瓦","old_name:ru":"Нестеров","old_name:uk":"Нестеров","old_name:zh":"若尔克瓦","place":"town","type":"boundary","wikidata":"Q864836","wikipedia":"uk:Жовква","parent_raion":"Жовківська міська громада"},"geometry":{"type":"Polygon","coordinates":[[[23.9411291,50.0615092],[23.9408991,50.0610759],[23.9406715,50.0606469],[23.9392467,50.0608432],[23.9386308,50.0597215],[23.9400444,50.0594933],[23.9395323,50.0571737],[23.9392597,50.0566659],[23.944453,50.0563241],[23.9453645,50.0564401],[23.9476312,50.0562504],[23.9510771,50.0557955],[23.951796,50.0550325],[23.9520406,50.053832],[23.9525075,50.0516327],[23.952374,50.050991],[23.9514494,50.0496703],[23.95587,50.0489895],[23.9611287,50.0481578],[23.9644803,50.0474564],[23.968309,50.046387],[23.9678075,50.0456897],[23.9677681,50.0453633],[23.965807,50.046061],[23.9666786,50.0442889],[23.9667214,50.0442026],[23.9669242,50.0434982],[23.9669408,50.0434407],[23.9671718,50.0426389],[23.9674632,50.0412422],[23.9674464,50.0407668],[23.9676218,50.0401494],[23.9676456,50.0398712],[23.968835,50.0400931],[23.9699812,50.0403602],[23.9698273,50.0410641],[23.9694236,50.0429105],[23.9696475,50.0436167],[23.9700631,50.0433692],[23.9723117,50.0432727],[23.9725809,50.0431567],[23.9753411,50.0431078],[23.9766877,50.0464175],[23.9806891,50.0448386],[23.9817712,50.0452119],[23.9828691,50.0455906],[23.9851904,50.0454263],[23.9863618,50.0453497],[23.9886798,50.0477947],[23.9893978,50.048552],[23.9896865,50.0488708],[23.9903407,50.049591],[23.9913224,50.0506778],[23.9917144,50.05111],[23.9917508,50.0511163],[23.9943074,50.0495978],[23.9963773,50.0522437],[23.9969189,50.0528434],[23.9976455,50.0539167],[24.0003478,50.0534337],[24.0041937,50.0527808],[24.004602,50.0540468],[24.0030896,50.0545357],[24.0021723,50.0546431],[24.0015943,50.0547278],[24.0013779,50.0548156],[24.0012317,50.0549287],[24.0010222,50.0552856],[23.9992992,50.055402],[23.9989967,50.0573766],[24.0003452,50.057413],[23.9988889,50.0581864],[23.9997698,50.0621267],[24.0008771,50.0622591],[24.0008413,50.0633893],[23.9994416,50.0634634],[23.9903461,50.0635392],[23.9869928,50.0633829],[23.9850366,50.0632932],[23.9850112,50.0636276],[23.9848782,50.0636455],[23.9838001,50.0635907],[23.9811541,50.0634562],[23.9798068,50.0633877],[23.9796326,50.0634271],[23.9810674,50.0666405],[23.9818414,50.068374],[23.9814335,50.068571],[23.9813715,50.0686009],[23.9793473,50.0690136],[23.9746523,50.0699737],[23.9720766,50.0705514],[23.9717744,50.0706242],[23.9709083,50.0707594],[23.9671418,50.0714235],[23.9668518,50.0710882],[23.9640479,50.0710694],[23.964045,50.0688819],[23.9637117,50.0659243],[23.9582713,50.0669502],[23.9578759,50.06584],[23.957394,50.0654918],[23.956032,50.0652237],[23.9559993,50.0652173],[23.954253,50.0618512],[23.9507718,50.0644261],[23.9505564,50.0642761],[23.9505022,50.0642362],[23.9504635,50.0640837],[23.9495017,50.0636973],[23.9481492,50.063651],[23.9473033,50.0632737],[23.9467787,50.0629224],[23.9464754,50.0627646],[23.9458044,50.0624021],[23.9449484,50.0618225],[23.9440678,50.0609376],[23.942057,50.0616717],[23.9411291,50.0615092]]]},"id":"relation/7992879"},{"type":"Feature","properties":{"@id":"node/260954473","@relations":[{"role":"admin_centre","rel":7992879,"reltags":{"admin_level":"9","boundary":"administrative","name":"Жовква","name:ar":"جوفكفا","name:cs":"Žovkva","name:da":"Zjovkva","name:de":"Schowkwa","name:en":"Zhovkva","name:et":"Žovkva","name:fa":"ژولکفا","name:fi":"Žovkva","name:fr":"Jovkva","name:he":"ז'ובקבה","name:hr":"Žovkva","name:it":"Žovkva","name:ko":"조우크바","name:lv":"Žovkva","name:mk":"Жовква","name:nl":"Zjovkva","name:nn":"Zjovkva","name:no":"Zjovkva","name:pl":"Żółkiew","name:prefix":"місто","name:ro":"Jovkva","name:ru":"Жолква","name:sk":"Žovkva","name:tr":"Jovkva","name:uk":"Жовква","name:zh":"若夫克瓦","old_name:ru":"Нестеров","old_name:uk":"Нестеров","old_name:zh":"若尔克瓦","place":"town","type":"boundary","wikidata":"Q864836","wikipedia":"uk:Жовква"}}],"parent_raion":"Жовківська міська громада"},"geometry":{"type":"Point","coordinates":[23.9711967,50.056134]},"id":"node/260954473"},{"type":"Feature","properties":{"@id":"node/337536021","@relations":[{"role":"admin_centre","rel":4632658,"reltags":{"admin_level":"9","boundary":"administrative","landuse":"residential","name":"Сопошин","name:uk":"Сопошин","place":"village","type":"boundary"}}],"parent_raion":"Жовківська міська громада"},"geometry":{"type":"Point","coordinates":[23.994091,50.045551]},"id":"node/337536021"}]}