{"type":"FeatureCollection","features":[{"type":"Feature","properties":{"@id":"relation/2834145","admin_level":"9","boundary":"administrative","name":"Знам’янка Друга","name:ar":"زناميانكا دروها","name:crh":"Znamyanka Druga","name:de":"Snamjanka Druha","name:en":"Znamianka Druha","name:fi":"Znamjanka Druha","name:fr":"Znamianka Drouha","name:it":"Znamjanka Druha","name:ko":"즈남’얀카 드루하","name:pl":"Znamianka Druga","name:prefix":"селище міського типу","name:ro":"Znameanka Druha","name:ru":"Знаменка Вторая","name:uk":"Знам’янка Друга","name:uz":"Znamianka Druga","name:zh":"茲納米揚卡德魯加","place":"town","population":"5184","postal_code":"27411","type":"boundary","parent_raion":"Знам'янська міська громада"},"geometry":{"type":"Polygon","coordinates":[[[32.6140151,48.7175028],[32.6134105,48.7182773],[32.6128403,48.7190859],[32.6124966,48.7197913],[32.6120514,48.7200002],[32.6117831,48.7204319],[32.6117992,48.7209026],[32.6116464,48.7210849],[32.6114291,48.7211291],[32.6110858,48.721575],[32.6106382,48.7217206],[32.6107103,48.7222439],[32.6104313,48.7223395],[32.6101348,48.7218844],[32.6095432,48.7220753],[32.6087254,48.722343],[32.6088199,48.7228572],[32.6088327,48.7229269],[32.60174,48.7252089],[32.5989065,48.7261465],[32.5981782,48.7246838],[32.5974967,48.724892],[32.5975321,48.7250413],[32.5974013,48.7252941],[32.5963341,48.7249123],[32.5949466,48.7254987],[32.5936097,48.7260609],[32.5918062,48.7267439],[32.5915377,48.7268345],[32.5913434,48.7269977],[32.5906272,48.7273186],[32.5905184,48.7272372],[32.5899681,48.7268292],[32.5888647,48.7261017],[32.5885763,48.7262088],[32.5882281,48.7263494],[32.5880752,48.7262958],[32.5871883,48.7258344],[32.5865295,48.7255303],[32.5848814,48.724806],[32.5842797,48.7245971],[32.5858669,48.7230235],[32.584564,48.7224381],[32.5844992,48.722313],[32.5843387,48.7220521],[32.5839142,48.7214646],[32.5837087,48.7211657],[32.5834783,48.7208193],[32.5832261,48.7204536],[32.5830988,48.7203404],[32.5829058,48.7201844],[32.5822075,48.7197571],[32.5815912,48.7193932],[32.5801136,48.7187257],[32.5798342,48.718616],[32.5790985,48.7183383],[32.578575,48.7181353],[32.5780268,48.7179066],[32.5774877,48.7176765],[32.5770684,48.7174282],[32.5765589,48.7170618],[32.576265,48.7167421],[32.5760698,48.7165571],[32.5768284,48.7157135],[32.5773159,48.7151366],[32.5775849,48.7148724],[32.5776974,48.7145868],[32.5776871,48.7144292],[32.577374,48.7139619],[32.5763503,48.7127398],[32.5761513,48.7125023],[32.576978,48.7111304],[32.5778005,48.7096336],[32.5786635,48.7081235],[32.5795373,48.706569],[32.5796857,48.7062563],[32.5798798,48.7059026],[32.5805689,48.7046455],[32.5806593,48.7044608],[32.5807696,48.7043041],[32.5808855,48.7041772],[32.581695,48.7036613],[32.5823191,48.7033319],[32.5831221,48.7030258],[32.5849911,48.7023596],[32.5863895,48.7019148],[32.586851,48.7017649],[32.5875948,48.7015351],[32.5881076,48.7014044],[32.5886075,48.7013314],[32.5890198,48.7013339],[32.5892656,48.7013148],[32.5894388,48.7012754],[32.5900757,48.701135],[32.5905446,48.7010316],[32.59083,48.7010104],[32.593074,48.7012978],[32.5934543,48.7013161],[32.5943173,48.7014062],[32.5946848,48.7013722],[32.5950049,48.7013689],[32.5952587,48.7014788],[32.5954151,48.7015769],[32.5956601,48.7016759],[32.5962357,48.7017848],[32.5965857,48.7019839],[32.5967206,48.7020489],[32.5968256,48.702072],[32.5969706,48.7020654],[32.5972908,48.7020258],[32.5976459,48.7020192],[32.5984149,48.7017325],[32.5990197,48.7015071],[32.6006122,48.700905],[32.6014706,48.700622],[32.6019175,48.7014349],[32.6021126,48.7017386],[32.6025778,48.702313],[32.6030594,48.7028923],[32.6042894,48.7044949],[32.6045161,48.7047618],[32.604691,48.7049565],[32.6031565,48.7061524],[32.6042206,48.7075548],[32.6045241,48.7079355],[32.606058,48.7095053],[32.6084867,48.7120981],[32.6106111,48.7141613],[32.612332,48.7158509],[32.6129698,48.7164834],[32.6140151,48.7175028]]]},"id":"relation/2834145"},{"type":"Feature","properties":{"@id":"node/337588363","@relations":[{"role":"admin_centre","rel":2834145,"reltags":{"admin_level":"9","boundary":"administrative","name":"Знам’янка Друга","name:ar":"زناميانكا دروها","name:crh":"Znamyanka Druga","name:de":"Snamjanka Druha","name:en":"Znamianka Druha","name:fi":"Znamjanka Druha","name:fr":"Znamianka Drouha","name:it":"Znamjanka Druha","name:ko":"즈남’얀카 드루하","name:pl":"Znamianka Druga","name:prefix":"селище міського типу","name:ro":"Znameanka Druha","name:ru":"Знаменка Вторая","name:uk":"Знам’янка Друга","name:uz":"Znamianka Druga","name:zh":"茲納米揚卡德魯加","place":"town","population":"5184","postal_code":"27411","type":"boundary"}}],"parent_raion":"Знам'янська міська громада"},"geometry":{"type":"Point","coordinates":[32.5925031,48.7133938]},"id":"node/337588363"}]}