{"type":"FeatureCollection","features":[{"type":"Feature","properties":{"@id":"relation/19058273","admin_level":"10","boundary":"administrative","katotth":"UA74100190520082585","koatuu":"7422085005","name":"Шолойки","name:en":"Sholoiky","name:ko":"숄로이키","name:prefix":"село","name:ru":"Шолойки","name:uk":"Шолойки","official_name":"Шалойки","place":"village","population":"82","postal_code":"17052","type":"boundary","wikidata":"Q6656669","wikipedia":"uk:Шолойки"},"geometry":{"type":"Polygon","coordinates":[[[31.1115217,50.9995238],[31.1111354,50.9987],[31.115781,50.9979776],[31.1142683,50.9943312],[31.1156201,50.9941962],[31.1162316,50.9955062],[31.1174547,50.9960869],[31.1180234,50.9979235],[31.1205339,50.9980451],[31.1205446,50.9992334],[31.1188709,50.9991997],[31.1187636,50.9997803],[31.1172294,50.9997601],[31.1157703,50.9988621],[31.1123156,50.999463],[31.1115217,50.9995238]]]},"id":"relation/19058273"},{"type":"Feature","properties":{"@id":"relation/19058275","admin_level":"10","boundary":"administrative","katotth":"UA74100190370029855","koatuu":"7422085004","name":"Пісоцьке","name:de":"Pissozke","name:en":"Pisotske","name:ko":"피소츠케","name:prefix":"село","name:ru":"Песоцкое","name:uk":"Пісоцьке","official_name":"Песоцьке","place":"village","population":"98","postal_code":"17050","type":"boundary","wikidata":"Q4359830","wikipedia":"uk:Пісоцьке"},"geometry":{"type":"Polygon","coordinates":[[[31.1558112,51.0344452],[31.1547973,51.0332732],[31.1548402,51.0291169],[31.1531236,51.0263638],[31.1584451,51.0222338],[31.1622067,51.0224484],[31.1659124,51.0239884],[31.166642,51.0250141],[31.1650391,51.0280089],[31.1611971,51.0324211],[31.1579141,51.0347016],[31.1558112,51.0344452]]]},"id":"relation/19058275"},{"type":"Feature","properties":{"@id":"relation/19058278","admin_level":"10","boundary":"administrative","katotth":"UA74100190210031963","koatuu":"7422080602","name":"Кривицьке","name:en":"Kryvytske","name:fi":"Kryvytske","name:ko":"크리비츠케","name:prefix":"село","name:ru":"Кривицкое","name:uk":"Кривицьке","official_name":"Кривецьке","place":"hamlet","population":"42","postal_code":"17003","type":"boundary","wikidata":"Q4240701","wikipedia":"uk:Кривицьке"},"geometry":{"type":"Polygon","coordinates":[[[31.0788255,50.9215308],[31.0778556,50.920948],[31.0775648,50.9203608],[31.0779253,50.920275],[31.0775487,50.9198907],[31.0764715,50.9199673],[31.0765831,50.9206854],[31.0756068,50.9207294],[31.0756186,50.9209818],[31.0763042,50.920939],[31.076272,50.9213414],[31.0753783,50.9214621],[31.0754758,50.9210356],[31.0744427,50.921027],[31.0744213,50.9207463],[31.074164,50.9207419],[31.074035,50.9206009],[31.0740189,50.920398],[31.0749684,50.9203269],[31.0749749,50.9206064],[31.0755152,50.9206369],[31.075521,50.9204859],[31.0756538,50.9199806],[31.0749105,50.9199402],[31.074609,50.9195796],[31.0742346,50.9195818],[31.0742228,50.9194578],[31.0736273,50.9194646],[31.0731875,50.9195322],[31.0725437,50.9188119],[31.0725813,50.9186935],[31.0736327,50.9187375],[31.0732518,50.9183892],[31.0743784,50.9177229],[31.0748665,50.918078],[31.0749981,50.9180422],[31.0746198,50.9176891],[31.0754738,50.9173734],[31.0755435,50.9175053],[31.0764061,50.9171683],[31.0765997,50.9175216],[31.0768417,50.9174309],[31.076567,50.9170398],[31.0772065,50.9168594],[31.0771035,50.9166745],[31.0780594,50.9164434],[31.0782633,50.9167917],[31.0785948,50.9167354],[31.0784875,50.9165595],[31.0792986,50.9163859],[31.0795014,50.9168064],[31.079893,50.9167591],[31.0799842,50.9168977],[31.0790078,50.9171412],[31.0792492,50.9174896],[31.0796526,50.9174072],[31.0797428,50.917564],[31.0789913,50.9177387],[31.0790963,50.917843],[31.0791473,50.9179462],[31.0791688,50.9180781],[31.0792455,50.9182222],[31.0797481,50.9181389],[31.0799466,50.9185211],[31.0794857,50.9186401],[31.0795561,50.9187228],[31.0796568,50.9190685],[31.0809283,50.9187882],[31.0809991,50.9188716],[31.0804562,50.9191163],[31.0808425,50.9194578],[31.0806225,50.9196032],[31.0807888,50.9197419],[31.0805099,50.9198738],[31.0810034,50.9202424],[31.0795513,50.921003],[31.0795078,50.9210258],[31.0795861,50.9211574],[31.0788255,50.9215308]]]},"id":"relation/19058278"},{"type":"Feature","properties":{"@id":"relation/19058285","admin_level":"10","boundary":"administrative","katotth":"UA74100190510046881","koatuu":"7422085006","name":"Шапіхи","name:en":"Shapikhy","name:ko":"샤피히","name:prefix":"село","name:ru":"Шапихи","name:uk":"Шапіхи","official_name":"Шапихи","place":"hamlet","population":"44","postal_code":"17052","type":"boundary","wikidata":"Q4520223","wikipedia":"uk:Шапіхи"},"geometry":{"type":"MultiPolygon","coordinates":[[[[31.0870324,50.9949071],[31.0875995,50.9943637],[31.0875563,50.9936905],[31.0865299,50.991467],[31.0840343,50.9910998],[31.0827811,50.9898893],[31.0816252,50.9889713],[31.0815711,50.9883592],[31.0823058,50.9879852],[31.0820789,50.9867951],[31.082954,50.9867135],[31.0826515,50.9882572],[31.0835482,50.9890801],[31.0860585,50.9896176],[31.0851474,50.9906953],[31.0872366,50.9909722],[31.0891058,50.9934933],[31.089043,50.9943535],[31.0876136,50.9958265],[31.0870324,50.9949071]]],[[[31.0818383,50.9876724],[31.0806213,50.9882717],[31.0799959,50.9877499],[31.0803286,50.987461],[31.080991,50.9872049],[31.0813977,50.9871778],[31.0816227,50.9872573],[31.0818383,50.9876724]]]]},"id":"relation/19058285"},{"type":"Feature","properties":{"@id":"node/337512579","@relations":[{"role":"label","rel":19058275,"reltags":{"admin_level":"10","boundary":"administrative","katotth":"UA74100190370029855","koatuu":"7422085004","name":"Пісоцьке","name:de":"Pissozke","name:en":"Pisotske","name:ko":"피소츠케","name:prefix":"село","name:ru":"Песоцкое","name:uk":"Пісоцьке","official_name":"Песоцьке","place":"village","population":"98","postal_code":"17050","type":"boundary","wikidata":"Q4359830","wikipedia":"uk:Пісоцьке"}}]},"geometry":{"type":"Point","coordinates":[31.160999,51.027031]},"id":"node/337512579"},{"type":"Feature","properties":{"@id":"node/337512902","@relations":[{"role":"label","rel":19058273,"reltags":{"admin_level":"10","boundary":"administrative","katotth":"UA74100190520082585","koatuu":"7422085005","name":"Шолойки","name:en":"Sholoiky","name:ko":"숄로이키","name:prefix":"село","name:ru":"Шолойки","name:uk":"Шолойки","official_name":"Шалойки","place":"village","population":"82","postal_code":"17052","type":"boundary","wikidata":"Q6656669","wikipedia":"uk:Шолойки"}}]},"geometry":{"type":"Point","coordinates":[31.11706,50.998192]},"id":"node/337512902"},{"type":"Feature","properties":{"@id":"node/337513985","@relations":[{"role":"label","rel":19058278,"reltags":{"admin_level":"10","boundary":"administrative","katotth":"UA74100190210031963","koatuu":"7422080602","name":"Кривицьке","name:en":"Kryvytske","name:fi":"Kryvytske","name:ko":"크리비츠케","name:prefix":"село","name:ru":"Кривицкое","name:uk":"Кривицьке","official_name":"Кривецьке","place":"hamlet","population":"42","postal_code":"17003","type":"boundary","wikidata":"Q4240701","wikipedia":"uk:Кривицьке"}}]},"geometry":{"type":"Point","coordinates":[31.076359,50.918873]},"id":"node/337513985"},{"type":"Feature","properties":{"@id":"node/1969611997","@relations":[{"role":"label","rel":19058285,"reltags":{"admin_level":"10","boundary":"administrative","katotth":"UA74100190510046881","koatuu":"7422085006","name":"Шапіхи","name:en":"Shapikhy","name:ko":"샤피히","name:prefix":"село","name:ru":"Шапихи","name:uk":"Шапіхи","official_name":"Шапихи","place":"hamlet","population":"44","postal_code":"17052","type":"boundary","wikidata":"Q4520223","wikipedia":"uk:Шапіхи"}}]},"geometry":{"type":"Point","coordinates":[31.083443,50.990337]},"id":"node/1969611997"}]}