{"type":"FeatureCollection","features":[{"type":"Feature","properties":{"@id":"relation/3586179","admin_level":"10","boundary":"administrative","katotth":"UA14020090150024401","koatuu":"1420988002","name":"Краснополівка","name:be":"Чырвонаполле","name:en":"Krasnopolivka","name:ko":"크라스노폴리우카","name:prefix":"село","name:ru":"Краснополевка","name:uk":"Краснополівка","official_name":"Краснопілля","place":"hamlet","population":"33","postal_code":"84540","type":"boundary","wikidata":"Q4238926","wikipedia":"uk:Краснополівка"},"geometry":{"type":"Polygon","coordinates":[[[38.04342,48.73604],[38.04085,48.7326],[38.0451062,48.7303211],[38.0416617,48.7270735],[38.0448191,48.7263149],[38.0456844,48.7276848],[38.0503116,48.7269257],[38.0508761,48.7280272],[38.0526283,48.7277704],[38.0555371,48.7314907],[38.04342,48.73604]]]},"id":"relation/3586179"},{"type":"Feature","properties":{"@id":"relation/3936702","admin_level":"10","boundary":"administrative","katotth":"UA14020090010053316","koatuu":"1420910800","name":"Соледар","name:ar":"سوليدار","name:be":"Салэдар","name:de":"Soledar","name:en":"Soledar","name:es":"Soledar","name:fa":"سولدار","name:fi":"Soledar","name:fr":"Soledar","name:hr":"Soledar","name:hu":"Szoledar","name:hy":"Սոլեդար","name:it":"Soledar","name:ja":"ソレダル","name:ka":"სოლედარი","name:ko":"솔레다르","name:ml":"സല്യേദാർ","name:nn":"Soledar","name:pl":"Sołedar","name:prefix":"місто","name:pt":"Sołedar","name:ro":"Soledar","name:ru":"Соледар","name:sr":"Соледар","name:uk":"Соледар","name:uz":"Soledar","name:vi":"Soledar","name:zh":"索萊達爾","old_name":"Карло-Лібкнехтівськ;Карло-Лібкнехтове;Брянцівка","old_name:fr":"Karlo-Libknekhtovsk;Karlo-Libknekhtivsk;Bryantsevka","old_name:ru":"Карло-Либкнехтовск;Карло-Либкнехтово;Брянцевка","old_name:uk":"Карло-Лібкнехтівськ;Карло-Лібкнехтове;Брянцівка","place":"town","population":"11898","postal_code":"84545-84548","type":"boundary","wikidata":"Q2399843","wikipedia":"uk:Соледар"},"geometry":{"type":"Polygon","coordinates":[[[38.0265118,48.7283628],[38.0252398,48.7265428],[38.0262575,48.7249251],[38.0280101,48.7235599],[38.0284608,48.7225644],[38.0302787,48.7215328],[38.0313756,48.7205903],[38.0301879,48.718772],[38.0278527,48.7168013],[38.026847,48.7167452],[38.025856,48.7159279],[38.0257287,48.7150703],[38.0263522,48.7138037],[38.0290656,48.7135634],[38.0281983,48.7105375],[38.0314536,48.7100264],[38.0262497,48.7064105],[38.0217118,48.7067988],[38.0212096,48.703121],[38.0207021,48.7012247],[38.0166541,48.6962639],[38.0180779,48.6956703],[38.0185345,48.6956026],[38.0190056,48.6955618],[38.0233125,48.6963291],[38.0242084,48.6965145],[38.0247756,48.696588],[38.0251812,48.6954754],[38.0255317,48.6940355],[38.025828,48.6936221],[38.0260936,48.6934407],[38.026523,48.6932973],[38.0269943,48.6932036],[38.0275248,48.6931503],[38.0293165,48.6930243],[38.0306604,48.6929367],[38.0338901,48.6919183],[38.0355668,48.6927331],[38.0365414,48.693129],[38.0376808,48.6934259],[38.0388503,48.6936139],[38.0399448,48.6937921],[38.0411742,48.6937723],[38.0430033,48.6935546],[38.0445326,48.6932676],[38.045852,48.6929311],[38.0473213,48.6922581],[38.0487007,48.6914861],[38.0494953,48.6908131],[38.050185,48.6895858],[38.0509796,48.6884179],[38.0518792,48.6870916],[38.0523889,48.6863889],[38.054248,48.6850823],[38.056437,48.6843498],[38.0585009,48.6839464],[38.0591208,48.6838252],[38.0622693,48.6837361],[38.0651629,48.6838054],[38.0681615,48.6835877],[38.0702755,48.6835481],[38.0720447,48.683063],[38.073454,48.6825681],[38.0748334,48.6818059],[38.075598,48.6813208],[38.075688,48.6808754],[38.075583,48.6799448],[38.0760778,48.679341],[38.077697,48.6782619],[38.0785691,48.6780281],[38.0809577,48.6763073],[38.0824301,48.6749165],[38.0836025,48.6738946],[38.0863115,48.6712878],[38.0873313,48.6698557],[38.0886264,48.6705599],[38.0904059,48.6688309],[38.0921427,48.6671039],[38.0919629,48.6669279],[38.0937937,48.6656179],[38.0953232,48.6667868],[38.0960415,48.6664223],[38.1004723,48.6657321],[38.1011873,48.6656964],[38.1026218,48.6677296],[38.1043918,48.6672427],[38.1091534,48.6652035],[38.1092143,48.6652528],[38.1096023,48.6655511],[38.1112166,48.664871],[38.1139215,48.6640094],[38.1177244,48.6633244],[38.11986,48.6684326],[38.1192045,48.6685521],[38.1201797,48.6706186],[38.1223912,48.6699304],[38.1243687,48.6699513],[38.1276169,48.669009],[38.1311935,48.6685946],[38.1334425,48.6701397],[38.135179,48.670383],[38.1352245,48.6682973],[38.1374899,48.668502],[38.1379141,48.6692058],[38.1392489,48.6692192],[38.1386965,48.6737612],[38.1386291,48.6743152],[38.1185719,48.6761103],[38.1205992,48.6791573],[38.1159982,48.6801388],[38.1096047,48.6815054],[38.1114407,48.6833905],[38.0988913,48.6865563],[38.0962737,48.6835603],[38.0916751,48.6849465],[38.0891325,48.6860557],[38.0880272,48.6842589],[38.083521,48.686697],[38.0864814,48.6919703],[38.0874559,48.6942367],[38.0882794,48.6961235],[38.088953,48.6979449],[38.0810954,48.6993254],[38.0807066,48.6984409],[38.0799115,48.6976782],[38.0775262,48.6970694],[38.0755331,48.6963977],[38.0754376,48.6958588],[38.0718119,48.695453],[38.0717925,48.7037966],[38.0723381,48.7061177],[38.0737776,48.7095543],[38.0693872,48.7104987],[38.0686746,48.7089186],[38.0653427,48.7092867],[38.0658182,48.7104578],[38.0502513,48.7138416],[38.0430654,48.7154036],[38.0438615,48.7179798],[38.0446484,48.7191522],[38.0455244,48.7200683],[38.0459788,48.720731],[38.0465278,48.7214995],[38.0391798,48.7236047],[38.0394198,48.7246323],[38.035212,48.7265327],[38.0320263,48.7272471],[38.0289627,48.7279097],[38.0265118,48.7283628]]]},"id":"relation/3936702"},{"type":"Feature","properties":{"@id":"node/256613683","@relations":[{"role":"label","rel":3936702,"reltags":{"admin_level":"10","boundary":"administrative","katotth":"UA14020090010053316","koatuu":"1420910800","name":"Соледар","name:ar":"سوليدار","name:be":"Салэдар","name:de":"Soledar","name:en":"Soledar","name:es":"Soledar","name:fa":"سولدار","name:fi":"Soledar","name:fr":"Soledar","name:hr":"Soledar","name:hu":"Szoledar","name:hy":"Սոլեդար","name:it":"Soledar","name:ja":"ソレダル","name:ka":"სოლედარი","name:ko":"솔레다르","name:ml":"സല്യേദാർ","name:nn":"Soledar","name:pl":"Sołedar","name:prefix":"місто","name:pt":"Sołedar","name:ro":"Soledar","name:ru":"Соледар","name:sr":"Соледар","name:uk":"Соледар","name:uz":"Soledar","name:vi":"Soledar","name:zh":"索萊達爾","old_name":"Карло-Лібкнехтівськ;Карло-Лібкнехтове;Брянцівка","old_name:fr":"Karlo-Libknekhtovsk;Karlo-Libknekhtivsk;Bryantsevka","old_name:ru":"Карло-Либкнехтовск;Карло-Либкнехтово;Брянцевка","old_name:uk":"Карло-Лібкнехтівськ;Карло-Лібкнехтове;Брянцівка","place":"town","population":"11898","postal_code":"84545-84548","type":"boundary","wikidata":"Q2399843","wikipedia":"uk:Соледар"}}]},"geometry":{"type":"Point","coordinates":[38.0671791,48.6956698]},"id":"node/256613683"},{"type":"Feature","properties":{"@id":"node/256614709","@relations":[{"role":"label","rel":3586179,"reltags":{"admin_level":"10","boundary":"administrative","katotth":"UA14020090150024401","koatuu":"1420988002","name":"Краснополівка","name:be":"Чырвонаполле","name:en":"Krasnopolivka","name:ko":"크라스노폴리우카","name:prefix":"село","name:ru":"Краснополевка","name:uk":"Краснополівка","official_name":"Краснопілля","place":"hamlet","population":"33","postal_code":"84540","type":"boundary","wikidata":"Q4238926","wikipedia":"uk:Краснополівка"}}]},"geometry":{"type":"Point","coordinates":[38.0512144,48.7303635]},"id":"node/256614709"}]}