{"type":"FeatureCollection","features":[{"type":"Feature","properties":{"@id":"relation/3939516","admin_level":"10","boundary":"administrative","name":"Молодий Шахтар","name:en":"Molodyi Shakhtar","name:ko":"몰로디 샤흐타르","name:prefix":"селище","name:ru":"Молодой Шахтёр","name:uk":"Молодий Шахтар","place":"village","population":"132","postal_code":"86391","type":"boundary"},"geometry":{"type":"Polygon","coordinates":[[[38.2480869,48.1074875],[38.2462299,48.1076891],[38.2396424,48.1021152],[38.2387802,48.1005124],[38.2532883,48.101195],[38.2533738,48.1024549],[38.2558871,48.1022746],[38.2559522,48.1038011],[38.2556552,48.1040819],[38.2548559,48.1042359],[38.2536113,48.1042718],[38.2531392,48.1050097],[38.2525763,48.1055339],[38.2519805,48.1064497],[38.2518625,48.1070228],[38.2519698,48.1079255],[38.2500815,48.1080007],[38.2497871,48.1072165],[38.2480869,48.1074875]]]},"id":"relation/3939516"},{"type":"Feature","properties":{"@id":"node/256613884","@relations":[{"role":"label","rel":3939516,"reltags":{"admin_level":"10","boundary":"administrative","name":"Молодий Шахтар","name:en":"Molodyi Shakhtar","name:ko":"몰로디 샤흐타르","name:prefix":"селище","name:ru":"Молодой Шахтёр","name:uk":"Молодий Шахтар","place":"village","population":"132","postal_code":"86391","type":"boundary"}}]},"geometry":{"type":"Point","coordinates":[38.24744,48.10312]},"id":"node/256613884"}]}