{"type":"FeatureCollection","features":[{"type":"Feature","properties":{"@id":"relation/3811862","admin_level":"9","boundary":"administrative","name":"Узин","name:ar":"يوزين","name:en":"Uzyn","name:eo":"Uzin","name:es":"Uzín","name:et":"Uzõn","name:fa":"اوزین","name:fr":"Ouzyn","name:id":"Uzyn","name:it":"Uzyn","name:ko":"우진","name:lv":"Uzina","name:pl":"Uzyn","name:prefix":"місто","name:ro":"Uzîn","name:ru":"Узин","name:tr":"Uzın","name:uk":"Узин","name:zh":"烏津","old_postal_code":"09162;09163","place":"town","population":"12166","postal_code":"09161","type":"boundary","wikidata":"Q70592","wikipedia":"uk:Узин"},"geometry":{"type":"Polygon","coordinates":[[[30.4451743,49.8620802],[30.4430876,49.8610024],[30.4428468,49.8611145],[30.441536,49.8621406],[30.4412417,49.8622009],[30.4405997,49.8617612],[30.4404659,49.8614853],[30.4416965,49.8608299],[30.4370149,49.8585793],[30.4348212,49.8572168],[30.4346607,49.8571565],[30.4342752,49.8567862],[30.431386,49.8531728],[30.4304497,49.8510943],[30.4288312,49.848343],[30.4282025,49.8471873],[30.4265439,49.8445478],[30.4262763,49.8442028],[30.4258859,49.8437731],[30.4209429,49.8374624],[30.4204398,49.8368946],[30.4157861,49.8341688],[30.4151824,49.8347205],[30.4131952,49.8359535],[30.4123651,49.8356128],[30.4115601,49.8361807],[30.4035357,49.8321407],[30.4033344,49.8321974],[30.4041438,49.8314601],[30.4038457,49.8313024],[30.4039568,49.83115],[30.4023204,49.8303239],[30.3986763,49.8292903],[30.3980123,49.8290919],[30.3952553,49.828268],[30.3926643,49.8275216],[30.3915323,49.8273431],[30.3912305,49.8277569],[30.3902243,49.8276189],[30.3898292,49.8274783],[30.3899737,49.8269502],[30.3862553,49.8239228],[30.3843029,49.8191186],[30.3843263,49.8179075],[30.3855068,49.8170872],[30.3805123,49.8123702],[30.3791956,49.8117257],[30.366437,49.8072719],[30.3584662,49.8040626],[30.3546778,49.80083],[30.349284,49.798509],[30.3515314,49.7963279],[30.3575352,49.7972605],[30.3611631,49.8004105],[30.3636674,49.8016331],[30.3683548,49.8021305],[30.3697675,49.8031873],[30.3711159,49.8049071],[30.3706985,49.8054459],[30.3750007,49.8063368],[30.3800092,49.8078079],[30.3805871,49.8084502],[30.3830272,49.8087196],[30.3841187,49.8095069],[30.3895767,49.806399],[30.392402,49.805135],[30.3945531,49.8028764],[30.3973064,49.8044477],[30.4029025,49.8082336],[30.4061654,49.8044704],[30.4182204,49.8103848],[30.4177819,49.8057269],[30.4183721,49.8040566],[30.4347177,49.8064888],[30.4444752,49.8073219],[30.4453956,49.8074005],[30.4468725,49.8077734],[30.4491841,49.8103012],[30.4590727,49.8078906],[30.4583342,49.8103355],[30.4684476,49.8113714],[30.4671633,49.815722],[30.4649159,49.8156391],[30.463728,49.8183322],[30.4648838,49.8184564],[30.4585269,49.8232414],[30.45949,49.8236349],[30.4579811,49.8250019],[30.4587332,49.8257395],[30.459115,49.8259636],[30.4695304,49.8325393],[30.4691194,49.8330787],[30.4694041,49.8332738],[30.4754493,49.8369588],[30.470216,49.8398991],[30.4672367,49.8410307],[30.4603352,49.8374582],[30.4552045,49.8338268],[30.4487571,49.829873],[30.4401302,49.8353497],[30.4463052,49.8389809],[30.4498014,49.8407086],[30.4406297,49.8467403],[30.4415832,49.8491411],[30.445488,49.8525078],[30.4518446,49.8545862],[30.4558457,49.8568401],[30.4519769,49.8592617],[30.4502593,49.8596757],[30.4490553,49.8603173],[30.4489107,49.8609634],[30.4486674,49.8610747],[30.446941,49.8624962],[30.4466247,49.8628093],[30.445492,49.8622617],[30.4451743,49.8620802]]]},"id":"relation/3811862"},{"type":"Feature","properties":{"@id":"node/337543666","@relations":[{"role":"admin_centre","rel":3811862,"reltags":{"admin_level":"9","boundary":"administrative","name":"Узин","name:ar":"يوزين","name:en":"Uzyn","name:eo":"Uzin","name:es":"Uzín","name:et":"Uzõn","name:fa":"اوزین","name:fr":"Ouzyn","name:id":"Uzyn","name:it":"Uzyn","name:ko":"우진","name:lv":"Uzina","name:pl":"Uzyn","name:prefix":"місто","name:ro":"Uzîn","name:ru":"Узин","name:tr":"Uzın","name:uk":"Узин","name:zh":"烏津","old_postal_code":"09162;09163","place":"town","population":"12166","postal_code":"09161","type":"boundary","wikidata":"Q70592","wikipedia":"uk:Узин"}}]},"geometry":{"type":"Point","coordinates":[30.4197205,49.8284745]},"id":"node/337543666"}]}