{"type":"FeatureCollection","features":[{"type":"Feature","properties":{"@id":"relation/1754752","addr:city":"Коцюбинське","addr:postcode":"08298","addr:region":"Київська область","admin_level":"9","boundary":"administrative","name":"Коцюбинське","name:en":"Kotsiubynske","name:fr":"Kotsiubynske","name:pl":"Kociubynśke","name:ru":"Коцюбинское","name:uk":"Коцюбинське","name:zh":"科秋宾斯克","name:zh-Hans":"科秋宾斯克","name:zh-Hant":"科秋賓斯克","old_name":"Берковець","place":"town","type":"boundary","wikidata":"Q2026969","wikipedia":"uk:Коцюбинське"},"geometry":{"type":"Polygon","coordinates":[[[30.3412337,50.4856343],[30.3423755,50.48672],[30.343871,50.4864702],[30.3439148,50.4865745],[30.3442654,50.4874087],[30.3456131,50.4872018],[30.3452356,50.4862206],[30.3480512,50.4858839],[30.3490673,50.4888667],[30.3460501,50.4893765],[30.3447733,50.4914239],[30.3448584,50.4917551],[30.3450464,50.4918683],[30.3455928,50.4917724],[30.3457194,50.4919843],[30.3463874,50.4941189],[30.3454349,50.4986686],[30.3438822,50.4986739],[30.3437249,50.4978927],[30.3420723,50.497582],[30.3411584,50.4976411],[30.3409555,50.496281],[30.3400118,50.496718],[30.3397697,50.4975194],[30.3402999,50.4982353],[30.3399804,50.4982664],[30.339423,50.4982818],[30.3393085,50.4977316],[30.3391863,50.4975445],[30.339087,50.4971719],[30.339023,50.4965585],[30.3372261,50.4964473],[30.3371073,50.49434],[30.3346981,50.4945651],[30.3348744,50.4934469],[30.3347186,50.4933586],[30.3274751,50.4928585],[30.3251978,50.4926696],[30.3200434,50.4951649],[30.3195999,50.4957565],[30.3193493,50.4958711],[30.319134,50.4956938],[30.3189937,50.4955505],[30.3189677,50.495524],[30.3187612,50.4952676],[30.3187137,50.4952274],[30.318681,50.4951989],[30.3185865,50.4951167],[30.3185278,50.4950656],[30.3183778,50.4948883],[30.3180236,50.4945204],[30.3179933,50.4944856],[30.31774,50.4941914],[30.3176662,50.4940556],[30.3173721,50.4920087],[30.3175191,50.4915384],[30.3181471,50.4916186],[30.3188123,50.4906493],[30.3190099,50.4906104],[30.3200087,50.4906504],[30.3204114,50.4887668],[30.3206902,50.4877078],[30.3207722,50.4873964],[30.3208492,50.4871039],[30.320894,50.4869339],[30.320873,50.4867039],[30.3218489,50.4864334],[30.3223032,50.4863062],[30.3225608,50.4862364],[30.3227162,50.4861879],[30.3241226,50.485779],[30.324544,50.4856803],[30.3248263,50.4855907],[30.3250541,50.4855183],[30.3263533,50.4851169],[30.326754,50.4848574],[30.3272676,50.4847072],[30.3279311,50.4845949],[30.33131,50.483999],[30.3330052,50.4838352],[30.3363696,50.4832251],[30.3364941,50.4839525],[30.3367174,50.4846714],[30.3372251,50.4851062],[30.3373122,50.485173],[30.3402183,50.4838326],[30.3402556,50.4834651],[30.3413411,50.4829673],[30.3437004,50.4834799],[30.3442686,50.4840177],[30.3418836,50.4850852],[30.3412337,50.4856343]]]},"id":"relation/1754752"},{"type":"Feature","properties":{"@id":"node/337520861","@relations":[{"role":"admin_centre","rel":1754752,"reltags":{"addr:city":"Коцюбинське","addr:postcode":"08298","addr:region":"Київська область","admin_level":"9","boundary":"administrative","name":"Коцюбинське","name:en":"Kotsiubynske","name:fr":"Kotsiubynske","name:pl":"Kociubynśke","name:ru":"Коцюбинское","name:uk":"Коцюбинське","name:zh":"科秋宾斯克","name:zh-Hans":"科秋宾斯克","name:zh-Hant":"科秋賓斯克","old_name":"Берковець","place":"town","type":"boundary","wikidata":"Q2026969","wikipedia":"uk:Коцюбинське"}}]},"geometry":{"type":"Point","coordinates":[30.3337903,50.4904717]},"id":"node/337520861"}]}