{"type":"FeatureCollection","features":[{"type":"Feature","properties":{"@id":"relation/2521435","admin_level":"9","boundary":"administrative","name":"Рубіжне","name:bg":"Рубижне","name:crh":"Rubijne","name:cs":"Rubižne","name:de":"Rubischne","name:en":"Rubizhne","name:es":"Rubizhne","name:fa":"روبیژنه","name:fr":"Roubijne","name:hr":"Rubižne","name:ja":"ルビージュネ","name:nn":"Rubizjne","name:pl":"Rubiżne","name:ro":"Rubijne","name:ru":"Рубежное","name:rue":"Рубіжне","name:sr":"Рубижне","name:uk":"Рубіжне","name:vi":"Rubizhne","name:zh":"魯比日內","place":"town","type":"boundary","wikidata":"Q922375","wikipedia":"uk:Рубіжне"},"geometry":{"type":"Polygon","coordinates":[[[38.3609319,48.9963395],[38.3618619,48.9958054],[38.3696136,49.0009537],[38.3730707,49.0014179],[38.3751502,48.9999542],[38.375985,48.9995839],[38.3802303,48.9976869],[38.3872718,48.9931152],[38.3886208,48.9921944],[38.3896616,48.9913435],[38.3907966,48.9901718],[38.3919728,48.9885839],[38.3963195,48.9827023],[38.3981109,48.9802177],[38.3988021,48.9793485],[38.3994086,48.9782431],[38.3963359,48.977912],[38.3984466,48.9763533],[38.3973218,48.9752173],[38.3954749,48.97403],[38.3982045,48.9718634],[38.4045221,48.9702886],[38.4075522,48.9719671],[38.4080681,48.9735203],[38.4078535,48.9746024],[38.4075102,48.9767323],[38.4082904,48.9792107],[38.4095307,48.9819198],[38.4150637,48.9820002],[38.4168041,48.9839756],[38.4193126,48.9830819],[38.4198558,48.9836504],[38.4201717,48.9841489],[38.4236879,48.9840392],[38.4271465,48.9872675],[38.4315761,48.9921684],[38.4334772,48.9944038],[38.4353577,48.9960003],[38.4353347,48.998091],[38.4367485,49.000053],[38.4370109,49.002941],[38.4330569,49.0047773],[38.4307569,49.0047232],[38.4251705,49.006758],[38.4237982,49.0093579],[38.4220319,49.0137162],[38.4185276,49.0157042],[38.4155971,49.0226948],[38.4129999,49.0341806],[38.4127041,49.0347121],[38.4115113,49.0352199],[38.4019302,49.0390831],[38.3921602,49.0430338],[38.3679918,49.0528219],[38.364116,49.0533573],[38.3593579,49.0538769],[38.3581298,49.0542694],[38.3549032,49.0550318],[38.3546611,49.0525429],[38.3536453,49.0436452],[38.3511939,49.0311534],[38.345496,49.0319206],[38.3425865,49.0321716],[38.3400624,49.0323893],[38.3390122,49.0322902],[38.3362846,49.0324104],[38.3351569,49.0323183],[38.3341652,49.0317986],[38.3333283,49.0310658],[38.3329985,49.0265102],[38.3330142,49.0258709],[38.3330523,49.0252639],[38.3332372,49.0245534],[38.3339864,49.0233834],[38.334729,49.0223548],[38.3356072,49.0209932],[38.3367733,49.0192081],[38.3377726,49.0176827],[38.3397699,49.014543],[38.3411921,49.0122576],[38.3438326,49.0085428],[38.3450478,49.007638],[38.3458699,49.0072612],[38.3510609,49.0059383],[38.3553119,49.0061088],[38.3568626,49.0063401],[38.3578807,49.0057082],[38.357811,49.0053286],[38.3587846,49.0051471],[38.3586841,49.0036318],[38.3584521,48.999118],[38.3589179,48.9989127],[38.3605592,48.9980875],[38.3609319,48.9963395]]]},"id":"relation/2521435"},{"type":"Feature","properties":{"@id":"relation/4718910","admin_level":"9","boundary":"administrative","koatuu":"4421682601","name":"Михайлівка","name:en":"Mykhailivka","name:prefix":"село","name:ru":"Михайловка","name:uk":"Михайлівка","place":"village","population":"593","postal_code":"92941","type":"boundary","wikidata":"Q4297550","wikipedia":"uk:Михайлівка (Кремінський район)","wikipedia:ru":"Михайловка (Кременский район)"},"geometry":{"type":"Polygon","coordinates":[[[38.5654235,49.0917568],[38.5660887,49.0917006],[38.5680628,49.0916303],[38.5682645,49.0916699],[38.5677194,49.0922907],[38.5672903,49.0939066],[38.5675692,49.0948761],[38.5679984,49.0950026],[38.5680413,49.0955505],[38.5677409,49.0968994],[38.5675156,49.0972647],[38.5671401,49.0974403],[38.5669041,49.097644],[38.566153,49.099063],[38.566153,49.0994705],[38.5663676,49.0997936],[38.5669148,49.1002151],[38.5670757,49.1003556],[38.5674405,49.1005382],[38.5693717,49.1008332],[38.5703051,49.1009175],[38.571496,49.1013671],[38.5719037,49.1016481],[38.572247,49.1022381],[38.5729551,49.1037975],[38.5734486,49.1045701],[38.5738563,49.1049494],[38.574028,49.105427],[38.5743284,49.1055675],[38.5745215,49.1059608],[38.5745859,49.1064806],[38.5740816,49.1076465],[38.5740924,49.1077589],[38.5743284,49.1079134],[38.5742426,49.1082786],[38.5743928,49.1087],[38.5740709,49.1092198],[38.574028,49.1106946],[38.5740495,49.1109756],[38.5729337,49.1113829],[38.5724401,49.1117902],[38.5719895,49.1117902],[38.5717749,49.111411],[38.5711205,49.1117059],[38.5711527,49.1117797],[38.5708684,49.1119026],[38.5708093,49.1118604],[38.5694361,49.1126611],[38.5689425,49.1128577],[38.5676122,49.1137355],[38.567419,49.1139673],[38.5658741,49.1146415],[38.5647797,49.1148802],[38.5644793,49.115119],[38.5612821,49.1164111],[38.5614323,49.1167622],[38.5613036,49.1172538],[38.5609817,49.1175206],[38.5602736,49.1175627],[38.5559392,49.11797],[38.5528707,49.1184194],[38.5518193,49.1185318],[38.5510039,49.1167201],[38.5510254,49.1158353],[38.551948,49.1156246],[38.5529566,49.1156106],[38.5526347,49.1147679],[38.5531962,49.1145389],[38.5528658,49.1140243],[38.5527597,49.113455],[38.5523321,49.1126006],[38.5543678,49.1123457],[38.5558483,49.1126292],[38.5592172,49.1114375],[38.5600999,49.1119996],[38.5667694,49.1084056],[38.5658725,49.107914],[38.5663282,49.1073522],[38.5668204,49.1073494],[38.5665178,49.1061435],[38.5662174,49.1053849],[38.5662174,49.1047387],[38.5652947,49.103376],[38.5642218,49.1023224],[38.5637069,49.1017745],[38.5634708,49.1013109],[38.5625911,49.1010159],[38.5627627,49.1007208],[38.5637283,49.1009456],[38.5643291,49.1008894],[38.5642648,49.1006646],[38.564372,49.0999481],[38.5646939,49.0995267],[38.5652947,49.0990349],[38.5655951,49.0982622],[38.5658526,49.0969134],[38.5660243,49.0967308],[38.5658097,49.094848],[38.5655522,49.0946091],[38.5654235,49.0917568]]]},"id":"relation/4718910"},{"type":"Feature","properties":{"@id":"relation/13654878","admin_level":"9","boundary":"administrative","name":"Скаргівка","name:uk":"Скаргівка","type":"boundary","wikidata":"Q4421585","wikipedia":"uk:Скаргівка"},"geometry":{"type":"Polygon","coordinates":[[[38.5120753,49.1935701],[38.51429,49.1966],[38.50004,49.20261],[38.50107,49.2112],[38.4985,49.21308],[38.49335,49.216],[38.4839,49.21085],[38.47189,49.21858],[38.4693759,49.216904],[38.4688,49.21652],[38.47996,49.20622],[38.49146,49.20244],[38.48957,49.20004],[38.49283,49.19866],[38.49438,49.20004],[38.4985,49.19884],[38.5120753,49.1935701]]]},"id":"relation/13654878"},{"type":"Feature","properties":{"@id":"relation/13654879","admin_level":"9","boundary":"administrative","name":"Прогрес","name:uk":"Прогрес","type":"boundary","wikidata":"Q4379801","wikipedia":"uk:Прогрес (Сєвєродонецький район)"},"geometry":{"type":"Polygon","coordinates":[[[38.5120753,49.1935701],[38.51103,49.19214],[38.52836,49.18665],[38.5306,49.18991],[38.51875,49.19454],[38.51961,49.19626],[38.5169904,49.1968693],[38.51566,49.19626],[38.51429,49.1966],[38.5120753,49.1935701]]]},"id":"relation/13654879"},{"type":"Feature","properties":{"@id":"node/337567545","@relations":[{"role":"label","rel":13654878,"reltags":{"admin_level":"9","boundary":"administrative","name":"Скаргівка","name:uk":"Скаргівка","type":"boundary","wikidata":"Q4421585","wikipedia":"uk:Скаргівка"}}]},"geometry":{"type":"Point","coordinates":[38.492321,49.20364]},"id":"node/337567545"},{"type":"Feature","properties":{"@id":"node/337567929","@relations":[{"role":"label","rel":13654879,"reltags":{"admin_level":"9","boundary":"administrative","name":"Прогрес","name:uk":"Прогрес","type":"boundary","wikidata":"Q4379801","wikipedia":"uk:Прогрес (Сєвєродонецький район)"}}]},"geometry":{"type":"Point","coordinates":[38.52047,49.19231]},"id":"node/337567929"},{"type":"Feature","properties":{"@id":"node/337571755","@relations":[{"role":"label","rel":4718910,"reltags":{"admin_level":"9","boundary":"administrative","koatuu":"4421682601","name":"Михайлівка","name:en":"Mykhailivka","name:prefix":"село","name:ru":"Михайловка","name:uk":"Михайлівка","place":"village","population":"593","postal_code":"92941","type":"boundary","wikidata":"Q4297550","wikipedia":"uk:Михайлівка (Кремінський район)","wikipedia:ru":"Михайловка (Кременский район)"}}]},"geometry":{"type":"Point","coordinates":[38.56922,49.10751]},"id":"node/337571755"},{"type":"Feature","properties":{"@id":"node/337576644","@relations":[{"role":"label","rel":2521435,"reltags":{"admin_level":"9","boundary":"administrative","name":"Рубіжне","name:bg":"Рубижне","name:crh":"Rubijne","name:cs":"Rubižne","name:de":"Rubischne","name:en":"Rubizhne","name:es":"Rubizhne","name:fa":"روبیژنه","name:fr":"Roubijne","name:hr":"Rubižne","name:ja":"ルビージュネ","name:nn":"Rubizjne","name:pl":"Rubiżne","name:ro":"Rubijne","name:ru":"Рубежное","name:rue":"Рубіжне","name:sr":"Рубижне","name:uk":"Рубіжне","name:vi":"Rubizhne","name:zh":"魯比日內","place":"town","type":"boundary","wikidata":"Q922375","wikipedia":"uk:Рубіжне"}}]},"geometry":{"type":"Point","coordinates":[38.3725819,49.0329045]},"id":"node/337576644"},{"type":"Feature","properties":{"@id":"relation/17935315","admin_level":"10","boundary":"administrative","katotth":"UA44120090100048059","koatuu":"4421681903","name":"Півневе","name:en":"Pivneve","name:ko":"피우네베","name:prefix":"село","name:ru":"Пивневое","name:uk":"Півневе","old_name":"Індустріальне","old_name:en":"Industrialne","old_name:ru":"Индустриальное","old_name:uk":"Індустріальне","place":"village","population":"74","postal_code":"92930","type":"boundary","wikipedia":"uk:Півневе"},"geometry":{"type":"Polygon","coordinates":[[[38.42846,49.15832],[38.42914,49.15592],[38.43223,49.15386],[38.45095,49.15455],[38.45386,49.16004],[38.44597,49.16004],[38.44545,49.15832],[38.42846,49.15832]]]},"id":"relation/17935315"},{"type":"Feature","properties":{"@id":"node/337569561","@relations":[{"role":"label","rel":17935315,"reltags":{"admin_level":"10","boundary":"administrative","katotth":"UA44120090100048059","koatuu":"4421681903","name":"Півневе","name:en":"Pivneve","name:ko":"피우네베","name:prefix":"село","name:ru":"Пивневое","name:uk":"Півневе","old_name":"Індустріальне","old_name:en":"Industrialne","old_name:ru":"Индустриальное","old_name:uk":"Індустріальне","place":"village","population":"74","postal_code":"92930","type":"boundary","wikipedia":"uk:Півневе"}}]},"geometry":{"type":"Point","coordinates":[38.446651,49.157639]},"id":"node/337569561"}]}