{"type":"FeatureCollection","features":[{"type":"Feature","properties":{"@id":"relation/4733657","addr:postcode":"92211","admin_level":"9","boundary":"administrative","koatuu":"4420955700","name":"Лозно-Олександрівка","name:en":"Lozno-Oleksandrivka","name:prefix":"селище міського типу","name:ru":"Лозно-Александровка","name:uk":"Лозно-Олександрівка","place":"town","population":"1000","type":"boundary","wikidata":"Q4265494","wikipedia":"uk:Лозно-Олександрівка","wikipedia:ru":"Лозно-Александровка"},"geometry":{"type":"Polygon","coordinates":[[[38.69625,49.84926],[38.69556,49.84703],[38.69505,49.84514],[38.70672,49.84325],[38.70861,49.84154],[38.72526,49.84102],[38.72423,49.8333],[38.7208,49.8333],[38.71376,49.83845],[38.70981,49.83879],[38.7038,49.83656],[38.69797,49.83587],[38.69831,49.83312],[38.70964,49.83278],[38.71067,49.82901],[38.72337,49.82969],[38.7311,49.82746],[38.73522,49.8333],[38.74723,49.83038],[38.75135,49.8369],[38.76835,49.83742],[38.77024,49.83467],[38.7759,49.84257],[38.76371,49.84686],[38.75788,49.84651],[38.74637,49.8436],[38.73144,49.84857],[38.72011,49.84583],[38.71376,49.84806],[38.69625,49.84926]]]},"id":"relation/4733657"},{"type":"Feature","properties":{"@id":"node/337543357","@relations":[{"role":"admin_centre","rel":4733657,"reltags":{"addr:postcode":"92211","admin_level":"9","boundary":"administrative","koatuu":"4420955700","name":"Лозно-Олександрівка","name:en":"Lozno-Oleksandrivka","name:prefix":"селище міського типу","name:ru":"Лозно-Александровка","name:uk":"Лозно-Олександрівка","place":"town","population":"1000","type":"boundary","wikidata":"Q4265494","wikipedia":"uk:Лозно-Олександрівка","wikipedia:ru":"Лозно-Александровка"}}]},"geometry":{"type":"Point","coordinates":[38.74226,49.83742]},"id":"node/337543357"},{"type":"Feature","properties":{"@id":"relation/17935465","admin_level":"10","boundary":"administrative","katotth":"UA44100070220079571","koatuu":"4425485006","name":"Чапліївка","name:en":"Chapliivka","name:ko":"차플리이우카","name:prefix":"село","name:ru":"Чаплиевка","name:uk":"Чапліївка","old_name":"Красна Чапліївка","old_name:en":"Krasna Chapliivka","old_name:ru":"Красная Чаплиевка","old_name:uk":"Красна Чапліївка","place":"hamlet","population":"39","postal_code":"92123","type":"boundary","wikipedia":"uk:Чапліївка (Троїцький район)"},"geometry":{"type":"Polygon","coordinates":[[[38.55102,49.76927],[38.55085,49.76601],[38.5718,49.76326],[38.5723445,49.763614],[38.57523,49.76549],[38.57265,49.76995],[38.56665,49.77442],[38.55909,49.76772],[38.55102,49.76927]]]},"id":"relation/17935465"},{"type":"Feature","properties":{"@id":"relation/18256314","admin_level":"10","boundary":"administrative","katotth":"UA44100070150024984","koatuu":"4420988209","name":"Няньчине","name:en":"Nianchyne","name:ko":"냔치네","name:prefix":"село","name:ru":"Няньчино","name:uk":"Няньчине","old_name":"Нянчине","old_name:prefix":"хутір","old_name:ru":"Нянчино","old_name:uk":"Нянчине","place":"village","population":"198","postal_code":"92212","type":"boundary","wikidata":"Q4328698","wikipedia":"uk:Няньчине"},"geometry":{"type":"Polygon","coordinates":[[[38.71118,49.77047],[38.70775,49.76206],[38.699,49.76292],[38.69762,49.75759],[38.71101,49.75347],[38.71445,49.75571],[38.71616,49.76309],[38.71204,49.76377],[38.71221,49.76498],[38.71839,49.76807],[38.71839,49.76961],[38.71118,49.77047]]]},"id":"relation/18256314"},{"type":"Feature","properties":{"@id":"node/337545810","@relations":[{"role":"label","rel":17935465,"reltags":{"admin_level":"10","boundary":"administrative","katotth":"UA44100070220079571","koatuu":"4425485006","name":"Чапліївка","name:en":"Chapliivka","name:ko":"차플리이우카","name:prefix":"село","name:ru":"Чаплиевка","name:uk":"Чапліївка","old_name":"Красна Чапліївка","old_name:en":"Krasna Chapliivka","old_name:ru":"Красная Чаплиевка","old_name:uk":"Красна Чапліївка","place":"hamlet","population":"39","postal_code":"92123","type":"boundary","wikipedia":"uk:Чапліївка (Троїцький район)"}}]},"geometry":{"type":"Point","coordinates":[38.568878,49.766811]},"id":"node/337545810"},{"type":"Feature","properties":{"@id":"node/337545951","@relations":[{"role":"label","rel":18256314,"reltags":{"admin_level":"10","boundary":"administrative","katotth":"UA44100070150024984","koatuu":"4420988209","name":"Няньчине","name:en":"Nianchyne","name:ko":"냔치네","name:prefix":"село","name:ru":"Няньчино","name:uk":"Няньчине","old_name":"Нянчине","old_name:prefix":"хутір","old_name:ru":"Нянчино","old_name:uk":"Нянчине","place":"village","population":"198","postal_code":"92212","type":"boundary","wikidata":"Q4328698","wikipedia":"uk:Няньчине"}}]},"geometry":{"type":"Point","coordinates":[38.70518,49.75948]},"id":"node/337545951"}]}