{"type":"FeatureCollection","features":[{"type":"Feature","properties":{"@id":"relation/4189503","admin_level":"9","boundary":"administrative","landuse":"residential","name":"Горбків","name:uk":"Горбків","place":"village","type":"boundary"},"geometry":{"type":"Polygon","coordinates":[[[24.3654354,50.4778604],[24.3648999,50.4777969],[24.3633415,50.4764552],[24.362803,50.4766521],[24.364304,50.4787704],[24.3648675,50.4806714],[24.3643125,50.4811769],[24.3612657,50.4796215],[24.3594184,50.4808537],[24.3579762,50.4801577],[24.3574658,50.4804206],[24.3588108,50.481457],[24.3606684,50.482195],[24.3595704,50.4824301],[24.3566831,50.482633],[24.3542715,50.4828323],[24.3540341,50.4839247],[24.3522466,50.4841726],[24.3507799,50.4846392],[24.3492216,50.4844278],[24.3488779,50.4840195],[24.348832,50.4833925],[24.3463226,50.4829988],[24.3462539,50.4824738],[24.349283,50.4816635],[24.3492248,50.48142],[24.3514043,50.4809405],[24.3492671,50.4772462],[24.3445822,50.4748976],[24.3435248,50.4731831],[24.3473934,50.4722],[24.3469913,50.4712764],[24.3499479,50.470239],[24.3496319,50.4698677],[24.3511793,50.4694679],[24.3519793,50.4706188],[24.3504866,50.4713241],[24.3527941,50.4735583],[24.3541796,50.4730169],[24.3545361,50.4738058],[24.35652,50.47548],[24.3579814,50.4751317],[24.3597574,50.4768964],[24.363089,50.4757996],[24.3628499,50.4753704],[24.3628144,50.4753067],[24.3641551,50.4750806],[24.3654354,50.4778604]]]},"id":"relation/4189503"},{"type":"Feature","properties":{"@id":"relation/6144051","addr:postcode":"80010","admin_level":"9","boundary":"administrative","koatuu":"4624887801","name":"Тудорковичі","name:en":"Tudorkovychi","name:pl":"Tudorkowice","name:ru":"Тудорковичи","name:uk":"Тудорковичі","place":"village","population":"513","type":"boundary","wikidata":"Q4464951","wikipedia":"uk:Тудорковичі","wikipedia:ru":"Тудорковичи"},"geometry":{"type":"Polygon","coordinates":[[[24.156535,50.5771341],[24.1569641,50.5760984],[24.1584233,50.5745654],[24.1590938,50.5747868],[24.1581926,50.5762313],[24.1619906,50.5767627],[24.1657028,50.5777166],[24.1684708,50.574746],[24.1695437,50.5750049],[24.1700802,50.5761904],[24.1704637,50.5763795],[24.1710672,50.5730834],[24.1798863,50.5776893],[24.1811094,50.5768172],[24.1815171,50.5770216],[24.1828475,50.5762722],[24.1834268,50.5760678],[24.1846445,50.5751854],[24.1848377,50.5753081],[24.1862968,50.5742452],[24.1870263,50.5745722],[24.1887859,50.5730459],[24.1900304,50.5737137],[24.1891936,50.5746352],[24.1886303,50.5750969],[24.186211,50.5764527],[24.1870907,50.5771341],[24.1840437,50.579396],[24.1863826,50.5804452],[24.1870049,50.5808539],[24.1904596,50.5826933],[24.1881207,50.5848733],[24.1905239,50.5865762],[24.1891936,50.5904861],[24.1867259,50.5893554],[24.1846875,50.5891511],[24.1852024,50.5881293],[24.1832498,50.5876798],[24.1777352,50.5869032],[24.1756967,50.5868896],[24.1741947,50.5867397],[24.1726497,50.5872983],[24.1712764,50.5879114],[24.1702035,50.5886879],[24.1680363,50.5872983],[24.1695598,50.5801565],[24.1653541,50.5790281],[24.1608694,50.5778699],[24.156535,50.5771341]]]},"id":"relation/6144051"},{"type":"Feature","properties":{"@id":"relation/8134443","admin_level":"9","boundary":"administrative","name":"Сокаль","name:ar":"سوكال","name:el":"Σοκάλ","name:en":"Sokal","name:fa":"سوکال","name:he":"סוקאל","name:hr":"Sokalj","name:hy":"Սոկալ","name:ko":"소칼","name:lv":"Sokaļa","name:prefix":"місто","name:sr":"Сокаљ","name:uk":"Сокаль","name:zh":"索卡利","place":"town","type":"boundary"},"geometry":{"type":"Polygon","coordinates":[[[24.2698852,50.5109703],[24.2696858,50.5104499],[24.2679007,50.5091143],[24.2677579,50.5087673],[24.2678654,50.5082133],[24.2681041,50.5076969],[24.2680719,50.5074725],[24.2680336,50.5072064],[24.2673933,50.5066189],[24.2663527,50.5056176],[24.2660737,50.5044729],[24.2656947,50.50327],[24.2652624,50.5030275],[24.2647414,50.5029567],[24.263717,50.5031798],[24.2614871,50.5040789],[24.2603633,50.5040447],[24.2598452,50.5036912],[24.2595294,50.5035039],[24.2592261,50.5028394],[24.2595235,50.501831],[24.2607774,50.4999227],[24.2628506,50.4979074],[24.2670022,50.4951167],[24.2696968,50.4927727],[24.2714033,50.4909357],[24.2724391,50.4879289],[24.27194,50.4832073],[24.2721914,50.480354],[24.2711267,50.4786276],[24.2708158,50.4776634],[24.2708684,50.47647],[24.2715601,50.4748141],[24.2716462,50.4707517],[24.2718518,50.4694689],[24.2714508,50.4677803],[24.271553,50.4670488],[24.2720727,50.4663484],[24.2753083,50.4649727],[24.2765941,50.4640621],[24.2776427,50.4630261],[24.2787022,50.4611501],[24.278801,50.4608399],[24.2794424,50.4609547],[24.2795153,50.4609615],[24.280079,50.4610004],[24.2801267,50.4610042],[24.282261,50.4611752],[24.2822273,50.4603614],[24.285365,50.4623413],[24.288779,50.4624079],[24.2903216,50.4623679],[24.2910746,50.4623282],[24.2984076,50.4622703],[24.2981273,50.4671484],[24.3045796,50.4667477],[24.3050227,50.4667202],[24.3051129,50.4701413],[24.3052322,50.4762128],[24.3070111,50.4760671],[24.3073114,50.4770825],[24.3082823,50.4769987],[24.3085249,50.478174],[24.3085651,50.4783562],[24.3086354,50.479056],[24.3086265,50.4805175],[24.2998019,50.4806851],[24.2998564,50.4880669],[24.3001626,50.4880789],[24.3004912,50.4880931],[24.3010793,50.48881],[24.3011701,50.4888324],[24.3012238,50.4888317],[24.3043204,50.4887904],[24.3040766,50.4899527],[24.3006807,50.4900543],[24.2991423,50.4901406],[24.2972459,50.490133],[24.2972755,50.4906895],[24.297295,50.4912944],[24.2983529,50.4986907],[24.2983614,50.4987426],[24.2978817,50.4987332],[24.2973269,50.4987266],[24.2973057,50.5021966],[24.2992534,50.5026094],[24.3034043,50.5034236],[24.3051073,50.5044061],[24.3067934,50.5053278],[24.3081603,50.5071142],[24.3073787,50.5075446],[24.306278,50.5068228],[24.3044325,50.5077588],[24.3043412,50.508003],[24.3017064,50.5093705],[24.2970549,50.5117012],[24.2958977,50.5106613],[24.2950235,50.5110556],[24.2940317,50.5109908],[24.2907121,50.5117393],[24.2893653,50.512035],[24.2886617,50.5121894],[24.2875082,50.5128263],[24.2845923,50.5145606],[24.284454,50.5148558],[24.2827719,50.5157251],[24.2811048,50.5143869],[24.2807404,50.5135212],[24.2813699,50.513101],[24.2806114,50.5124568],[24.2813097,50.5120676],[24.2818394,50.5119501],[24.2810256,50.5095922],[24.2821118,50.5088849],[24.2820449,50.5086926],[24.2716468,50.5101621],[24.2715804,50.5107131],[24.2698852,50.5109703]]]},"id":"relation/8134443"},{"type":"Feature","properties":{"@id":"node/261704180","@relations":[{"role":"admin_centre","rel":8134443,"reltags":{"admin_level":"9","boundary":"administrative","name":"Сокаль","name:ar":"سوكال","name:el":"Σοκάλ","name:en":"Sokal","name:fa":"سوکال","name:he":"סוקאל","name:hr":"Sokalj","name:hy":"Սոկալ","name:ko":"소칼","name:lv":"Sokaļa","name:prefix":"місто","name:sr":"Сокаљ","name:uk":"Сокаль","name:zh":"索卡利","place":"town","type":"boundary"}}]},"geometry":{"type":"Point","coordinates":[24.2770538,50.4791313]},"id":"node/261704180"},{"type":"Feature","properties":{"@id":"node/337519479","@relations":[{"role":"admin_centre","rel":6144051,"reltags":{"addr:postcode":"80010","admin_level":"9","boundary":"administrative","koatuu":"4624887801","name":"Тудорковичі","name:en":"Tudorkovychi","name:pl":"Tudorkowice","name:ru":"Тудорковичи","name:uk":"Тудорковичі","place":"village","population":"513","type":"boundary","wikidata":"Q4464951","wikipedia":"uk:Тудорковичі","wikipedia:ru":"Тудорковичи"}}]},"geometry":{"type":"Point","coordinates":[24.1720245,50.58161]},"id":"node/337519479"},{"type":"Feature","properties":{"@id":"node/337521200","@relations":[{"role":"admin_centre","rel":4189503,"reltags":{"admin_level":"9","boundary":"administrative","landuse":"residential","name":"Горбків","name:uk":"Горбків","place":"village","type":"boundary"}}]},"geometry":{"type":"Point","coordinates":[24.350807,50.47562]},"id":"node/337521200"}]}