{"type":"FeatureCollection","features":[{"type":"Feature","properties":{"@id":"relation/18611040","admin_level":"10","boundary":"administrative","katotth":"UA51040290060020389","koatuu":"5124583601","name":"Байрамча","name:crh":"Bayramça","name:de":"Bajramtscha","name:en":"Bairamcha","name:nog":"Байрамча","name:prefix":"село","name:ro":"Bairamcea","name:ru":"Байрамча","name:uk":"Байрамча","old_name:1945-2024":"Миколаївка-Новоросійська","old_name:de:1945-2024":"Mykolajiwka-Noworossijska","old_name:en:1945-2024":"Mykolaivka-Novorosiiska","old_name:fr:1945-2024":"Mykolaivka-Novorosiiska","old_name:ko:1945-2024":"미콜라이우카노보로시스카","old_name:prefix":"станиця","old_name:ro:1945-2024":"Mîkolaiivka-Novorosiiska","old_name:ru:1945-2024":"Николаевка-Новороссийская","old_name:uk:1945-2024":"Миколаївка-Новоросійська","place":"village","population":"1218","postal_code":"68244","type":"boundary","wikidata":"Q4320223","wikipedia":"uk:Байрамча"},"geometry":{"type":"MultiPolygon","coordinates":[[[[29.9116254,46.1278333],[29.907318,46.1270719],[29.9074582,46.1267631],[29.9063141,46.1265439],[29.9064378,46.1262027],[29.9027038,46.1255645],[29.903129,46.1241921],[29.9081138,46.1246035],[29.9086529,46.12256],[29.9130424,46.1233949],[29.9124539,46.1255642],[29.9116254,46.1278333]]],[[[29.8976116,46.1373889],[29.8981333,46.1359291],[29.8970518,46.135739],[29.8983842,46.1326172],[29.8979102,46.1323711],[29.8971864,46.1312827],[29.8972229,46.129946],[29.898071,46.1296515],[29.8999953,46.1258203],[29.9021972,46.1262362],[29.9023279,46.1258199],[29.9073151,46.1268324],[29.9072511,46.1271744],[29.9118363,46.1280507],[29.9131011,46.1282427],[29.9162512,46.1285638],[29.9132596,46.1372908],[29.9120473,46.1369245],[29.9115735,46.1378902],[29.9104176,46.1375653],[29.9101723,46.1380131],[29.9091094,46.1377672],[29.907022,46.1429693],[29.8998896,46.1422344],[29.8976116,46.1373889]]]]},"id":"relation/18611040"},{"type":"Feature","properties":{"@id":"node/337691949","@relations":[{"role":"label","rel":18611040,"reltags":{"admin_level":"10","boundary":"administrative","katotth":"UA51040290060020389","koatuu":"5124583601","name":"Байрамча","name:crh":"Bayramça","name:de":"Bajramtscha","name:en":"Bairamcha","name:nog":"Байрамча","name:prefix":"село","name:ro":"Bairamcea","name:ru":"Байрамча","name:uk":"Байрамча","old_name:1945-2024":"Миколаївка-Новоросійська","old_name:de:1945-2024":"Mykolajiwka-Noworossijska","old_name:en:1945-2024":"Mykolaivka-Novorosiiska","old_name:fr:1945-2024":"Mykolaivka-Novorosiiska","old_name:ko:1945-2024":"미콜라이우카노보로시스카","old_name:prefix":"станиця","old_name:ro:1945-2024":"Mîkolaiivka-Novorosiiska","old_name:ru:1945-2024":"Николаевка-Новороссийская","old_name:uk:1945-2024":"Миколаївка-Новоросійська","place":"village","population":"1218","postal_code":"68244","type":"boundary","wikidata":"Q4320223","wikipedia":"uk:Байрамча"}}]},"geometry":{"type":"Point","coordinates":[29.903189,46.1350455]},"id":"node/337691949"}]}