{"type":"FeatureCollection","features":[{"type":"Feature","properties":{"@id":"relation/18319185","admin_level":"10","boundary":"administrative","katotth":"UA07060270120016033","koatuu":"0723383701","name":"Підгороднє","name:de":"Pidhorodne","name:en":"Pidhorodne","name:ko":"피드호로드네","name:pl":"Podhorodno","name:prefix":"село","name:ru":"Подгородное","name:uk":"Підгороднє","old_name":"Підгородне","old_name:uk":"Підгородне","place":"village","population":"389","postal_code":"44342","type":"boundary","wikidata":"Q4367427","wikipedia":"uk:Підгороднє (Ковельський район)"},"geometry":{"type":"Polygon","coordinates":[[[24.20855,51.23199],[24.21335,51.23697],[24.20048,51.23989],[24.20185,51.24264],[24.19344,51.24298],[24.18486,51.24315],[24.17971,51.24246],[24.17919,51.23251],[24.19516,51.23268],[24.19876,51.23199],[24.20855,51.23199]]]},"id":"relation/18319185"},{"type":"Feature","properties":{"@id":"node/337510361","@relations":[{"role":"label","rel":18319185,"reltags":{"admin_level":"10","boundary":"administrative","katotth":"UA07060270120016033","koatuu":"0723383701","name":"Підгороднє","name:de":"Pidhorodne","name:en":"Pidhorodne","name:ko":"피드호로드네","name:pl":"Podhorodno","name:prefix":"село","name:ru":"Подгородное","name:uk":"Підгороднє","old_name":"Підгородне","old_name:uk":"Підгородне","place":"village","population":"389","postal_code":"44342","type":"boundary","wikidata":"Q4367427","wikipedia":"uk:Підгороднє (Ковельський район)"}}]},"geometry":{"type":"Point","coordinates":[24.191408,51.238461]},"id":"node/337510361"}]}