{"type":"FeatureCollection","features":[{"type":"Feature","properties":{"@id":"relation/4673417","admin_level":"9","boundary":"administrative","name":"Буряки","name:de":"Burjaky","name:en":"Buriaky","name:fi":"Burjaky","name:fr":"Bouriaky","name:it":"Burjaky","name:ko":"부랴키","name:pl":"Buraki","name:prefix":"село","name:ru":"Буряки","name:uk":"Буряки","name:zh":"布里亞基","place":"village","type":"boundary","wikidata":"Q2913489","wikipedia":"uk:Буряки"},"geometry":{"type":"Polygon","coordinates":[[[28.2981562,49.8111692],[28.2980608,49.8115289],[28.2989583,49.8134226],[28.2990676,49.8144601],[28.2999106,49.8170135],[28.3001915,49.8174416],[28.3010345,49.8192646],[28.3013077,49.8195063],[28.3014169,49.8197581],[28.3014091,49.8200552],[28.301815,49.8208559],[28.2997726,49.8214037],[28.3001964,49.8224489],[28.29922,49.8226635],[28.299045,49.8222743],[28.2921523,49.8237311],[28.2909894,49.8220594],[28.2906694,49.8221752],[28.2870946,49.8233333],[28.2880781,49.8250554],[28.2852683,49.825851],[28.283575,49.8263969],[28.2830204,49.826566],[28.2821372,49.8249546],[28.2728585,49.828071],[28.2715827,49.8253428],[28.2832517,49.8228637],[28.283957,49.8227291],[28.2835668,49.8220644],[28.2831687,49.822145],[28.2830141,49.8219194],[28.283036,49.8214954],[28.2829514,49.821074],[28.2813033,49.8215256],[28.2810145,49.8213997],[28.2802886,49.8214249],[28.2800467,49.8216313],[28.2787432,49.8220241],[28.2785013,49.8218277],[28.2778222,49.8218076],[28.2763462,49.821789],[28.2737246,49.8220795],[28.271204,49.8222898],[28.2678219,49.8227452],[28.2680659,49.8221651],[28.2678864,49.8202415],[28.2694843,49.8186625],[28.277975,49.8180316],[28.2778954,49.8170095],[28.2797265,49.8169304],[28.282379,49.8167541],[28.2822087,49.8160012],[28.2795953,49.8161853],[28.2793655,49.8148796],[28.2807881,49.8147623],[28.2804357,49.8130312],[28.2822568,49.8129004],[28.2856941,49.8128551],[28.2859202,49.8091542],[28.29651,49.8076606],[28.2981562,49.8111692]]]},"id":"relation/4673417"},{"type":"Feature","properties":{"@id":"relation/7236583","addr:district":"Бердичівський район","addr:postcode":"13360","admin_level":"9","boundary":"administrative","koatuu":"1820884502","name":"Богданівка","name:en":"Bohdanivka","name:pl":"Bogdanówka","name:prefix":"село","name:ru":"Богдановка","name:uk":"Богданівка","note":"Географічно і земкадастр КОАТУУ Чуднів р-н, за Нац реєстр НП rada.gov.ua Бердичів р-н. Межі факт. забудові , в земкадастрі ліс поділено на 2 ділянки держвласн-ті без віддокремлення тери-рії з КОАТУУ як нас. пункт","place":"hamlet","population":"32","type":"boundary","wikidata":"Q4089318","wikipedia":"uk:Богданівка (Бердичівський район)"},"geometry":{"type":"Polygon","coordinates":[[[28.3082134,49.9139697],[28.3079588,49.9136856],[28.3076477,49.9133608],[28.3071434,49.913043],[28.3068752,49.9132227],[28.3065104,49.9134541],[28.3058667,49.9130292],[28.3070705,49.912023],[28.3072834,49.9121341],[28.3082163,49.9116785],[28.3084644,49.9118793],[28.3076446,49.9123227],[28.3087876,49.913167],[28.3096761,49.9127431],[28.309773,49.9127382],[28.3102018,49.9134075],[28.3110657,49.9130632],[28.31138,49.9133893],[28.3114175,49.9134828],[28.3114801,49.9135792],[28.3117538,49.9138236],[28.3111648,49.9147827],[28.3110648,49.9148341],[28.3104533,49.9143885],[28.3099007,49.9147288],[28.3091068,49.9141968],[28.3086026,49.9144041],[28.3082134,49.9139697]]]},"id":"relation/7236583"},{"type":"Feature","properties":{"@id":"relation/9567227","addr:postcode":"13309","admin_level":"9","boundary":"administrative","koatuu":"1820885002","name":"Бенедівка","name:en":"Benedivka","name:pl":"Benedówka","name:prefix":"село","name:ru":"Бенедовка","name:uk":"Бенедівка","place":"village","population":"103","source:geometry":"кадастр з поправкою на приватизацію ділянок","type":"boundary","wikidata":"Q4083759","wikipedia":"uk:Бенедівка"},"geometry":{"type":"Polygon","coordinates":[[[28.4592086,49.8867201],[28.4604478,49.8863503],[28.4602493,49.8853652],[28.4600884,49.885106],[28.4599972,49.8847742],[28.4598349,49.8837635],[28.4598308,49.8836336],[28.4593964,49.8836405],[28.4594393,49.8832222],[28.4599341,49.8832634],[28.4600615,49.8825517],[28.460598,49.8819156],[28.4598899,49.8819018],[28.460319,49.8815838],[28.4609198,49.8814732],[28.4612202,49.8817497],[28.465662,49.8815838],[28.4654689,49.8821369],[28.4659624,49.8821645],[28.4655118,49.88316],[28.4698033,49.8835748],[28.4694814,49.8842661],[28.4701037,49.8844735],[28.4704041,49.8847638],[28.4719705,49.8851786],[28.4736872,49.8857593],[28.47476,49.884985],[28.4756881,49.8844182],[28.4758544,49.8824549],[28.4781074,49.8826623],[28.4777212,49.8841002],[28.4769702,49.8851924],[28.476305,49.8856763],[28.4744446,49.8853222],[28.4744434,49.8869151],[28.474452,49.8871075],[28.4744603,49.8872961],[28.4744853,49.8877206],[28.4761333,49.8877639],[28.4767556,49.8887317],[28.4749657,49.8889782],[28.4748881,49.8888749],[28.4747337,49.8886604],[28.4745613,49.8881966],[28.4745053,49.8878797],[28.4728718,49.8879436],[28.4729576,49.888075],[28.4732059,49.889056],[28.4722817,49.8891499],[28.4721476,49.8901106],[28.4719759,49.8902627],[28.4703344,49.8903664],[28.4700179,49.8903491],[28.4694385,49.8880266],[28.4688592,49.8879022],[28.4680438,49.8879851],[28.4674215,49.8870588],[28.4642029,49.886257],[28.4627867,49.8860496],[28.4628081,49.8858007],[28.4618211,49.8855934],[28.4616494,49.8860081],[28.4609392,49.8861487],[28.4611395,49.8866839],[28.4611586,49.8867348],[28.4613383,49.8873457],[28.459391,49.8875946],[28.4592086,49.8867201]]]},"id":"relation/9567227"},{"type":"Feature","properties":{"@id":"relation/9569043","addr:postcode":"13361","admin_level":"9","boundary":"administrative","koatuu":"1820881202","landuse":"residential","name":"Любомирка","name:en":"Liubomyrka","name:prefix":"село","name:ru":"Любомирка","name:uk":"Любомирка","place":"hamlet","population":"10","source:geometry":"Josm background of ukrainian cadastre","type":"boundary","wikidata":"Q4271889","wikipedia":"uk:Любомирка (Бердичівський район)"},"geometry":{"type":"Polygon","coordinates":[[[28.5215565,49.8815952],[28.5209005,49.882188],[28.5202807,49.8821668],[28.5186809,49.8817445],[28.5180633,49.8813773],[28.51762,49.8809832],[28.5151106,49.8805486],[28.5137376,49.8801359],[28.5112605,49.8792737],[28.511441,49.8780924],[28.5215565,49.8815952]]]},"id":"relation/9569043"},{"type":"Feature","properties":{"@id":"node/337540809","@relations":[{"role":"label","rel":7236583,"reltags":{"addr:district":"Бердичівський район","addr:postcode":"13360","admin_level":"9","boundary":"administrative","koatuu":"1820884502","name":"Богданівка","name:en":"Bohdanivka","name:pl":"Bogdanówka","name:prefix":"село","name:ru":"Богдановка","name:uk":"Богданівка","note":"Географічно і земкадастр КОАТУУ Чуднів р-н, за Нац реєстр НП rada.gov.ua Бердичів р-н. Межі факт. забудові , в земкадастрі ліс поділено на 2 ділянки держвласн-ті без віддокремлення тери-рії з КОАТУУ як нас. пункт","place":"hamlet","population":"32","type":"boundary","wikidata":"Q4089318","wikipedia":"uk:Богданівка (Бердичівський район)"}}]},"geometry":{"type":"Point","coordinates":[28.309019,49.913288]},"id":"node/337540809"},{"type":"Feature","properties":{"@id":"node/337541848","@relations":[{"role":"admin_centre","rel":9567227,"reltags":{"addr:postcode":"13309","admin_level":"9","boundary":"administrative","koatuu":"1820885002","name":"Бенедівка","name:en":"Benedivka","name:pl":"Benedówka","name:prefix":"село","name:ru":"Бенедовка","name:uk":"Бенедівка","place":"village","population":"103","source:geometry":"кадастр з поправкою на приватизацію ділянок","type":"boundary","wikidata":"Q4083759","wikipedia":"uk:Бенедівка"}}]},"geometry":{"type":"Point","coordinates":[28.4678978,49.8858663]},"id":"node/337541848"},{"type":"Feature","properties":{"@id":"node/337541911","@relations":[{"role":"label","rel":9569043,"reltags":{"addr:postcode":"13361","admin_level":"9","boundary":"administrative","koatuu":"1820881202","landuse":"residential","name":"Любомирка","name:en":"Liubomyrka","name:prefix":"село","name:ru":"Любомирка","name:uk":"Любомирка","place":"hamlet","population":"10","source:geometry":"Josm background of ukrainian cadastre","type":"boundary","wikidata":"Q4271889","wikipedia":"uk:Любомирка (Бердичівський район)"}}]},"geometry":{"type":"Point","coordinates":[28.5158462,49.8803288]},"id":"node/337541911"},{"type":"Feature","properties":{"@id":"node/337543923","@relations":[{"role":"label","rel":4673417,"reltags":{"admin_level":"9","boundary":"administrative","name":"Буряки","name:de":"Burjaky","name:en":"Buriaky","name:fi":"Burjaky","name:fr":"Bouriaky","name:it":"Burjaky","name:ko":"부랴키","name:pl":"Buraki","name:prefix":"село","name:ru":"Буряки","name:uk":"Буряки","name:zh":"布里亞基","place":"village","type":"boundary","wikidata":"Q2913489","wikipedia":"uk:Буряки"}}]},"geometry":{"type":"Point","coordinates":[28.2877064,49.8180127]},"id":"node/337543923"}]}