{"type":"FeatureCollection","features":[{"type":"Feature","properties":{"@id":"relation/4749772","admin_level":"9","boundary":"administrative","koatuu":"1825055300","name":"Біла Криниця","name:ca":"Bila Krínítsia","name:de":"Bila Krynyzja","name:en":"Bila Krynytsia","name:es":"Bila Krínítsia","name:fi":"Bila Krynytsja","name:fr":"Bila Krynytsia","name:it":"Bila Krynycja","name:ko":"빌라 크리니차","name:pl":"Biała Krynica","name:prefix":"селище міського типу","name:ro":"Bila Krînîțea","name:ru":"Белая Криница","name:uk":"Біла Криниця","name:uz":"Bila Krinitsa","name:zh":"白克里尼察","place":"town","population":"945","postal_code":"12213","type":"boundary","wikidata":"Q2902643","wikipedia":"uk:Біла Криниця (Радомишльський район)"},"geometry":{"type":"Polygon","coordinates":[[[29.4447373,50.6210648],[29.4449252,50.6211623],[29.4554679,50.623843],[29.4544369,50.6250132],[29.4551459,50.6256092],[29.4550175,50.6262682],[29.4540275,50.6270765],[29.4584773,50.6296548],[29.4598974,50.6287796],[29.4603236,50.628211],[29.4610906,50.6275523],[29.4615733,50.6273719],[29.4643098,50.6260909],[29.4660834,50.6265699],[29.4699594,50.6275078],[29.4722914,50.6282155],[29.4695867,50.6297665],[29.4679255,50.6308133],[29.4662926,50.6316433],[29.4643872,50.6327474],[29.4635764,50.6332494],[29.4669267,50.6351597],[29.4718881,50.6380362],[29.4765074,50.640583],[29.4780829,50.6412739],[29.4789771,50.6416532],[29.4841075,50.646258],[29.4851073,50.6468021],[29.4850088,50.6468711],[29.4811852,50.6495494],[29.4811248,50.6497635],[29.4811305,50.6499766],[29.4799529,50.6504965],[29.4766617,50.6487938],[29.4740868,50.6474638],[29.4721931,50.6455351],[29.4702995,50.6445929],[29.4660294,50.6437526],[29.46567,50.6431063],[29.4643128,50.6421674],[29.4622636,50.6407555],[29.461357,50.6394662],[29.4610673,50.6392961],[29.4595009,50.6393335],[29.458133,50.6388742],[29.4564018,50.6380373],[29.454622,50.6377362],[29.4531933,50.637841],[29.4522259,50.6379522],[29.4511874,50.6371218],[29.4505442,50.6358217],[29.4487397,50.6359127],[29.448232,50.6357581],[29.4490251,50.6354472],[29.4491266,50.6352151],[29.4457775,50.6326596],[29.4408036,50.6290023],[29.4410833,50.6288117],[29.4422345,50.6281084],[29.44209,50.6274116],[29.4409132,50.6250969],[29.4420934,50.6240589],[29.4417393,50.6238581],[29.4418681,50.6237458],[29.441573,50.6235689],[29.4412565,50.623739],[29.4408542,50.6235825],[29.4409615,50.6234668],[29.4409132,50.6234565],[29.440366,50.6231571],[29.4405323,50.6230311],[29.4402695,50.6228848],[29.4397124,50.622552],[29.4401749,50.6220476],[29.4393438,50.6218],[29.4389608,50.6217679],[29.43865,50.6214057],[29.4390909,50.6207914],[29.4381297,50.6202824],[29.4369084,50.6199019],[29.4366916,50.6199981],[29.4357088,50.6190215],[29.4357915,50.6189255],[29.4402648,50.620081],[29.4421782,50.6206049],[29.4441671,50.6211495],[29.4447373,50.6210648]]]},"id":"relation/4749772"},{"type":"Feature","properties":{"@id":"relation/6726413","admin_level":"9","boundary":"administrative","koatuu":"1825055500","name":"Городок","name:en":"Horodok","name:pl":"Gródek","name:prefix":"селище міського типу","name:ru":"Городок","name:uk":"Городок","old_name":"Макарів-1","place":"town","population":"2631","postal_code":"12265","source":"http://pop-stat.mashke.org/ukraine-cities.htm","type":"boundary","wikidata":"Q12097108","wikipedia":"uk:Городок (смт)"},"geometry":{"type":"Polygon","coordinates":[[[29.4994986,50.5582999],[29.4984472,50.5605827],[29.4993275,50.5656146],[29.4995722,50.5664754],[29.4999031,50.5671153],[29.5011456,50.5686643],[29.5014543,50.5694576],[29.5029087,50.5706695],[29.5045035,50.5722308],[29.5050411,50.5727991],[29.5028659,50.5749044],[29.5004507,50.5757007],[29.4988554,50.5765321],[29.4980874,50.5781776],[29.4977955,50.578842],[29.4983265,50.5800746],[29.4982577,50.5864446],[29.4979873,50.5880215],[29.4983402,50.5898195],[29.4966982,50.5921929],[29.4951217,50.5930763],[29.4921964,50.5958691],[29.4867239,50.5979077],[29.4858143,50.5989774],[29.4855924,50.5992383],[29.4810152,50.6027826],[29.4754541,50.6082004],[29.472459,50.609249],[29.4682075,50.6099133],[29.4655156,50.6108397],[29.4627176,50.6113924],[29.462539,50.6113525],[29.432118,50.6046546],[29.4386089,50.5959203],[29.4380778,50.5958037],[29.4397451,50.5929848],[29.4416643,50.5897299],[29.4583383,50.561442],[29.4723888,50.5647243],[29.4766803,50.5629251],[29.4815632,50.5611281],[29.4874768,50.5598622],[29.498673,50.5585097],[29.4994986,50.5582999]]]},"id":"relation/6726413"},{"type":"Feature","properties":{"@id":"node/310003076","@relations":[{"role":"label","rel":4749772,"reltags":{"admin_level":"9","boundary":"administrative","koatuu":"1825055300","name":"Біла Криниця","name:ca":"Bila Krínítsia","name:de":"Bila Krynyzja","name:en":"Bila Krynytsia","name:es":"Bila Krínítsia","name:fi":"Bila Krynytsja","name:fr":"Bila Krynytsia","name:it":"Bila Krynycja","name:ko":"빌라 크리니차","name:pl":"Biała Krynica","name:prefix":"селище міського типу","name:ro":"Bila Krînîțea","name:ru":"Белая Криница","name:uk":"Біла Криниця","name:uz":"Bila Krinitsa","name:zh":"白克里尼察","place":"town","population":"945","postal_code":"12213","type":"boundary","wikidata":"Q2902643","wikipedia":"uk:Біла Криниця (Радомишльський район)"}}]},"geometry":{"type":"Point","coordinates":[29.466003,50.63636]},"id":"node/310003076"},{"type":"Feature","properties":{"@id":"node/2032662314","@relations":[{"role":"label","rel":6726413,"reltags":{"admin_level":"9","boundary":"administrative","koatuu":"1825055500","name":"Городок","name:en":"Horodok","name:pl":"Gródek","name:prefix":"селище міського типу","name:ru":"Городок","name:uk":"Городок","old_name":"Макарів-1","place":"town","population":"2631","postal_code":"12265","source":"http://pop-stat.mashke.org/ukraine-cities.htm","type":"boundary","wikidata":"Q12097108","wikipedia":"uk:Городок (смт)"}}]},"geometry":{"type":"Point","coordinates":[29.4530965,50.5929252]},"id":"node/2032662314"}]}